id;name;staticDataUrl;dynamicDataUrl;limitedAccess;uuid;latitude;longitude;city;country_code;province;region;mark;usage;accessPoints;capacity;contactPersons;minimumHeightInMeters;openingTimes;tariffs;Operator
1;P+R Station Appingedam (Appingedam);https://npropendata.rdw.nl//parkingdata/v2/static/fc749565-1fe9-42f0-920a-3b4e718d62f9;;0;fc749565-1fe9-42f0-920a-3b4e718d62f9;53.325488634795;6.8620881539554;Appingedam;nl;Groningen;Noord-Nederland;good;park and ride;1;22;1;0;1;1;Appingedam
12;P+R Station Delfzijl-West (Delfzijl);https://npropendata.rdw.nl//parkingdata/v2/static/1c5af686-c6fb-48fc-b5da-2a4ba190e0af;;0;1c5af686-c6fb-48fc-b5da-2a4ba190e0af;53.3319782;6.9065321;Delfzijl;nl;Groningen;Noord-Nederland;good;park and ride;1;21;1;0;1;1;Delfzijl
14;P+R Station Delfzijl (Delfzijl);https://npropendata.rdw.nl//parkingdata/v2/static/a0b6ade4-66a6-477c-970b-64c8a0b63355;;0;a0b6ade4-66a6-477c-970b-64c8a0b63355;53.3337032;6.92500765;Delfzijl;nl;Groningen;Noord-Nederland;good;park and ride;1;25;1;0;1;1;Delfzijl
16;P+R Euroborg P3 (Groningen);https://npropendata.rdw.nl//parkingdata/v2/static/f599f67d-da10-4aec-8a51-93d494861b49;;0;f599f67d-da10-4aec-8a51-93d494861b49;53.2075931;6.5968452;Groningen;nl;Groningen;Noord-Nederland;good;park and ride;1;600;1;0;1;1;Groningen
48;P+R Leek, Pasop Midwolde (Leek);https://npropendata.rdw.nl//parkingdata/v2/static/71ba39a0-e63b-4cac-bd57-ac6f7e3aca63;;0;71ba39a0-e63b-4cac-bd57-ac6f7e3aca63;53.1849828;6.3806719828035;Westerkwartier;nl;Groningen;Noord-Nederland;good;park and ride;1;200;1;0;1;1;Leek
67;P+R-terrein Stichtse Brug (Almere);https://npropendata.rdw.nl//parkingdata/v2/static/b09fca09-3afb-43b8-9e24-15e6e851423f;;0;b09fca09-3afb-43b8-9e24-15e6e851423f;52.308627787714;5.3225728779255;Almere;nl;Flevoland;Noordwest-Nederland;good;park and ride;1;274;1;0;1;1;Almere
70;P+R-terrein Oostvaarders (Almere);https://npropendata.rdw.nl//parkingdata/v2/static/5ee3e19b-9c03-4d58-9eb2-bbd3a459cc16;;0;5ee3e19b-9c03-4d58-9eb2-bbd3a459cc16;52.4031231;5.2990181297917;Almere;nl;Flevoland;Noordwest-Nederland;good;park and ride;1;150;1;0;1;1;Almere
72;P+R-terrein Almere Parkwijk (Almere);https://npropendata.rdw.nl//parkingdata/v2/static/31d70250-d452-414f-bf8e-69fdff4bc45c;;0;31d70250-d452-414f-bf8e-69fdff4bc45c;52.3770936;5.2433553734247;Almere;nl;Flevoland;Noordwest-Nederland;good;park and ride;1;265;1;0;1;1;Almere
73;P+R-terrein 't Oortje (Almere);https://npropendata.rdw.nl//parkingdata/v2/static/871a470d-2212-4898-a338-912dee3fd276;;0;871a470d-2212-4898-a338-912dee3fd276;52.355829745849;5.2212179718058;Almere;nl;Flevoland;Noordwest-Nederland;good;park and ride;1;100;1;0;1;1;Almere
76;P+R-terrein Almere Muziekwijk (Almere);https://npropendata.rdw.nl//parkingdata/v2/static/16e1efd6-fce3-43cc-a7fc-0e08e216e718;http://opd.it-t.nl/Data/parkingdata/v1/almere/dynamic/16e1efd6-fce3-43cc-a7fc-0e08e216e718.json;0;16e1efd6-fce3-43cc-a7fc-0e08e216e718;52.3677722;5.1893385840402;Almere;nl;Flevoland;Noordwest-Nederland;good;park and ride;1;345;1;0;1;1;Almere
105;P+R Stationsstraat, Sauwerd (Winsum);https://npropendata.rdw.nl//parkingdata/v2/static/7ce06463-5f00-4238-a128-7fca5379247e;;0;7ce06463-5f00-4238-a128-7fca5379247e;53.2921603;6.5396692;Het Hogeland;nl;Groningen;Noord-Nederland;good;park and ride;1;13;1;0;1;1;Winsum
107;P+R Stationsweg, Baflo (Winsum);https://npropendata.rdw.nl//parkingdata/v2/static/cf1a89b0-9768-43e0-9ba0-a9d7a1e09209;;0;cf1a89b0-9768-43e0-9ba0-a9d7a1e09209;53.3608825;6.5185413;Het Hogeland;nl;Groningen;Noord-Nederland;good;park and ride;1;6;1;0;1;1;Winsum
108;P+R Het Hoge Heem, Winsum (Winsum);https://npropendata.rdw.nl//parkingdata/v2/static/f74824a3-1ff0-43de-9d7e-2fb2a61ad02e;;0;f74824a3-1ff0-43de-9d7e-2fb2a61ad02e;53.330920484477;6.519529366263;Het Hogeland;nl;Groningen;Noord-Nederland;good;park and ride;1;60;1;0;1;1;Winsum
213;P+R Coevorden (Coevorden);https://npropendata.rdw.nl//parkingdata/v2/static/e417f791-3282-47bd-98e4-c71426ab5ab8;;0;e417f791-3282-47bd-98e4-c71426ab5ab8;52.6641976;6.7361657;Coevorden;nl;Drenthe;Noord-Nederland;good;park and ride;1;71;1;0;1;1;Coevorden
286;P+R-terrein Stationsplein (Buitenpost);https://npropendata.rdw.nl//parkingdata/v2/static/4f615658-0d2d-4b32-91f1-c1cd8b1532ef;;0;4f615658-0d2d-4b32-91f1-c1cd8b1532ef;53.256045993836;6.1451535665998;Achtkarspelen;nl;Fryslân;Noord-Nederland;good;park and ride;1;119;1;0;1;1;Achtkarspelen
291;P&R Javapark P12 (Almelo);https://npropendata.rdw.nl//parkingdata/v2/static/e47e886b-3838-4955-9c45-edebd5bf3032;;0;e47e886b-3838-4955-9c45-edebd5bf3032;52.35852295;6.6549650633922;Almelo;nl;Overijssel;Oost-Nederland;good;park and ride;1;345;1;2.1;1;1;Almelo
304;P&R Zuiderval;https://npropendata.rdw.nl//parkingdata/v2/static/618afa54-e882-4c12-916c-f223cc9c4e4a;;0;618afa54-e882-4c12-916c-f223cc9c4e4a;52.2037107;6.8913669145454;Enschede;nl;Overijssel;Oost-Nederland;good;park and ride;1;225;1;3.8;1;1;Enschede
311;P+R Emmen (Emmen);https://npropendata.rdw.nl//parkingdata/v2/static/2eb63d2e-c7fb-4204-81d7-8766706cde88;;0;2eb63d2e-c7fb-4204-81d7-8766706cde88;52.789674614048;6.8990520652911;Emmen;nl;Drenthe;Noord-Nederland;good;park and ride;1;32;1;0;1;1;Emmen
371;P&R De Riet (Almelo);https://npropendata.rdw.nl//parkingdata/v2/static/1cda813d-59b6-4f16-9361-a9b4885abbf2;;0;1cda813d-59b6-4f16-9361-a9b4885abbf2;52.34565725;6.671481451251;Almelo;nl;Overijssel;Oost-Nederland;good;park and ride;1;8;1;0;1;1;Almelo
404;P+R Hengelo-Oost (Hengelo);https://npropendata.rdw.nl//parkingdata/v2/static/371ef46c-fa04-4e9c-961d-b90aa5d57149;;0;371ef46c-fa04-4e9c-961d-b90aa5d57149;52.2686862;6.8200054;Hengelo;nl;Overijssel;Oost-Nederland;good;park and ride;1;47;1;0;1;1;Hengelo
419;P+R Station Kampen (Kampen);https://npropendata.rdw.nl//parkingdata/v2/static/06401e41-7d2b-4dc8-860e-caef901a7d0c;;0;06401e41-7d2b-4dc8-860e-caef901a7d0c;52.5601612;5.9224723;Kampen;nl;Overijssel;Oost-Nederland;good;park and ride;1;170;1;0;1;1;Kampen
421;P+R Station Kampen-Zuid (Kampen);https://npropendata.rdw.nl//parkingdata/v2/static/77ecb0d9-d186-4512-96b7-ce2c8c3f2849;;0;77ecb0d9-d186-4512-96b7-ce2c8c3f2849;52.5328124;5.9160215;Kampen;nl;Overijssel;Oost-Nederland;good;park and ride;1;182;1;0;1;1;Kampen
473;P+R-terrein Aalten (Aalten);https://npropendata.rdw.nl//parkingdata/v2/static/02415939-3eba-47bc-af27-879b8807dfab;;0;02415939-3eba-47bc-af27-879b8807dfab;51.921537535686;6.5784238973082;Aalten;nl;Gelderland;Oost-Nederland;good;park and ride;1;83;1;0;1;1;Aalten
522;P+R Voorst-Empe (Empe);https://npropendata.rdw.nl//parkingdata/v2/static/381c5708-3c6f-4ee8-b88f-24497fd7c68f;;0;381c5708-3c6f-4ee8-b88f-24497fd7c68f;52.1575566;6.1440755;Brummen;nl;Gelderland;Oost-Nederland;good;park and ride;1;40;1;0;1;1;Brummen
539;P+R Station Duiven (Duiven);https://npropendata.rdw.nl//parkingdata/v2/static/3c146c06-103b-4721-9aba-0ef5f0534082;;0;3c146c06-103b-4721-9aba-0ef5f0534082;51.943410753439;6.0155699432557;Duiven;nl;Gelderland;Oost-Nederland;good;park and ride;1;100;1;0;1;1;Duiven
560;P+R Station 't Harde ('t Harde);https://npropendata.rdw.nl//parkingdata/v2/static/60ef7bde-ff67-47e7-8675-7fa83edd15d2;;0;60ef7bde-ff67-47e7-8675-7fa83edd15d2;52.4084149;5.8922604883536;Elburg;nl;Gelderland;Oost-Nederland;good;park and ride;1;149;1;0;1;1;Elburg
568;P+R Harderwijk (Harderwijk);https://npropendata.rdw.nl//parkingdata/v2/static/526e9381-b9b7-46bd-8f54-476272a214b0;;0;526e9381-b9b7-46bd-8f54-476272a214b0;52.3372586;5.6169062709673;Harderwijk;nl;Gelderland;Oost-Nederland;good;park and ride;1;200;1;0;1;1;Harderwijk
589;P+R Station Nijmegen Lent (Lent);https://npropendata.rdw.nl//parkingdata/v2/static/fa5db967-21ea-4fc7-a412-c86860a5d458;;0;fa5db967-21ea-4fc7-a412-c86860a5d458;51.8658641;5.8650923789979;Nijmegen;nl;Gelderland;Oost-Nederland;good;park and ride;1;30;1;0;1;1;Nijmegen
590;P+R Nijmegen-Noord (Nijmegen);https://npropendata.rdw.nl//parkingdata/v2/static/0967d16d-061b-4f44-838d-36cec4be68b9;https://opendata.technolution.nl/opendata/parkingdata/v1/dynamic/0967d16d-061b-4f44-838d-36cec4be68b9;0;0967d16d-061b-4f44-838d-36cec4be68b9;51.881824273102;5.8610863082721;Nijmegen;nl;Gelderland;Oost-Nederland;good;park and ride;1;350;1;0;1;1;Nijmegen
591;P+R Transferium Gelredome (Arnhem);https://npropendata.rdw.nl//parkingdata/v2/static/08105653-c07a-4a6c-98bc-573ec70afeb8;;0;08105653-c07a-4a6c-98bc-573ec70afeb8;51.9645465;5.892358;Arnhem;nl;Gelderland;Oost-Nederland;good;park and ride;1;645;1;0;1;1;Arnhem
620;P+R Station Barneveld (Barneveld);https://npropendata.rdw.nl//parkingdata/v2/static/7a5e22de-9e2f-4de9-96c9-94e2d57a607f;;0;7a5e22de-9e2f-4de9-96c9-94e2d57a607f;52.1408694;5.5894690766581;Barneveld;nl;Gelderland;Oost-Nederland;good;park and ride;1;50;1;0;1;1;Barneveld
628;Transferium Heerde Horsthoek (Heerde);https://npropendata.rdw.nl//parkingdata/v2/static/86b91496-2b33-474b-aad4-019a7f15443f;;0;86b91496-2b33-474b-aad4-019a7f15443f;52.3708394;6.0220538003412;Heerde;nl;Gelderland;Oost-Nederland;good;park and ride;1;160;1;3;1;1;Heerde
630;P+R Brummen (Brummen);https://npropendata.rdw.nl//parkingdata/v2/static/465184d3-4783-4b5b-af93-9ddedf9d1a1b;;0;465184d3-4783-4b5b-af93-9ddedf9d1a1b;52.090852;6.1471141;Brummen;nl;Gelderland;Oost-Nederland;good;park and ride;1;20;1;0;1;1;Brummen
652;P+R Stationsstraat, Winterswijk (Winterswijk);https://npropendata.rdw.nl//parkingdata/v2/static/ce53e7fc-59ba-4abd-8d00-291f3907ff13;;0;ce53e7fc-59ba-4abd-8d00-291f3907ff13;51.96948285;6.7136760929034;Winterswijk;nl;Gelderland;Oost-Nederland;average;park and ride;1;0;1;0;1;1;Winterswijk
654;P+R Europark, Winterswijk (Winterswijk);https://npropendata.rdw.nl//parkingdata/v2/static/12ca11d9-6d0e-49ec-8200-4704c7bdd7ea;;0;12ca11d9-6d0e-49ec-8200-4704c7bdd7ea;51.975271149482;6.7015502333344;Winterswijk;nl;Gelderland;Oost-Nederland;good;park and ride;1;40;1;0;1;1;Winterswijk
676;P+R Station Soest-Zuid Bosstraat (Soest);https://npropendata.rdw.nl//parkingdata/v2/static/01a8efca-51ac-41d4-948b-5d3c6db17117;;0;01a8efca-51ac-41d4-948b-5d3c6db17117;52.164643255886;5.3012026441817;Soest;nl;Utrecht;Noordwest-Nederland;good;park and ride;1;45;1;0;1;1;Soest
678;P+R Leusden (Leusden);https://npropendata.rdw.nl//parkingdata/v2/static/fe456aa1-8299-4e9c-a197-5272169d35fc;;0;fe456aa1-8299-4e9c-a197-5272169d35fc;52.134369716912;5.4010806625018;Leusden;nl;Utrecht;Noordwest-Nederland;good;park and ride;1;250;1;0;1;1;Leusden
698;P+R Stationsplein (Culemborg);https://npropendata.rdw.nl//parkingdata/v2/static/4af4732d-40e6-466b-b296-db6f532f3486;;0;4af4732d-40e6-466b-b296-db6f532f3486;51.9481427;5.2270736;Culemborg;nl;Gelderland;Oost-Nederland;good;park and ride;1;47;1;0;1;1;Culemborg
711;P+R Station Doetinchem De Huet (Doetinchem);https://npropendata.rdw.nl//parkingdata/v2/static/655fa01f-f009-44e1-9b8a-673b3166a5b9;;0;655fa01f-f009-44e1-9b8a-673b3166a5b9;51.9592902;6.2592789;Doetinchem;nl;Gelderland;Oost-Nederland;good;park and ride;1;25;1;0;1;1;Doetinchem
718;P+R Station Wehl (Wehl);https://npropendata.rdw.nl//parkingdata/v2/static/9872c385-b36b-48bd-82c4-a082ee2d3178;;0;9872c385-b36b-48bd-82c4-a082ee2d3178;51.9573329;6.2138721;Doetinchem;nl;Gelderland;Oost-Nederland;good;park and ride;1;42;1;0;1;1;Doetinchem
725;P+R Ede (Ede);https://npropendata.rdw.nl//parkingdata/v2/static/1b2ba729-2256-46ca-878d-0b12a0bf5a58;;0;1b2ba729-2256-46ca-878d-0b12a0bf5a58;52.043629;5.6677801;Ede;nl;Gelderland;Oost-Nederland;good;park and ride;1;26;1;0;1;1;Ede
726;P+R Station Vathorst (Amersfoort);https://npropendata.rdw.nl//parkingdata/v2/static/e76d0e73-7061-466c-986d-a1a00ca2f38e;;0;e76d0e73-7061-466c-986d-a1a00ca2f38e;52.192100037687;5.4347040664297;Amersfoort;nl;Utrecht;Noordwest-Nederland;good;park and ride;1;95;1;0;1;1;Amersfoort
727;P+R Lunteren (Lunteren);https://npropendata.rdw.nl//parkingdata/v2/static/77193996-5bcf-4127-a6e6-5339c81a7c9c;;0;77193996-5bcf-4127-a6e6-5339c81a7c9c;52.085566;5.6233837;Ede;nl;Gelderland;Oost-Nederland;good;park and ride;1;13;1;0;1;1;Ede
750;P+R Dolderseweg Den Dolder (Zeist);https://npropendata.rdw.nl//parkingdata/v2/static/ab220ef0-d20b-4a17-adf6-19e4a5ebf1b0;;0;ab220ef0-d20b-4a17-adf6-19e4a5ebf1b0;52.1402036;5.2419976;Zeist;nl;Utrecht;Noordwest-Nederland;good;park and ride;1;73;1;0;1;1;Zeist
756;P+R Station Houten Castellum (Houten);https://npropendata.rdw.nl//parkingdata/v2/static/61a8fbe7-4ffe-497f-ace5-1f9826ffd2dd;;0;61a8fbe7-4ffe-497f-ace5-1f9826ffd2dd;52.01450725;5.1817467146499;Houten;nl;Utrecht;Noordwest-Nederland;good;park and ride;1;150;1;0;1;1;Houten
792;P+R Nijmegen-West (Nijmegen);https://npropendata.rdw.nl//parkingdata/v2/static/83d3d3a0-257e-4716-8a2f-654c02af2289;;0;83d3d3a0-257e-4716-8a2f-654c02af2289;51.8371679;5.8014964153861;Nijmegen;nl;Gelderland;Oost-Nederland;good;park and ride;1;131;1;0;1;1;Nijmegen
817;P+R Bos en Lommer (Amsterdam);https://npropendata.rdw.nl//parkingdata/v2/static/ff69524b-a4b1-4c65-85c1-b45c2ce5b144;;0;ff69524b-a4b1-4c65-85c1-b45c2ce5b144;52.3793042;4.8453276;Amsterdam;nl;Noord-Holland;Noordwest-Nederland;good;park and ride;1;250;1;1.95;1;1;Amsterdam
820;P+R Doctor Hartogsweg (Ede);https://npropendata.rdw.nl//parkingdata/v2/static/bf916585-6491-4435-bfbe-665e9471c556;;0;bf916585-6491-4435-bfbe-665e9471c556;52.02619105;5.6740193185389;Ede;nl;Gelderland;Oost-Nederland;good;park and ride;1;400;1;0;1;1;Ede
847;P+R Station Soest-Zuid Eikenlaan (Soest);https://npropendata.rdw.nl//parkingdata/v2/static/9287a13d-67ca-4439-a81f-fb568e78ffb7;;0;9287a13d-67ca-4439-a81f-fb568e78ffb7;52.165698;5.3044869;Soest;nl;Utrecht;Noordwest-Nederland;good;park and ride;1;12;1;0;1;1;Soest
890;P+R Station Tiel (Tiel);https://npropendata.rdw.nl//parkingdata/v2/static/7aafd9f4-2486-48ee-ac0e-504bbb44bac8;;0;7aafd9f4-2486-48ee-ac0e-504bbb44bac8;51.8899099;5.4218769;Tiel;nl;Gelderland;Oost-Nederland;good;park and ride;1;174;1;0;1;1;Tiel
933;P+R Bunnik (Bunnik);https://npropendata.rdw.nl//parkingdata/v2/static/e79fb418-81d7-4934-9a81-0db87bf7da81;;0;e79fb418-81d7-4934-9a81-0db87bf7da81;52.0634856;5.1957316874545;Bunnik;nl;Utrecht;Noordwest-Nederland;good;park and ride;1;30;1;0;1;1;Bunnik
962;P+R Station Diemen (Diemen);https://npropendata.rdw.nl//parkingdata/v2/static/40367d76-9ba1-4257-b954-f5f58edf144e;;0;40367d76-9ba1-4257-b954-f5f58edf144e;52.3449676;4.9669671471865;Diemen;nl;Noord-Holland;Noordwest-Nederland;good;park and ride;1;110;1;0;1;1;Diemen
996;P+R De Uithof;https://npropendata.rdw.nl//parkingdata/v2/static/2cbe619e-552d-4f4b-9d41-c44c25286148;;0;2cbe619e-552d-4f4b-9d41-c44c25286148;52.0916469;5.1785275549195;Utrecht;nl;Utrecht;Noordwest-Nederland;good;park and ride;1;500;1;1.9;1;1;Utrecht
1005;P+R Station Enkhuizen (Enkhuizen);https://npropendata.rdw.nl//parkingdata/v2/static/051e91de-cec1-40b6-83d6-d90e3183e123;;0;051e91de-cec1-40b6-83d6-d90e3183e123;52.700005745946;5.2878037765935;Enkhuizen;nl;Noord-Holland;Noordwest-Nederland;good;park and ride;1;375;1;0;1;1;Enkhuizen
1028;P+R RAI (Amsterdam);https://npropendata.rdw.nl//parkingdata/v2/static/0ab22af9-911d-4cfb-9ac5-6c327aa48be2;;0;0ab22af9-911d-4cfb-9ac5-6c327aa48be2;52.339706;4.8884566863564;Amsterdam;nl;Noord-Holland;Noordwest-Nederland;good;park and ride;1;678;1;1.9;1;1;Amsterdam
1029;P+R Olympisch Stadion (Amsterdam);https://npropendata.rdw.nl//parkingdata/v2/static/c783d164-e1ce-4782-9552-eac48b1b100d;;0;c783d164-e1ce-4782-9552-eac48b1b100d;52.3445977;4.8550786;Amsterdam;nl;Noord-Holland;Noordwest-Nederland;good;park and ride;1;250;1;2.1;1;1;Amsterdam
1049;P+R Handelsstraat (Heerhugowaard);https://npropendata.rdw.nl//parkingdata/v2/static/cf5bb331-026d-4e99-9983-2bf44f0108d3;;0;cf5bb331-026d-4e99-9983-2bf44f0108d3;52.6700511;4.8217066;Heerhugowaard;nl;Noord-Holland;Noordwest-Nederland;good;park and ride;1;170;1;0;1;1;Heerhugowaard
1050;P+R Stationsplein (Heerhugowaard);https://npropendata.rdw.nl//parkingdata/v2/static/201181e2-e735-46d9-bc17-e5ca76f2b757;;0;201181e2-e735-46d9-bc17-e5ca76f2b757;52.669748101113;4.8251187850682;Heerhugowaard;nl;Noord-Holland;Noordwest-Nederland;good;park and ride;1;106;1;0;1;1;Heerhugowaard
1053;P+R Westtangent (Heerhugowaard);https://npropendata.rdw.nl//parkingdata/v2/static/f252e9dd-993c-4650-a847-680ca26102b0;;0;f252e9dd-993c-4650-a847-680ca26102b0;52.6706188;4.8291122;Heerhugowaard;nl;Noord-Holland;Noordwest-Nederland;good;park and ride;1;120;1;0;1;1;Heerhugowaard
1099;P+R Station Soestdijk (Soest);https://npropendata.rdw.nl//parkingdata/v2/static/ceedd09d-9cba-425e-ad24-528965b616fa;;0;ceedd09d-9cba-425e-ad24-528965b616fa;52.1838045;5.2987032;Soest;nl;Utrecht;Noordwest-Nederland;good;park and ride;1;44;1;0;1;1;Soest
1100;P+R Hoorn Kersenboogerd (Hoorn);https://npropendata.rdw.nl//parkingdata/v2/static/22415eee-578e-4ddc-abaa-c4643be7da63;;0;22415eee-578e-4ddc-abaa-c4643be7da63;52.6539868;5.0851648;Hoorn;nl;Noord-Holland;Noordwest-Nederland;good;park and ride;1;64;1;0;1;1;Hoorn
1104;P+R Soesterberg (Soesterberg);https://npropendata.rdw.nl//parkingdata/v2/static/5d3a15c0-1831-4f49-8b8a-ed904b714bb6;;0;5d3a15c0-1831-4f49-8b8a-ed904b714bb6;52.11650705;5.3052084958724;Soest;nl;Utrecht;Noordwest-Nederland;good;park and ride;1;192;1;0;1;1;Soest
1148;P+R Kramersweg (Castricum);https://npropendata.rdw.nl//parkingdata/v2/static/f633efaf-a0fa-49a5-8b91-b0c8b5b0c5a2;;0;f633efaf-a0fa-49a5-8b91-b0c8b5b0c5a2;52.5460749;4.6581807;Castricum;nl;Noord-Holland;Noordwest-Nederland;good;park and ride;1;183;1;0;1;1;Castricum
1151;P+R Santpoort Zuid (Santpoort-Zuid);https://npropendata.rdw.nl//parkingdata/v2/static/7fd2e31e-4495-45d4-a953-daa76c8a7b17;;0;7fd2e31e-4495-45d4-a953-daa76c8a7b17;52.4200093;4.6309245;Velsen;nl;Noord-Holland;Noordwest-Nederland;good;park and ride;1;44;1;0;1;1;Velsen
1162;P+R Barendrecht NS (Barendrecht);https://npropendata.rdw.nl//parkingdata/v2/static/4dd5e7a5-69af-47af-a96c-e75b1103e4d5;;0;4dd5e7a5-69af-47af-a96c-e75b1103e4d5;51.855916748842;4.5523839002186;Barendrecht;nl;Zuid-Holland;Zuidwest-Nederland;good;park and ride;1;380;1;2.8;1;1;Barendrecht
1167;P+R Spinnerij (Amstelveen);https://npropendata.rdw.nl//parkingdata/v2/static/ddf28f39-e189-45c1-b4d9-507f593b3d42;;0;ddf28f39-e189-45c1-b4d9-507f593b3d42;52.2838668;4.8378639;Amstelveen;nl;Noord-Holland;Noordwest-Nederland;good;park and ride;1;125;1;1.9;1;1;Amstelveen
1197;P+R Gouda Goverwelle (Gouda);https://npropendata.rdw.nl//parkingdata/v2/static/dbc16752-ef47-4699-9fe0-549b2a6929e2;;0;dbc16752-ef47-4699-9fe0-549b2a6929e2;52.0147856;4.7409817;Gouda;nl;Zuid-Holland;Zuidwest-Nederland;good;park and ride;1;102;1;2.3;1;1;Gouda
1198;P+R Zeeburg (Amsterdam);https://npropendata.rdw.nl//parkingdata/v2/static/caeb9b56-de8d-40ec-9818-54b1344e6bea;;0;caeb9b56-de8d-40ec-9818-54b1344e6bea;52.3717803;4.9613192522962;Amsterdam;nl;Noord-Holland;Noordwest-Nederland;good;park and ride;1;200;1;4.3;1;1;Amsterdam
1206;P+R Heiloo (Heiloo);https://npropendata.rdw.nl//parkingdata/v2/static/1a100d88-dfe8-4461-aa79-73e29d97d9f5;;0;1a100d88-dfe8-4461-aa79-73e29d97d9f5;52.6002537;4.7008389;Heiloo;nl;Noord-Holland;Noordwest-Nederland;good;park and ride;1;234;1;0;1;1;Heiloo
1210;P+R Burgemeester Ritmeesterweg (Den Helder);https://npropendata.rdw.nl//parkingdata/v2/static/a680f997-dd05-442a-8b27-06171c58f9a3;;0;a680f997-dd05-442a-8b27-06171c58f9a3;52.933048828499;4.7622880140238;Den Helder;nl;Noord-Holland;Noordwest-Nederland;good;park and ride;1;64;1;0;1;1;Den Helder
1261;P+R Station Schagen (Schagen);https://npropendata.rdw.nl//parkingdata/v2/static/39dc1751-5a2b-4fea-a3d0-8490ef1068ac;;0;39dc1751-5a2b-4fea-a3d0-8490ef1068ac;52.7833098;4.8064279;Schagen;nl;Noord-Holland;Noordwest-Nederland;good;park and ride;1;106;1;0;1;1;Schagen
1307;P+R Delft-Zuid (Delft);https://npropendata.rdw.nl//parkingdata/v2/static/9e3be910-3908-4056-b486-37e2a014a45c;;0;9e3be910-3908-4056-b486-37e2a014a45c;51.9898346;4.3657879480146;Delft;nl;Zuid-Holland;Zuidwest-Nederland;good;park and ride;1;150;1;0;1;1;Delft
1322;P+R VUmc (Amsterdam);https://npropendata.rdw.nl//parkingdata/v2/static/4a9684bf-f532-4248-9f43-1334233dc5d5;;0;4a9684bf-f532-4248-9f43-1334233dc5d5;52.3362618;4.86096965;Amsterdam;nl;Noord-Holland;Noordwest-Nederland;good;park and ride;1;450;1;1.9;1;1;Amsterdam
1325;P+R Station Haarlem Spaarnwoude (Haarlem);https://npropendata.rdw.nl//parkingdata/v2/static/43bb3e2a-3140-426b-83fe-e6e31f8ba92e;;0;43bb3e2a-3140-426b-83fe-e6e31f8ba92e;52.38348585;4.6715999;Haarlem;nl;Noord-Holland;Noordwest-Nederland;good;park and ride;1;152;1;0;1;1;Haarlem
1328;P+R Parallelweg (Hillegom);https://npropendata.rdw.nl//parkingdata/v2/static/a78f6137-0fcb-4a98-aab8-44c95082c532;;0;a78f6137-0fcb-4a98-aab8-44c95082c532;52.3025823;4.5658863341914;Hillegom;nl;Zuid-Holland;Zuidwest-Nederland;good;park and ride;1;40;1;0;1;1;Hillegom
1329;P+R ArenA (Amsterdam);https://npropendata.rdw.nl//parkingdata/v2/static/7035fbb3-74a2-43e9-b873-e8d7ddb03fd3;;0;7035fbb3-74a2-43e9-b873-e8d7ddb03fd3;52.31435305;4.942843089054;Amsterdam;nl;Noord-Holland;Noordwest-Nederland;good;park and ride;1;500;1;2.25;1;1;Amsterdam
1347;P+R Heemskerk (Heemskerk);https://npropendata.rdw.nl//parkingdata/v2/static/302f15e2-2cec-4ee9-b05d-3de385427ffc;;0;302f15e2-2cec-4ee9-b05d-3de385427ffc;52.494483595842;4.6850366749327;Heemskerk;nl;Noord-Holland;Noordwest-Nederland;good;park and ride;1;134;1;0;1;1;Heemskerk
1357;P+R Station Maassluis-West (Maassluis);https://npropendata.rdw.nl//parkingdata/v2/static/89740898-e821-4a7f-8e8b-6a87f971b2cc;;0;89740898-e821-4a7f-8e8b-6a87f971b2cc;51.926633036749;4.23570353385;Maassluis;nl;Zuid-Holland;Zuidwest-Nederland;good;park and ride;1;60;1;0;1;1;Maassluis
1376;P+R Beatrixplein (Purmerend);https://npropendata.rdw.nl//parkingdata/v2/static/a467e1c9-702b-416b-8b1f-66a8dbee47ed;;0;a467e1c9-702b-416b-8b1f-66a8dbee47ed;52.502961423378;4.9546600284253;Purmerend;nl;Noord-Holland;Noordwest-Nederland;good;park and ride;1;94;1;0;1;1;Purmerend
1393;P+R Station Driehuis (Driehuis);https://npropendata.rdw.nl//parkingdata/v2/static/530e367d-627e-4fd5-97b1-ff5cb7241a1c;;0;530e367d-627e-4fd5-97b1-ff5cb7241a1c;52.4433266;4.6393117;Velsen;nl;Noord-Holland;Noordwest-Nederland;good;park and ride;1;77;1;0;1;1;Velsen
1395;P+R Station Santpoort Noord (Santpoort-Noord);https://npropendata.rdw.nl//parkingdata/v2/static/5214edf1-1288-440b-b138-23c6d37ecfbe;;0;5214edf1-1288-440b-b138-23c6d37ecfbe;52.4335379;4.6326644;Velsen;nl;Noord-Holland;Noordwest-Nederland;good;park and ride;1;55;1;0;1;1;Velsen
1405;P+R Slotlaan (Capelle aan den IJssel);https://npropendata.rdw.nl//parkingdata/v2/static/038f6769-79e9-48d8-afc7-be348abdd0dc;;0;038f6769-79e9-48d8-afc7-be348abdd0dc;51.9279725;4.5804029;Capelle aan den IJssel;nl;Zuid-Holland;Zuidwest-Nederland;good;park and ride;1;109;1;0;1;1;Capelle aan den IJssel
1414;P+R Hoogvliet (Rotterdam);https://npropendata.rdw.nl//parkingdata/v2/static/06f4f9f8-9763-4491-89a1-69bab5004f69;;0;06f4f9f8-9763-4491-89a1-69bab5004f69;51.859845;4.3657153837759;Rotterdam;nl;Zuid-Holland;Zuidwest-Nederland;good;park and ride;1;229;1;0;1;1;Rotterdam
1415;P+R Hoogvliet Zalmplaat (Rotterdam);https://npropendata.rdw.nl//parkingdata/v2/static/c84c4eac-a41a-4f6f-95e7-3ec9f37ad951;;0;c84c4eac-a41a-4f6f-95e7-3ec9f37ad951;51.859845;4.3657153837759;Rotterdam;nl;Zuid-Holland;Zuidwest-Nederland;good;park and ride;1;229;1;0;1;1;Rotterdam
1416;P+R Hoogvliet Tussenwater (Rotterdam);https://npropendata.rdw.nl//parkingdata/v2/static/7e1f110a-d5c4-4dc8-bcbf-62bcdde1d90e;;0;7e1f110a-d5c4-4dc8-bcbf-62bcdde1d90e;51.867197;4.3787051;Rotterdam;nl;Zuid-Holland;Zuidwest-Nederland;good;park and ride;1;20;1;0;1;1;Rotterdam
1421;P+R Station Bovenkarspel-Grootebroek (Bovenkarspel);https://npropendata.rdw.nl//parkingdata/v2/static/8f931b8f-510c-41d7-abe8-bdc49b894ae8;;0;8f931b8f-510c-41d7-abe8-bdc49b894ae8;52.695570043131;5.2343369791397;Stede Broec;nl;Noord-Holland;Noordwest-Nederland;good;park and ride;1;128;1;0;1;1;Stede Broec
1424;P+R Station Bovenkarspel-Grootebroek Oostzijde (Bovenkarspel);https://npropendata.rdw.nl//parkingdata/v2/static/518520ff-abfe-4acd-b14c-cb2059911571;;0;518520ff-abfe-4acd-b14c-cb2059911571;52.6951343;5.2359209;Stede Broec;nl;Noord-Holland;Noordwest-Nederland;good;park and ride;1;27;1;0;1;1;Stede Broec
1426;P+R Hillegom (Hillegom);https://npropendata.rdw.nl//parkingdata/v2/static/cf7eef74-c6ed-4900-a033-33092764c970;;0;cf7eef74-c6ed-4900-a033-33092764c970;52.3036243;4.5675623;Hillegom;nl;Zuid-Holland;Zuidwest-Nederland;good;park and ride;1;100;1;0;1;1;Hillegom
1429;P+R Busstation Krimpen aan den IJssel (Krimpen aan den IJssel);https://npropendata.rdw.nl//parkingdata/v2/static/b3e18e8e-8cad-4412-9679-f5e2d162075e;;0;b3e18e8e-8cad-4412-9679-f5e2d162075e;51.91242225;4.5907101014059;Krimpen aan den IJssel;nl;Zuid-Holland;Zuidwest-Nederland;good;park and ride;1;64;1;0;1;1;Krimpen aan den IJssel
1444;P+R Waterkeringsweg (Den Helder);https://npropendata.rdw.nl//parkingdata/v2/static/505d102e-fd5f-4aac-8e99-a61a43829c81;;0;505d102e-fd5f-4aac-8e99-a61a43829c81;52.932263;4.7650574;Den Helder;nl;Noord-Holland;Noordwest-Nederland;good;park and ride;1;147;1;0;1;1;Den Helder
1455;P+R Ridderkerk Oostendam (Ridderkerk);https://npropendata.rdw.nl//parkingdata/v2/static/a78cd84b-8226-44bc-8149-dd32b2959f6a;;0;a78cd84b-8226-44bc-8149-dd32b2959f6a;51.8594868;4.627516;Ridderkerk;nl;Zuid-Holland;Zuidwest-Nederland;good;park and ride;1;40;1;2.1;1;1;Ridderkerk
1456;P+R Ridderkerk Fast Ferry (Ridderkerk);https://npropendata.rdw.nl//parkingdata/v2/static/490c1c59-5390-4c0d-a091-e56660c38da3;;0;490c1c59-5390-4c0d-a091-e56660c38da3;51.88612613776;4.6178167606421;Ridderkerk;nl;Zuid-Holland;Zuidwest-Nederland;good;park and ride;1;151;1;0;1;1;Ridderkerk
1482;P+R Stationsweg (Schagen);https://npropendata.rdw.nl//parkingdata/v2/static/26a35956-fde5-43dd-a884-e5d55c3adf11;;0;26a35956-fde5-43dd-a884-e5d55c3adf11;52.7875535;4.804313;Schagen;nl;Noord-Holland;Noordwest-Nederland;good;park and ride;1;114;1;0;1;1;Schagen
1501;P+R Station Rijswijk (Rijswijk);https://npropendata.rdw.nl//parkingdata/v2/static/00380dc6-6841-48a8-b9a7-9cca28d52090;;0;00380dc6-6841-48a8-b9a7-9cca28d52090;52.03886555;4.3207572927101;Rijswijk;nl;Zuid-Holland;Zuidwest-Nederland;good;park and ride;1;48;1;0;1;1;Rijswijk
1529;P+R Beverwaard (Rotterdam);https://npropendata.rdw.nl//parkingdata/v2/static/d9be5735-e8a0-4f62-9712-740bea0c2dd9;;0;d9be5735-e8a0-4f62-9712-740bea0c2dd9;51.88947855;4.5677636336238;Rotterdam;nl;Zuid-Holland;Zuidwest-Nederland;good;park and ride;1;508;1;0;1;1;Rotterdam
1542;P+R Station Rotterdam Lombardijen (Rotterdam);https://npropendata.rdw.nl//parkingdata/v2/static/d5f164fe-d89e-4a19-ad0f-b3f7832b3e79;;0;d5f164fe-d89e-4a19-ad0f-b3f7832b3e79;51.87996245;4.5295605677898;Rotterdam;nl;Zuid-Holland;Zuidwest-Nederland;good;park and ride;1;236;1;0;1;1;Rotterdam
1548;P+R Hardinxveld-Giessendam (Hardinxveld-Giessendam);https://npropendata.rdw.nl//parkingdata/v2/static/a6498ca8-b6d1-4458-88d7-2a598c25cd3a;;0;a6498ca8-b6d1-4458-88d7-2a598c25cd3a;51.8302116;4.8338133;Hardinxveld-Giessendam;nl;Zuid-Holland;Zuidwest-Nederland;good;park and ride;1;42;1;0;1;1;Hardinxveld-Giessendam
1566;P+R Hoek van Holland (Rotterdam);https://npropendata.rdw.nl//parkingdata/v2/static/8c26f7ea-2b9e-4db2-80f6-bfe690660055;;0;8c26f7ea-2b9e-4db2-80f6-bfe690660055;51.910842;4.4899253;Rotterdam;nl;Zuid-Holland;Zuidwest-Nederland;good;park and ride;1;82;1;0;1;1;Rotterdam
1633;P+R Station Abcoude (Abcoude);https://npropendata.rdw.nl//parkingdata/v2/static/4af029b4-82cf-49f9-868f-1bbcf82bb6f2;;0;4af029b4-82cf-49f9-868f-1bbcf82bb6f2;52.2775135;4.9767222;De Ronde Venen;nl;Utrecht;Noordwest-Nederland;good;park and ride;1;110;1;0;1;1;De Ronde Venen
1684;P+R Station Noordzijde (Etten-Leur);https://npropendata.rdw.nl//parkingdata/v2/static/36b164ee-b675-47d8-ad7c-ac853a3c6e20;;0;36b164ee-b675-47d8-ad7c-ac853a3c6e20;51.575643526343;4.6359076477049;Etten-Leur;nl;Noord-Brabant;Zuid-Nederland;good;park and ride;1;66;1;0;1;1;Etten-Leur
1685;Transferium Vosdonk (Etten-Leur);https://npropendata.rdw.nl//parkingdata/v2/static/4fe26d98-c889-44a9-a3f9-a9a8be00e9c6;;0;4fe26d98-c889-44a9-a3f9-a9a8be00e9c6;51.5644125077;4.6086230344079;Etten-Leur;nl;Noord-Brabant;Zuid-Nederland;good;park and ride;1;38;1;0;1;1;Etten-Leur
1692;P+R Station Gilze-Rijen (Rijen);https://npropendata.rdw.nl//parkingdata/v2/static/ceb3916b-35b1-4079-bc49-648c0dd16ebf;;0;ceb3916b-35b1-4079-bc49-648c0dd16ebf;51.58362545;4.9279008779771;Gilze en Rijen;nl;Noord-Brabant;Zuid-Nederland;good;park and ride;1;77;1;0;1;1;Gilze en Rijen
1712;P+R Schiedam Vijfsluizen (Schiedam);https://npropendata.rdw.nl//parkingdata/v2/static/ed205aff-9f9b-4f16-b649-76b53971e4d7;http://opendata.technolution.nl/opendata/parkingdata/v1/dynamic/ed205aff-9f9b-4f16-b649-76b53971e4d7;0;ed205aff-9f9b-4f16-b649-76b53971e4d7;51.9083115;4.3732778;Schiedam;nl;Zuid-Holland;Zuidwest-Nederland;good;park and ride;1;88;1;0;1;1;Schiedam
1714;P+R Station Sliechdrecht Westzijde (Sliedrecht);https://npropendata.rdw.nl//parkingdata/v2/static/d46fbfcd-9570-4bee-b490-464b34ed202c;;0;d46fbfcd-9570-4bee-b490-464b34ed202c;51.829722719976;4.7758680643681;Sliedrecht;nl;Zuid-Holland;Zuidwest-Nederland;good;park and ride;1;38;1;0;1;1;Sliedrecht
1725;P+R Capelsebrug (Rotterdam);https://npropendata.rdw.nl//parkingdata/v2/static/1b890d72-9ea4-43d3-9f72-ea66889bb4f1;http://opendata.technolution.nl/opendata/parkingdata/v1/dynamic/1b890d72-9ea4-43d3-9f72-ea66889bb4f1;0;1b890d72-9ea4-43d3-9f72-ea66889bb4f1;51.9202844;4.5584019863734;Capelle aan den IJssel;nl;Zuid-Holland;Zuidwest-Nederland;good;park and ride;1;430;0;0;1;1;Rotterdam
1731;Transferium Pettelaarpark;https://npropendata.rdw.nl//parkingdata/v2/static/b4d2898e-6b9d-4b5d-b0a0-8a11222382c5;;0;b4d2898e-6b9d-4b5d-b0a0-8a11222382c5;51.6780415;5.3356506443215;'s-Hertogenbosch;nl;Noord-Brabant;Zuid-Nederland;good;park and ride;1;450;0;0;1;1;'s-Hertogenbosch
1732;Transferium Deutersestraat;https://npropendata.rdw.nl//parkingdata/v2/static/1e0fbf8b-5e3a-4ee4-96df-6206c2bac453;;0;1e0fbf8b-5e3a-4ee4-96df-6206c2bac453;51.68535015;5.2701148147745;'s-Hertogenbosch;nl;Noord-Brabant;Zuid-Nederland;good;park and ride;1;1100;0;2.1;1;1;'s-Hertogenbosch
1773;P+R Kapelle Biezelinge, Stationsstraat Kapelle (Kapelle);https://npropendata.rdw.nl//parkingdata/v2/static/b3b07eee-0af3-4996-9918-e08eff32fdc9;;0;b3b07eee-0af3-4996-9918-e08eff32fdc9;51.481033;3.9563157;Kapelle;nl;Zeeland;Zuidwest-Nederland;good;park and ride;1;12;1;0;1;1;Kapelle
1793;P+R Reuver (Reuver);https://npropendata.rdw.nl//parkingdata/v2/static/c57dd606-59c3-4ea2-8b03-f22ad09a5243;;0;c57dd606-59c3-4ea2-8b03-f22ad09a5243;51.283084;6.0792325;Beesel;nl;Limburg;Zuid-Nederland;good;park and ride;1;70;1;0;1;1;Beesel
1803;P+R Station Kerkrade Centrum (Kerkrade);https://npropendata.rdw.nl//parkingdata/v2/static/1830754d-8f29-4ed4-8f3c-b6f872a3151e;;0;1830754d-8f29-4ed4-8f3c-b6f872a3151e;50.8613016;6.0568092779333;Kerkrade;nl;Limburg;Zuid-Nederland;good;park and ride;1;120;1;0;1;1;Kerkrade
1843;P+R Kazernestraat (Blerick);https://npropendata.rdw.nl//parkingdata/v2/static/f3435883-c8c9-4624-ab19-230ee37ed7a1;;0;f3435883-c8c9-4624-ab19-230ee37ed7a1;51.373368432309;6.1570702532904;Venlo;nl;Limburg;Zuid-Nederland;good;park and ride;1;38;1;0;1;1;UNKNOWN
1861;P+R Station Ypenburg;https://npropendata.rdw.nl//parkingdata/v2/static/986f5e06-3d0b-4c37-8072-da91e5440c7d;;0;986f5e06-3d0b-4c37-8072-da91e5440c7d;52.054888938885;4.3909676002571;Den Haag;nl;Zuid-Holland;Zuidwest-Nederland;good;park and ride;1;225;1;0;1;1;Den Haag
1863;P+R Stationsplein (Ede);https://npropendata.rdw.nl//parkingdata/v2/static/439d6e86-0d01-4461-a4ca-b0588cab8fc3;;0;439d6e86-0d01-4461-a4ca-b0588cab8fc3;52.02961625;5.6718249137305;Ede;nl;Gelderland;Oost-Nederland;good;park and ride;1;250;1;0;1;1;Ede
1867;Carpool parkeren Andelst A15, Wanraaij Andelst (Overbetuwe);https://npropendata.rdw.nl//parkingdata/v2/static/2d6f36f2-b6bd-414f-863f-b8efe0f20757;;0;2d6f36f2-b6bd-414f-863f-b8efe0f20757;51.915816364911;5.7175128438109;Overbetuwe;nl;Gelderland;Oost-Nederland;good;park and ride;1;48;1;0;1;1;Overbetuwe
1909;P+R Noorderhelling (Rotterdam);https://npropendata.rdw.nl//parkingdata/v2/static/574e6027-47e9-45eb-bcc1-01a9d1a344f7;http://opendata.technolution.nl/opendata/parkingdata/v1/dynamic/574e6027-47e9-45eb-bcc1-01a9d1a344f7;0;574e6027-47e9-45eb-bcc1-01a9d1a344f7;51.8948032;4.5328727910281;Rotterdam;nl;Zuid-Holland;Zuidwest-Nederland;good;park and ride;1;322;1;0;1;1;Rotterdam
1912;P+R Hoofddorp (Haarlemmermeer);https://npropendata.rdw.nl//parkingdata/v2/static/f5fc36b9-1f4b-4e31-9214-6ec6bcfb263b;;0;f5fc36b9-1f4b-4e31-9214-6ec6bcfb263b;52.29202105;4.7026053500004;Haarlemmermeer;nl;Noord-Holland;Noordwest-Nederland;good;park and ride;1;408;0;2.1;1;1;P1
1915;P+R Slinge (Rotterdam);https://npropendata.rdw.nl//parkingdata/v2/static/24aca731-db99-4c8b-a429-b664bc5a17bf;;0;24aca731-db99-4c8b-a429-b664bc5a17bf;51.87260475;4.4770017669296;Rotterdam;nl;Zuid-Holland;Zuidwest-Nederland;good;park and ride;1;849;1;2.1;1;1;Rotterdam
1917;P+R Station Ravenstein (Ravenstein);https://npropendata.rdw.nl//parkingdata/v2/static/33485c8e-a0a8-420d-9fea-a35ec3530426;;0;33485c8e-a0a8-420d-9fea-a35ec3530426;51.79454115111;5.637591081293;Oss;nl;Noord-Brabant;Zuid-Nederland;good;park and ride;1;88;1;0;1;1;Oss
1923;P+R Station Meppel Westzijde (Meppel);https://npropendata.rdw.nl//parkingdata/v2/static/33e985f8-f7e2-4e46-a962-0cbb2a3b0d6b;;0;33e985f8-f7e2-4e46-a962-0cbb2a3b0d6b;52.6904868;6.1968847500904;Meppel;nl;Drenthe;Noord-Nederland;good;park and ride;1;199;1;0;1;1;Nederlandse Spoorwegen
1929;P+R Station Vriezenveen, Wierdenseweg, Vriezenveen (Twenterand);https://npropendata.rdw.nl//parkingdata/v2/static/e7d98c2b-62a7-4554-9959-16f7dcc85111;;0;e7d98c2b-62a7-4554-9959-16f7dcc85111;52.40253;6.6002014;Twenterand;nl;Overijssel;Oost-Nederland;good;park and ride;1;16;0;0;1;1;Nederlandse Spoorwegen
1932;P+R Station Overveen (Overveen);https://npropendata.rdw.nl//parkingdata/v2/static/83f80a3d-08ac-4ce7-9446-615c911e952e;;0;83f80a3d-08ac-4ce7-9446-615c911e952e;52.3917503;4.6059225;Bloemendaal;nl;Noord-Holland;Noordwest-Nederland;good;park and ride;1;72;0;0;1;1;Nederlandse Spoorwegen
1933;P+R Station Wolfheze, Parallelweg, Wolfheze (Renkum);https://npropendata.rdw.nl//parkingdata/v2/static/fd1c537d-eec3-48e0-8910-523f4a71dbd4;;0;fd1c537d-eec3-48e0-8910-523f4a71dbd4;52.005715960372;5.7909517722157;Renkum;nl;Gelderland;Oost-Nederland;good;park and ride;1;32;0;0;1;1;Nederlandse Spoorwegen
1934;P+R Station Klarenbeek, Hoofdweg, Klarenbeek (Voorst);https://npropendata.rdw.nl//parkingdata/v2/static/be0de8a5-df79-4016-902a-d71f33d81052;;0;be0de8a5-df79-4016-902a-d71f33d81052;52.178105643457;6.084061699687;Voorst;nl;Gelderland;Oost-Nederland;good;park and ride;1;34;0;0;1;1;Nederlandse Spoorwegen
1935;P+R Piet Mondriaanplein (Amersfoort);https://npropendata.rdw.nl//parkingdata/v2/static/b9211697-075c-4142-aab8-8eecf92f2161;https://npropendata.rdw.nl//parkingdata/v2/dynamic/b9211697-075c-4142-aab8-8eecf92f2161;1;b9211697-075c-4142-aab8-8eecf92f2161;52.154917405009;5.3720102311385;Amersfoort;nl;Utrecht;Noordwest-Nederland;good;park and ride;1;491;1;0;1;0;Q-Park Nederland BV
1936;P+R Stationsplein (Roosendaal);https://npropendata.rdw.nl//parkingdata/v2/static/c464aa36-6dd9-4dbf-9372-f8aa009a8687;https://npropendata.rdw.nl//parkingdata/v2/dynamic/c464aa36-6dd9-4dbf-9372-f8aa009a8687;1;c464aa36-6dd9-4dbf-9372-f8aa009a8687;51.5404348;4.461033;Roosendaal;nl;Noord-Brabant;Zuid-Nederland;good;park and ride;1;102;1;0;1;0;Q-Park Nederland BV
1940;P+R Laan van de Mensenrechten (Apeldoorn);https://npropendata.rdw.nl//parkingdata/v2/static/d553e1ea-1d7f-44a4-ba4b-9439ce4f4d1b;https://npropendata.rdw.nl//parkingdata/v2/dynamic/d553e1ea-1d7f-44a4-ba4b-9439ce4f4d1b;1;d553e1ea-1d7f-44a4-ba4b-9439ce4f4d1b;52.208723;5.9711668365088;Apeldoorn;nl;Gelderland;Oost-Nederland;good;park and ride;1;188;1;0;1;0;Q-Park Nederland BV
1970;P+R Station Eygelshoven Markt, Eygelshoven (Kerkrade);https://npropendata.rdw.nl//parkingdata/v2/static/9d95a667-7379-41d7-9bc6-6e4f791cdfc5;;0;9d95a667-7379-41d7-9bc6-6e4f791cdfc5;50.896494;6.0560146;Kerkrade;nl;Limburg;Zuid-Nederland;good;park and ride;1;13;0;0;1;1;Kerkrade
1980;P+R Station Usquert (Usquert);https://npropendata.rdw.nl//parkingdata/v2/static/1550ac61-ab1e-4825-b4cc-2519f0b6e282;;0;1550ac61-ab1e-4825-b4cc-2519f0b6e282;53.4011029;6.6094957;Het Hogeland;nl;Groningen;Noord-Nederland;good;park and ride;1;5;1;0;1;1;Eemsmond
1981;P+R Station Uithuizen (Uithuizen);https://npropendata.rdw.nl//parkingdata/v2/static/53e05e67-c0f9-4e9f-b8af-37db11c4dba6;;0;53e05e67-c0f9-4e9f-b8af-37db11c4dba6;53.4095625;6.6748515;Het Hogeland;nl;Groningen;Noord-Nederland;good;park and ride;1;22;1;0;1;1;Eemsmond
1988;P+R Molenstraat (Best);https://npropendata.rdw.nl//parkingdata/v2/static/ee67d9c6-48d3-40c6-8998-b351afb2efcc;;0;ee67d9c6-48d3-40c6-8998-b351afb2efcc;51.50888235;5.3908943461232;Best;nl;Noord-Brabant;Zuid-Nederland;good;park and ride;1;403;1;0;1;1;Best
2025;Transferium De Vliert;https://npropendata.rdw.nl//parkingdata/v2/static/f3e46038-6165-4e84-ae86-75a1b26bf6f1;;0;f3e46038-6165-4e84-ae86-75a1b26bf6f1;51.7005856;5.3242295825531;'s-Hertogenbosch;nl;Noord-Brabant;Zuid-Nederland;good;park and ride;1;700;0;0;1;1;'s-Hertogenbosch
2043;P+R Stationsweg (Echt);https://npropendata.rdw.nl//parkingdata/v2/static/54544081-ae6b-4e18-bbf3-6833becce81f;;0;54544081-ae6b-4e18-bbf3-6833becce81f;51.0995736;5.8777066;Echt;nl;Limburg;Zuid-Nederland;good;park and ride;1;98;1;0;1;1;Nederlandse Spoorwegen
2044;P+R Aan de drie heren (Beek);https://npropendata.rdw.nl//parkingdata/v2/static/6b153ac5-9aee-4758-a5a3-7e92a2b98eab;;0;6b153ac5-9aee-4758-a5a3-7e92a2b98eab;50.94742825;5.7873451280568;Beek;nl;Limburg;Zuid-Nederland;good;park and ride;1;121;1;0;1;1;Nederlandse Spoorwegen
2046;P+R Jeustraat (Voerendaal);https://npropendata.rdw.nl//parkingdata/v2/static/13d9d2fe-1c63-43a7-90ea-4837bd3662ca;;0;13d9d2fe-1c63-43a7-90ea-4837bd3662ca;50.886318291916;5.9300795392392;Voerendaal;nl;Limburg;Zuid-Nederland;good;park and ride;1;40;1;0;1;1;Nederlandse Spoorwegen
2047;P + R station Veenendaal-De Klomp Zuid;https://npropendata.rdw.nl//parkingdata/v2/static/307d9fdb-0c8a-4362-943d-aa33adecaa14;https://npropendata.rdw.nl//parkingdata/v2/dynamic/307d9fdb-0c8a-4362-943d-aa33adecaa14;0;307d9fdb-0c8a-4362-943d-aa33adecaa14;52.0453182;5.5753640848086;Ede;nl;Gelderland;Oost-Nederland;good;park and ride;1;98;1;0;1;1;Nederlandse Spoorwegen
2049;P + R Station Zevenaar (Zevenaar);https://npropendata.rdw.nl//parkingdata/v2/static/dadd50ce-3985-486f-bd8e-a4bfc2217733;;0;dadd50ce-3985-486f-bd8e-a4bfc2217733;51.92353603945;6.0695425990704;Zevenaar;nl;Gelderland;Oost-Nederland;good;park and ride;1;147;0;0;1;1;Nederlandse Spoorwegen
2050;P + R staton Woerden;https://npropendata.rdw.nl//parkingdata/v2/static/aac1824c-b958-4abe-b311-5e25a334b940;https://npropendata.rdw.nl//parkingdata/v2/dynamic/aac1824c-b958-4abe-b311-5e25a334b940;0;aac1824c-b958-4abe-b311-5e25a334b940;52.0854908;4.8930306;Woerden;nl;Utrecht;Noordwest-Nederland;average;park and ride;1;172;0;0;1;0;Nederlandse Spoorwegen
2051;P+R Zuidhorn (Zuidhorn);https://npropendata.rdw.nl//parkingdata/v2/static/d8cc560f-b4c9-4ea2-b6d1-10c33effde13;;0;d8cc560f-b4c9-4ea2-b6d1-10c33effde13;53.2480604;6.4037256;Westerkwartier;nl;Groningen;Noord-Nederland;good;park and ride;1;19;0;0;1;1;Nederlandse Spoorwegen
2052;P + R Station Mantgum (Mantgum);https://npropendata.rdw.nl//parkingdata/v2/static/82735539-67ef-4620-96fb-5fb165ce6e7c;;0;82735539-67ef-4620-96fb-5fb165ce6e7c;53.129789;5.7134615;Leeuwarden;nl;Fryslân;Noord-Nederland;good;park and ride;1;24;1;0;1;1;Nederlandse Spoorwegen
2109;P+R Station Veenwouden (Feanwâlden);https://npropendata.rdw.nl//parkingdata/v2/static/8fac072a-e10f-4896-b92c-07695e76a797;;0;8fac072a-e10f-4896-b92c-07695e76a797;53.2355365;5.988841;Feanwâlden;nl;Fryslân;Noord-Nederland;good;park and ride;1;50;1;0;1;1;Dantumadiel
2110;P+R Station Deurne (Deurne);https://npropendata.rdw.nl//parkingdata/v2/static/ddfd4718-252f-453d-971c-214c87a37428;;0;ddfd4718-252f-453d-971c-214c87a37428;51.4578112;5.7855734;Deurne;nl;Noord-Brabant;Zuid-Nederland;good;park and ride;1;227;1;2.28;1;1;Deurne
2139;P+R Sacharovlaan (Alphen aan den Rijn);https://npropendata.rdw.nl//parkingdata/v2/static/36ef566f-9202-4983-9109-e51e54810f6f;https://npropendata.rdw.nl//parkingdata/v2/dynamic/36ef566f-9202-4983-9109-e51e54810f6f;1;36ef566f-9202-4983-9109-e51e54810f6f;52.1268132;4.6560449291571;Alphen aan den Rijn;nl;Zuid-Holland;Zuidwest-Nederland;good;park and ride;1;205;1;2.1;1;0;Q-Park Nederland BV
2140;P+R Spoorlaan (Oisterwijk);https://npropendata.rdw.nl//parkingdata/v2/static/3c4398d1-30dd-4d11-b766-2525bda26f0c;https://npropendata.rdw.nl//parkingdata/v2/dynamic/3c4398d1-30dd-4d11-b766-2525bda26f0c;1;3c4398d1-30dd-4d11-b766-2525bda26f0c;51.58254425;5.196504590838;Oisterwijk;nl;Noord-Brabant;Zuid-Nederland;good;park and ride;1;140;1;0;1;0;Q-Park Nederland BV
2185;P+R Station Warffum (Warffum);https://npropendata.rdw.nl//parkingdata/v2/static/ae9c16f6-bfe4-4ff2-b9a0-89cf7043afdc;;0;ae9c16f6-bfe4-4ff2-b9a0-89cf7043afdc;53.390303;6.5656267;Het Hogeland;nl;Groningen;Noord-Nederland;good;park and ride;1;3;1;0;1;1;Eemsmond
2188;P+R Station Heeze (Heeze);https://npropendata.rdw.nl//parkingdata/v2/static/6a9b5e72-0f58-4b3a-a578-7afc30ae5c93;;0;6a9b5e72-0f58-4b3a-a578-7afc30ae5c93;51.38505982021;5.5700460275878;Heeze-Leende;nl;Noord-Brabant;Zuid-Nederland;good;park and ride;1;23;1;0;1;1;Heeze-Leende
2208;P+R Station Zwaagwesteinde (De Westereen);https://npropendata.rdw.nl//parkingdata/v2/static/d22a51f2-7f5d-4b6c-b6c4-5817c1a5afb1;;0;d22a51f2-7f5d-4b6c-b6c4-5817c1a5afb1;53.2485655;6.0350082;Dantumadiel;nl;Fryslân;Noord-Nederland;good;park and ride;1;10;1;0;1;1;Dantumadiel
2214;P+R Station Zuidzijde (Etten-Leur);https://npropendata.rdw.nl//parkingdata/v2/static/fe998dc0-60a1-437d-b20e-3d1e2f1f53c1;;0;fe998dc0-60a1-437d-b20e-3d1e2f1f53c1;51.5751344;4.6379736;Etten-Leur;nl;Noord-Brabant;Zuid-Nederland;good;park and ride;1;96;1;0;1;1;Etten-Leur
2222;P+R Bussum-Zuid;https://npropendata.rdw.nl//parkingdata/v2/static/2773abd7-9374-4ed7-a8b7-060df9ffa05e;;0;2773abd7-9374-4ed7-a8b7-060df9ffa05e;52.265382;5.1629009;Gooise Meren;nl;Noord-Holland;Noordwest-Nederland;good;park and ride;1;377;1;0;1;1;Gooise Meren
2229;P+R Station Franeker (Franeker);https://npropendata.rdw.nl//parkingdata/v2/static/b78be708-6dc7-4b09-9e4b-76d0127400b3;;0;b78be708-6dc7-4b09-9e4b-76d0127400b3;53.182780423467;5.5483662157763;Waadhoeke;nl;Fryslân;Noord-Nederland;good;park and ride;1;38;1;0;1;1;Waadhoeke
2238;P+R Parallelweg, Dodewaard (Neder-Betuwe);https://npropendata.rdw.nl//parkingdata/v2/static/c094fd57-22d4-4c71-a428-40af59e22b41;;0;c094fd57-22d4-4c71-a428-40af59e22b41;51.922120882997;5.6731373677988;Neder-Betuwe;nl;Gelderland;Oost-Nederland;good;park and ride;1;16;0;0;1;1;Nederlandse Spoorwegen
2240;P+R  Station Martenshoek, Spoorstraat-Zuid, Hoogezand (Hoogezand-Sappemeer);https://npropendata.rdw.nl//parkingdata/v2/static/03934163-dc0a-4abd-b888-321463668bfa;;0;03934163-dc0a-4abd-b888-321463668bfa;53.1606796;6.7411047;Midden-Groningen;nl;Groningen;Noord-Nederland;good;park and ride;1;41;1;0;1;1;Nederlandse Spoorwegen
2241;P+R Spoorstraat (Bunde);https://npropendata.rdw.nl//parkingdata/v2/static/c5e2a674-a5c3-4c74-9b84-377b3dfaf146;;0;c5e2a674-a5c3-4c74-9b84-377b3dfaf146;50.89754235;5.7360408381681;Meerssen;nl;Limburg;Zuid-Nederland;good;park and ride;1;90;1;0;1;1;Nederlandse Spoorwegen
2242;P+R Mijnspoorweg (Heerlen);https://npropendata.rdw.nl//parkingdata/v2/static/0c427131-5ed6-4901-bfad-7171ade5ac33;;0;0c427131-5ed6-4901-bfad-7171ade5ac33;50.8959188;5.9534522;Heerlen;nl;Limburg;Zuid-Nederland;good;park and ride;1;49;1;0;1;1;Nederlandse Spoorwegen
2244;P+R Stationsweg (Echt);https://npropendata.rdw.nl//parkingdata/v2/static/9706dda7-3909-4b75-be28-b3d4e9ee09f7;;0;9706dda7-3909-4b75-be28-b3d4e9ee09f7;51.10092915;5.8787505140575;Echt;nl;Limburg;Zuid-Nederland;good;park and ride;1;54;1;0;1;1;Nederlandse Spoorwegen
2245;P+R Station Sappemeer-Oost, Sappemeer (Hoogezand-Sappemeer);https://npropendata.rdw.nl//parkingdata/v2/static/97f10907-41c8-45b6-b8bd-fa119b2f22d6;;0;97f10907-41c8-45b6-b8bd-fa119b2f22d6;53.159004;6.7958588;Midden-Groningen;nl;Groningen;Noord-Nederland;good;park and ride;1;5;0;0;1;1;Nederlandse Spoorwegen
2248;P+R Wijnhorsterstraat (Leeuwarden);https://npropendata.rdw.nl//parkingdata/v2/static/b2df810f-502d-43f0-8f86-1faad52434d0;https://npropendata.rdw.nl//parkingdata/v2/dynamic/b2df810f-502d-43f0-8f86-1faad52434d0;1;b2df810f-502d-43f0-8f86-1faad52434d0;53.19163225;5.7893035321978;Leeuwarden;nl;Fryslân;Noord-Nederland;good;park and ride;1;264;1;0;1;0;Q-Park Nederland BV
2252;P+R Markettenweg (Dordrecht);https://npropendata.rdw.nl//parkingdata/v2/static/55804410-e6f8-4dda-b20f-8b5e9db2246f;https://npropendata.rdw.nl//parkingdata/v2/dynamic/55804410-e6f8-4dda-b20f-8b5e9db2246f;1;55804410-e6f8-4dda-b20f-8b5e9db2246f;51.80654695;4.6700374616353;Dordrecht;nl;Zuid-Holland;Zuidwest-Nederland;good;park and ride;1;150;1;0;1;0;Q-Park Nederland BV
2254;P+R Veeladingstraat (Roermond);https://npropendata.rdw.nl//parkingdata/v2/static/189504bb-3926-4fc3-bf7b-5d249d127fe5;https://npropendata.rdw.nl//parkingdata/v2/dynamic/189504bb-3926-4fc3-bf7b-5d249d127fe5;1;189504bb-3926-4fc3-bf7b-5d249d127fe5;51.1896334;5.9925276;Roermond;nl;Limburg;Zuid-Nederland;good;park and ride;1;151;1;0;1;0;Q-Park Nederland BV
2255;P+R Godsweerdersingel (Roermond);https://npropendata.rdw.nl//parkingdata/v2/static/20018e23-6346-4343-ba81-018a065fe45d;https://npropendata.rdw.nl//parkingdata/v2/dynamic/20018e23-6346-4343-ba81-018a065fe45d;1;20018e23-6346-4343-ba81-018a065fe45d;51.19417265;5.9945371087635;Roermond;nl;Limburg;Zuid-Nederland;good;park and ride;1;95;1;0;1;0;Q-Park Nederland BV
2270;P+R Spaubeek (Spaubeek);https://npropendata.rdw.nl//parkingdata/v2/static/9ded8aa1-f358-43c8-a3e8-d8f63bb788f9;;0;9ded8aa1-f358-43c8-a3e8-d8f63bb788f9;50.9433756;5.8492687;Beek;nl;Limburg;Zuid-Nederland;good;park and ride;1;35;1;0;1;1;Beek
2306;P+R Kruiswijk (Anna Paulowna);https://npropendata.rdw.nl//parkingdata/v2/static/a91ffbd2-9604-4718-95c6-475706c13e61;;0;a91ffbd2-9604-4718-95c6-475706c13e61;52.866628;4.80980735;Hollands Kroon;nl;Noord-Holland;Noordwest-Nederland;good;park and ride;1;40;1;0;1;1;Hollands Kroon
2310;P + R Beesd (Beesd);https://npropendata.rdw.nl//parkingdata/v2/static/e52c9b52-094d-45c4-b0a0-c5af0f287173;;0;e52c9b52-094d-45c4-b0a0-c5af0f287173;51.89927685;5.1962334420565;West Betuwe;nl;Gelderland;Oost-Nederland;good;park and ride;1;17;1;0;1;1;West Betuwe
2312;P+R Deventer Colmschate (Deventer);https://npropendata.rdw.nl//parkingdata/v2/static/4cd242dc-f539-41c8-b2f1-6417808dcb89;;0;4cd242dc-f539-41c8-b2f1-6417808dcb89;52.249886358485;6.2149403907666;Deventer;nl;Overijssel;Oost-Nederland;good;park and ride;1;130;1;0;1;1;Deventer
2314;P+R Station Hoogezand-Sappemeer, Stationsweg, Sappemeer (Hoogezand-Sappemeer);https://npropendata.rdw.nl//parkingdata/v2/static/d82a6e78-4672-4c79-8795-15d8802007fd;;0;d82a6e78-4672-4c79-8795-15d8802007fd;53.1601204;6.7699493;Midden-Groningen;nl;Groningen;Noord-Nederland;good;park and ride;1;19;0;0;1;1;Nederlandse Spoorwegen
2315;P+R, Station Deinum, Spoorstrjitte, Deinum (Menameradiel);https://npropendata.rdw.nl//parkingdata/v2/static/8e6a606f-8cd4-4cc1-94f7-2632b08d71b3;;0;8e6a606f-8cd4-4cc1-94f7-2632b08d71b3;53.189019375504;5.7282035073848;Waadhoeke;nl;Fryslân;Noord-Nederland;good;park and ride;1;12;1;0;1;1;Nederlandse Spoorwegen
2318;P + R Station Hurdegaryp, Stationsweg, Hurdegaryp (Tytsjerksteradiel);https://npropendata.rdw.nl//parkingdata/v2/static/edcf5aac-a746-4205-9900-176fd3c6bffd;;0;edcf5aac-a746-4205-9900-176fd3c6bffd;53.2185997;5.9338494;Tytsjerksteradiel;nl;Fryslân;Noord-Nederland;good;park and ride;1;13;0;0;1;1;Nederlandse Spoorwegen
2319;P+R Meerkoetstraat Wijchen (Wijchen);https://npropendata.rdw.nl//parkingdata/v2/static/324a420e-81ec-40de-9f24-4b76b80281c9;;0;324a420e-81ec-40de-9f24-4b76b80281c9;51.810953;5.7290715;Wijchen;nl;Gelderland;Oost-Nederland;good;park and ride;1;40;0;0;1;1;Nederlandse Spoorwegen
2320;P+R Comeniusstraat (Amsterdam);https://npropendata.rdw.nl//parkingdata/v2/static/b814a1b9-3b19-4719-8cda-48a1f849f4f3;https://npropendata.rdw.nl//parkingdata/v2/dynamic/b814a1b9-3b19-4719-8cda-48a1f849f4f3;1;b814a1b9-3b19-4719-8cda-48a1f849f4f3;52.35889285;4.8339806344241;Amsterdam;nl;Noord-Holland;Noordwest-Nederland;good;park and ride;1;102;1;0;1;0;Q-Park Nederland BV
2326;P+R Fuutlaan (Eindhoven);https://npropendata.rdw.nl//parkingdata/v2/static/58fd8e31-6d72-4c16-b880-9fdaefdb116b;https://npropendata.rdw.nl//parkingdata/v2/dynamic/58fd8e31-6d72-4c16-b880-9fdaefdb116b;1;58fd8e31-6d72-4c16-b880-9fdaefdb116b;51.4429878;5.4855409;Eindhoven;nl;Noord-Brabant;Zuid-Nederland;good;park and ride;1;151;1;0;1;0;Q-Park Nederland BV
2343;P+R Getsewoud-Zuid (Nieuw-Vennep);https://npropendata.rdw.nl//parkingdata/v2/static/6cc31bc9-4c26-4496-883e-301e7a053543;;0;6cc31bc9-4c26-4496-883e-301e7a053543;52.260439435338;4.6054999328427;Haarlemmermeer;nl;Noord-Holland;Noordwest-Nederland;good;park and ride;1;100;1;1.9;1;1;Haarlemmermeer
2387;P+R Muiden (Muiden);https://npropendata.rdw.nl//parkingdata/v2/static/8a9dec81-3a3a-49ed-a29a-6252c0891ad6;;0;8a9dec81-3a3a-49ed-a29a-6252c0891ad6;52.3278312;5.0619158569757;Gooise Meren;nl;Noord-Holland;Noordwest-Nederland;good;park and ride;1;145;1;0;1;1;Muiden
2389;P+R Wilhelminalaan (Purmerend);https://npropendata.rdw.nl//parkingdata/v2/static/5adf1670-7d81-49ad-a2e4-cd22c0a55581;;0;5adf1670-7d81-49ad-a2e4-cd22c0a55581;52.503951;4.9540988;Purmerend;nl;Noord-Holland;Noordwest-Nederland;good;park and ride;1;64;1;0;1;1;Purmerend
2391;P+R Purmerend Overwhere (Purmerend);https://npropendata.rdw.nl//parkingdata/v2/static/9f1d60af-cbc0-4f8a-9a85-6b327f2d68de;;0;9f1d60af-cbc0-4f8a-9a85-6b327f2d68de;52.511090382945;4.9680925504928;Purmerend;nl;Noord-Holland;Noordwest-Nederland;good;park and ride;1;54;1;0;1;1;Purmerend
2422;P+R Station Uitgeest (Uitgeest);https://npropendata.rdw.nl//parkingdata/v2/static/3d25f0f2-5533-411b-a872-a6e279759604;;0;3d25f0f2-5533-411b-a872-a6e279759604;52.522015647616;4.7022225837112;Uitgeest;nl;Noord-Holland;Noordwest-Nederland;good;park and ride;1;145;1;0;1;1;Uitgeest
2446;P+R De Terp (Capelle aan den IJssel);https://npropendata.rdw.nl//parkingdata/v2/static/0a8e5804-ecae-428b-b264-a2a22492adc4;;0;0a8e5804-ecae-428b-b264-a2a22492adc4;51.9367208649;4.6022105343304;Capelle aan den IJssel;nl;Zuid-Holland;Zuidwest-Nederland;good;park and ride;1;230;1;0;1;1;Capelle aan den IJssel
2455;P+R Schollevaar (Capelle aan den IJssel);https://npropendata.rdw.nl//parkingdata/v2/static/de0e472c-f97a-4213-954c-713eb13266e0;;0;de0e472c-f97a-4213-954c-713eb13266e0;51.9546216;4.5824017;Capelle aan den IJssel;nl;Zuid-Holland;Zuidwest-Nederland;good;park and ride;1;203;1;0;1;1;Capelle aan den IJssel
2475;P+R Station Arnhem-Zuid (Arnhem);https://npropendata.rdw.nl//parkingdata/v2/static/fcc0b905-3971-4733-89c0-de96bfcffa68;;0;fcc0b905-3971-4733-89c0-de96bfcffa68;51.954915083507;5.8523446124922;Arnhem;nl;Gelderland;Oost-Nederland;good;park and ride;1;164;1;0;1;1;Arnhem
2476;P+R Station Presikhaaf (Arnhem);https://npropendata.rdw.nl//parkingdata/v2/static/1f002420-9361-4a14-9288-87542b06fbdd;;0;1f002420-9361-4a14-9288-87542b06fbdd;51.9877191;5.9421638;Arnhem;nl;Gelderland;Oost-Nederland;good;park and ride;1;10;1;0;1;1;Arnhem
2492;P+R Station Barneveld-Zuid (Barneveld);https://npropendata.rdw.nl//parkingdata/v2/static/f3c28283-2e22-4ef8-8e5b-3baea7647b4f;;0;f3c28283-2e22-4ef8-8e5b-3baea7647b4f;52.1271475;5.6036527;Barneveld;nl;Gelderland;Oost-Nederland;good;park and ride;1;35;1;0;1;1;Barneveld
2504;P+R Transferium Barneveld-Noord (Barneveld);https://npropendata.rdw.nl//parkingdata/v2/static/a5f2a2aa-f0ad-4bfa-b46f-c76a7dd6385f;;0;a5f2a2aa-f0ad-4bfa-b46f-c76a7dd6385f;52.16211475;5.598302621122;Barneveld;nl;Gelderland;Oost-Nederland;good;park and ride;1;250;1;2.1;1;1;Barneveld
2521;P+R Station Doetinchem (Doetinchem);https://npropendata.rdw.nl//parkingdata/v2/static/49386426-e24e-4a39-8754-664435560458;;0;49386426-e24e-4a39-8754-664435560458;51.95911695;6.2932833724234;Doetinchem;nl;Gelderland;Oost-Nederland;good;park and ride;1;270;1;0;1;1;Doetinchem
2524;P+R Park & Beach Scheveningen (Den Haag);https://npropendata.rdw.nl//parkingdata/v2/static/4d338e11-e012-4136-a99c-40f8a49caf87;;0;4d338e11-e012-4136-a99c-40f8a49caf87;52.0803649;4.3269472978158;Den Haag;nl;Zuid-Holland;Zuidwest-Nederland;good;park and ride;1;960;1;1.9;1;1;Den Haag
2525;P+R De Uithof (Den Haag);https://npropendata.rdw.nl//parkingdata/v2/static/1524de00-03f0-4140-8ea9-0c78d1096079;;0;1524de00-03f0-4140-8ea9-0c78d1096079;52.03932885;4.2459770374723;Den Haag;nl;Zuid-Holland;Zuidwest-Nederland;good;park and ride;1;300;1;0;1;1;Den Haag
2573;P+R Station Schothorst (Amersfoort);https://npropendata.rdw.nl//parkingdata/v2/static/c050d4c7-0681-48b0-9c5d-c68cede0fcfe;;0;c050d4c7-0681-48b0-9c5d-c68cede0fcfe;52.1746305;5.404352;Amersfoort;nl;Utrecht;Noordwest-Nederland;good;park and ride;1;236;1;0;1;1;Amersfoort
2580;P+R Haagweg (Leiden);https://npropendata.rdw.nl//parkingdata/v2/static/50946c00-4ae5-4a10-828c-ac0e239968a4;;0;50946c00-4ae5-4a10-828c-ac0e239968a4;52.159553200823;4.4784888421022;Leiden;nl;Zuid-Holland;Zuidwest-Nederland;good;park and ride;1;600;1;0;1;1;Leiden
2592;P+R Station Rhenen (Rhenen);https://npropendata.rdw.nl//parkingdata/v2/static/89e419bc-f7cc-4b30-9c9f-3e1d4ec40853;;0;89e419bc-f7cc-4b30-9c9f-3e1d4ec40853;51.956200642545;5.5779334320967;Rhenen;nl;Utrecht;Noordwest-Nederland;good;park and ride;1;127;1;0;1;1;Rhenen
2635;P+R Kralingse Zoom (Rotterdam);https://npropendata.rdw.nl//parkingdata/v2/static/cbf81a2f-235b-409a-8b96-eaa8c249a735;;0;cbf81a2f-235b-409a-8b96-eaa8c249a735;51.9231434;4.5347007630063;Rotterdam;nl;Zuid-Holland;Zuidwest-Nederland;good;park and ride;1;1700;1;2.1;1;1;Rotterdam
2636;P+R Nesselande (Rotterdam);https://npropendata.rdw.nl//parkingdata/v2/static/04509980-da75-4dc3-b3f5-40eac09e6625;;0;04509980-da75-4dc3-b3f5-40eac09e6625;51.9792591;4.5863509;Rotterdam;nl;Zuid-Holland;Zuidwest-Nederland;good;park and ride;1;61;1;0;1;1;Rotterdam
2638;P+R Melanchtonweg (Rotterdam);https://npropendata.rdw.nl//parkingdata/v2/static/95aee28d-3685-4a1a-a153-860d977926ad;;0;95aee28d-3685-4a1a-a153-860d977926ad;51.94947235;4.4646472817995;Rotterdam;nl;Zuid-Holland;Zuidwest-Nederland;good;park and ride;1;80;1;0;1;1;Rotterdam
2639;P+R Meijersplein (Rotterdam);https://npropendata.rdw.nl//parkingdata/v2/static/328cbed1-dfe1-4984-8cf6-4b4d9671b168;http://opendata.technolution.nl/opendata/parkingdata/v1/dynamic/328cbed1-dfe1-4984-8cf6-4b4d9671b168;0;328cbed1-dfe1-4984-8cf6-4b4d9671b168;51.9563498;4.45816353997;Rotterdam;nl;Zuid-Holland;Zuidwest-Nederland;good;park and ride;1;500;1;0;1;1;Rotterdam
2640;P+R Pernis (Rotterdam);https://npropendata.rdw.nl//parkingdata/v2/static/df3ed3ca-aca4-4486-9791-2dffafea9c48;;0;df3ed3ca-aca4-4486-9791-2dffafea9c48;51.884841842;4.3816742945937;Rotterdam;nl;Zuid-Holland;Zuidwest-Nederland;good;park and ride;1;31;1;0;1;1;Rotterdam
2641;P+R Schenkel (Rotterdam);https://npropendata.rdw.nl//parkingdata/v2/static/deb77b5c-0aac-4df0-9327-e63ef643e7d0;;0;deb77b5c-0aac-4df0-9327-e63ef643e7d0;51.9315303;4.5641469958532;Rotterdam;nl;Zuid-Holland;Zuidwest-Nederland;good;park and ride;1;102;1;0;1;1;Rotterdam
2645;P+R Alexander (Rotterdam);https://npropendata.rdw.nl//parkingdata/v2/static/d6ea05f4-e484-4db8-84cd-a0ac20db1f1f;http://opendata.technolution.nl/opendata/parkingdata/v1/dynamic/d6ea05f4-e484-4db8-84cd-a0ac20db1f1f;0;d6ea05f4-e484-4db8-84cd-a0ac20db1f1f;51.9526102;4.5504397787611;Rotterdam;nl;Zuid-Holland;Zuidwest-Nederland;good;park and ride;1;437;1;0;1;1;Rotterdam
2695;P+R Sloterdijk (Amsterdam);https://npropendata.rdw.nl//parkingdata/v2/static/2a04ec9c-2b8c-43c3-9ae4-2e1e97a2e0bb;;0;2a04ec9c-2b8c-43c3-9ae4-2e1e97a2e0bb;52.3902312;4.8383690859953;Amsterdam;nl;Noord-Holland;Noordwest-Nederland;good;park and ride;1;200;1;0;1;1;Amsterdam
2768;P+R Helmond Brandevoort (Helmond);https://npropendata.rdw.nl//parkingdata/v2/static/40ddb630-f132-4fbc-99ec-9e771fc9d0a5;;0;40ddb630-f132-4fbc-99ec-9e771fc9d0a5;51.462505671898;5.6072968208364;Helmond;nl;Noord-Brabant;Zuid-Nederland;good;park and ride;1;42;1;0;1;1;Helmond
2797;P+R Berkel Westpolder (Berkel en Rodenrijs);https://npropendata.rdw.nl//parkingdata/v2/static/325883cf-684f-45df-8f82-6018443673ff;;0;325883cf-684f-45df-8f82-6018443673ff;51.9901861;4.4539715221362;Lansingerland;nl;Zuid-Holland;Zuidwest-Nederland;good;park and ride;1;177;1;2.1;1;1;Lansingerland
2801;P+R Station Heeze Westzijde (Heeze);https://npropendata.rdw.nl//parkingdata/v2/static/61f2f40c-2534-446d-9565-200e29ce365c;;0;61f2f40c-2534-446d-9565-200e29ce365c;51.3852206;5.5687651;Heeze-Leende;nl;Noord-Brabant;Zuid-Nederland;good;park and ride;1;9;1;0;1;1;Heeze-Leende
2804;P+R Roelandsweg (Renesse);https://npropendata.rdw.nl//parkingdata/v2/static/59e9e00c-9dd7-4bcf-9330-8691e4d14cf7;;0;59e9e00c-9dd7-4bcf-9330-8691e4d14cf7;51.727238663368;3.7749480521139;Schouwen-Duiveland;nl;Zeeland;Zuidwest-Nederland;good;park and ride;1;900;1;0;1;1;UNKNOWN
2817;P+R Spijkenisse De Akkers (Spijkenisse);https://npropendata.rdw.nl//parkingdata/v2/static/eb647bc4-cf9f-4031-8c82-4e59d7d2f0b6;;0;eb647bc4-cf9f-4031-8c82-4e59d7d2f0b6;51.832998130937;4.3177159271528;Nissewaard;nl;Zuid-Holland;Zuidwest-Nederland;good;park and ride;1;326;1;2;1;1;Nissewaard
2828;P+R Parallelweg Noord, Zetten (Overbetuwe);https://npropendata.rdw.nl//parkingdata/v2/static/29339787-5e25-4583-9857-054384e13886;;0;29339787-5e25-4583-9857-054384e13886;51.920068;5.7227884;Overbetuwe;nl;Gelderland;Oost-Nederland;good;park and ride;1;23;0;0;1;1;Nederlandse Spoorwegen
2829;P+R Station Bad Nieuweschans, Stationstraat, Bad Nieuweschans(Oldambt);https://npropendata.rdw.nl//parkingdata/v2/static/146ac98f-a6b6-4bb2-b334-fcf50349c281;;0;146ac98f-a6b6-4bb2-b334-fcf50349c281;53.1851637;7.2007349;Oldambt;nl;Groningen;Noord-Nederland;good;park and ride;1;10;0;0;1;1;Nederlandse Spoorwegen
2830;P+R Spoorstraat (Bunde);https://npropendata.rdw.nl//parkingdata/v2/static/66834791-df8d-4c8b-86f3-23ce0c131c3b;;0;66834791-df8d-4c8b-86f3-23ce0c131c3b;50.8966965;5.7359411;Meerssen;nl;Limburg;Zuid-Nederland;good;park and ride;1;37;1;0;1;1;Nederlandse Spoorwegen
2833;P+R Station Voorschoten, Rouboslaan, Voorschoten (Voorschoten);https://npropendata.rdw.nl//parkingdata/v2/static/be554fd7-4517-48eb-a362-8a4e312b23ef;;0;be554fd7-4517-48eb-a362-8a4e312b23ef;52.125964420985;4.434284508099;Voorschoten;nl;Zuid-Holland;Zuidwest-Nederland;good;park and ride;1;123;0;0;1;1;Nederlandse Spoorwegen
2836;P+R Station de Vink, Trompplein, Voorschoten (Voorschoten);https://npropendata.rdw.nl//parkingdata/v2/static/9f57e127-a06d-4567-be93-310dc5f5254b;;0;9f57e127-a06d-4567-be93-310dc5f5254b;52.1469831;4.4564783;Leiden;nl;Zuid-Holland;Zuidwest-Nederland;good;park and ride;1;76;1;0;1;1;Nederlandse Spoorwegen
2838;P+R Smalstraat (Helmond);https://npropendata.rdw.nl//parkingdata/v2/static/7a9b74fd-16f7-4bc4-b971-30b47a36bea0;https://npropendata.rdw.nl//parkingdata/v2/dynamic/7a9b74fd-16f7-4bc4-b971-30b47a36bea0;1;7a9b74fd-16f7-4bc4-b971-30b47a36bea0;51.47611245;5.6645050917286;Helmond;nl;Noord-Brabant;Zuid-Nederland;good;park and ride;1;160;1;0;1;0;Q-Park Nederland BV
2839;P+R Segeerssingel (Middelburg);https://npropendata.rdw.nl//parkingdata/v2/static/e8d34d20-b9f4-4dc7-8664-2adeca574dbf;https://npropendata.rdw.nl//parkingdata/v2/dynamic/e8d34d20-b9f4-4dc7-8664-2adeca574dbf;1;e8d34d20-b9f4-4dc7-8664-2adeca574dbf;51.493763;3.6150487;Middelburg;nl;Zeeland;Zuidwest-Nederland;good;park and ride;1;180;1;0;1;0;Q-Park Nederland BV
2871;P+R Parallelweg Oost (Culemborg);https://npropendata.rdw.nl//parkingdata/v2/static/2d237916-ade9-4d0f-b939-074aa815e110;;0;2d237916-ade9-4d0f-b939-074aa815e110;51.9469819;5.2280683;Culemborg;nl;Gelderland;Oost-Nederland;good;park and ride;1;250;1;0;1;1;Culemborg
2900;P+R Zeeburg 2 (Amsterdam);https://npropendata.rdw.nl//parkingdata/v2/static/1c770197-5e7b-455b-86f9-4137651c4319;;0;1c770197-5e7b-455b-86f9-4137651c4319;52.37013845;4.9644518508884;Amsterdam;nl;Noord-Holland;Noordwest-Nederland;good;park and ride;1;400;1;1.9;1;1;Amsterdam
2913;P+R Station Sliedrecht (Sliedrecht);https://npropendata.rdw.nl//parkingdata/v2/static/b782d5a8-e224-4981-a721-686b96f4d539;;0;b782d5a8-e224-4981-a721-686b96f4d539;51.829098;4.7795398;Sliedrecht;nl;Zuid-Holland;Zuidwest-Nederland;good;park and ride;1;58;1;0;1;1;Sliedrecht
3006;P+R Station Akkrum (Akkrum);https://npropendata.rdw.nl//parkingdata/v2/static/78470d12-5449-4a6e-b8dc-7143eccdd56d;;0;78470d12-5449-4a6e-b8dc-7143eccdd56d;53.0477124;5.8424973;Heerenveen;nl;Fryslân;Noord-Nederland;good;park and ride;1;20;1;0;1;1;Heerenveen
3021;P+R Dalen (Dalen);https://npropendata.rdw.nl//parkingdata/v2/static/d139bc44-d739-4f26-9cbf-426bbe4c2a94;;0;d139bc44-d739-4f26-9cbf-426bbe4c2a94;52.694967651906;6.7581290173271;Coevorden;nl;Drenthe;Noord-Nederland;good;park and ride;1;8;1;0;1;1;Coevorden
3025;P+R Station Maastricht Randwyck Oostzijde (Maastricht);https://npropendata.rdw.nl//parkingdata/v2/static/78572f7f-6348-4377-931f-855db3dbedc1;;0;78572f7f-6348-4377-931f-855db3dbedc1;50.837536540678;5.7197474073149;Maastricht;nl;Limburg;Zuid-Nederland;good;park and ride;1;23;1;0;1;1;Maastricht
3054;P+R Station Vroomshoop, Stationslaan, Vroomshoop (Twenterand);https://npropendata.rdw.nl//parkingdata/v2/static/cc731e92-8705-476e-ad48-b9c1259c33fb;;0;cc731e92-8705-476e-ad48-b9c1259c33fb;52.4568687;6.5685383;Twenterand;nl;Overijssel;Oost-Nederland;good;park and ride;1;42;0;0;1;1;Nederlandse Spoorwegen
3055;P+R, Station Lage Zwaluwe, Zevenbergschen Hoek (Moerdijk);https://npropendata.rdw.nl//parkingdata/v2/static/52888d23-e7d4-45e8-bfe9-6d4f6e3ee957;;0;52888d23-e7d4-45e8-bfe9-6d4f6e3ee957;51.690273088439;4.6617911808964;Moerdijk;nl;Noord-Brabant;Zuid-Nederland;good;park and ride;1;180;0;0;1;1;Nederlandse Spoorwegen
3059;P+R Station Veenendaal-West (Veenendaal);https://npropendata.rdw.nl//parkingdata/v2/static/129034e5-f088-4ae1-88bd-f0e4a5e1b8fe;;0;129034e5-f088-4ae1-88bd-f0e4a5e1b8fe;52.0276272;5.5320254104244;Veenendaal;nl;Utrecht;Noordwest-Nederland;good;park and ride;1;87;1;0;1;1;Nederlandse Spoorwegen
3092;P+R Station Maassluis CS (Maassluis);https://npropendata.rdw.nl//parkingdata/v2/static/45e44870-5117-4338-8835-1a71cc735280;;0;45e44870-5117-4338-8835-1a71cc735280;51.91711869249;4.2532818093592;Maassluis;nl;Zuid-Holland;Zuidwest-Nederland;good;park and ride;1;65;1;0;1;1;Maassluis
3099;P+R-terrein Poortugaal (Poortugaal);https://npropendata.rdw.nl//parkingdata/v2/static/0a6e6c6b-edcc-4363-bc4f-4276d2598189;;0;0a6e6c6b-edcc-4363-bc4f-4276d2598189;51.861325053326;4.3955121002933;Albrandswaard;nl;Zuid-Holland;Zuidwest-Nederland;good;park and ride;1;171;1;0;1;1;Albrandswaard
3107;P+R-terrein Rhoon (Rhoon);https://npropendata.rdw.nl//parkingdata/v2/static/0f93df60-09ef-43fb-96f0-375addf0f936;;0;0f93df60-09ef-43fb-96f0-375addf0f936;51.859588810648;4.4203797990081;Albrandswaard;nl;Zuid-Holland;Zuidwest-Nederland;good;park and ride;1;41;1;0;1;1;Albrandswaard
3118;P+R Stationspark (Goes);https://npropendata.rdw.nl//parkingdata/v2/static/7c757e15-8fbb-4ff1-bd28-9155d044ac96;;0;7c757e15-8fbb-4ff1-bd28-9155d044ac96;51.4980238;3.8935184774419;Goes;nl;Zeeland;Zuidwest-Nederland;good;park and ride;1;300;1;0;1;0;Goes
3122;P+R Zeelandhallen (Goes);https://npropendata.rdw.nl//parkingdata/v2/static/8251e744-b380-4066-970e-c8cd4b6f9d3d;;0;8251e744-b380-4066-970e-c8cd4b6f9d3d;51.4894346;3.8729026019663;Goes;nl;Zeeland;Zuidwest-Nederland;good;park and ride;1;1500;1;0;1;1;Goes
3165;P+R Vierlingsbeek (Vierlingsbeek);https://npropendata.rdw.nl//parkingdata/v2/static/d8082fa9-6dfc-4ed4-aca2-34c287f6ad4c;;0;d8082fa9-6dfc-4ed4-aca2-34c287f6ad4c;51.5922013;5.9974861;Boxmeer;nl;Noord-Brabant;Zuid-Nederland;good;park and ride;1;52;1;0;1;1;Boxmeer
3213;P+R Station Pijnacker Centrum (Pijnacker);https://npropendata.rdw.nl//parkingdata/v2/static/ca293049-1783-4d3b-a2a1-76b5ffdb5d92;;0;ca293049-1783-4d3b-a2a1-76b5ffdb5d92;52.0206708;4.4350575;Pijnacker-Nootdorp;nl;Zuid-Holland;Zuidwest-Nederland;good;park and ride;1;72;1;0;1;1;Pijnacker-Nootdorp
3221;P+R, Station Zuidbroek, Stationstraat, Zuidbroek (Menterwolde);https://npropendata.rdw.nl//parkingdata/v2/static/08d3afcf-c33e-4ea6-a570-cd1a60254fb3;;0;08d3afcf-c33e-4ea6-a570-cd1a60254fb3;53.1593155;6.8660414;Midden-Groningen;nl;Groningen;Noord-Nederland;good;park and ride;1;52;1;0;1;1;Nederlandse Spoorwegen
3222;P + R station Breukelen NO P2;https://npropendata.rdw.nl//parkingdata/v2/static/e8f046ff-4785-472a-8668-f76c54d3133a;https://npropendata.rdw.nl//parkingdata/v2/dynamic/e8f046ff-4785-472a-8668-f76c54d3133a;0;e8f046ff-4785-472a-8668-f76c54d3133a;52.1711871;4.9922966363658;Stichtse Vecht;nl;Utrecht;Noordwest-Nederland;good;park and ride;1;230;0;0;1;1;Nederlandse Spoorwegen
3223;P+R, Station Scheemda, Stationstraat, Scheemda (Oldambt);https://npropendata.rdw.nl//parkingdata/v2/static/f5c249ff-00b8-45cf-8490-cd4da0ae3794;;0;f5c249ff-00b8-45cf-8490-cd4da0ae3794;53.1646582;6.9780865;Oldambt;nl;Groningen;Noord-Nederland;good;park and ride;1;64;0;0;1;1;Nederlandse Spoorwegen
3224;P+R Station Meppel Oostzijde (Meppel);https://npropendata.rdw.nl//parkingdata/v2/static/692af9e1-8c2c-4e84-b296-59129789fa55;;0;692af9e1-8c2c-4e84-b296-59129789fa55;52.6914723;6.1974455;Meppel;nl;Drenthe;Noord-Nederland;good;park and ride;1;167;1;0;1;1;Nederlandse Spoorwegen
3225;P+R Boelenhamstraat, Dodewaard (Neder-Betuwe);https://npropendata.rdw.nl//parkingdata/v2/static/1c1c7725-09d9-41a4-9eb1-1b24ceaff745;;0;1c1c7725-09d9-41a4-9eb1-1b24ceaff745;51.922135552257;5.672889986783;Neder-Betuwe;nl;Gelderland;Oost-Nederland;good;park and ride;1;16;0;0;1;1;Nederlandse Spoorwegen
3226;P+R Stationsstraat (Meersen);https://npropendata.rdw.nl//parkingdata/v2/static/24190ff2-c521-4825-abd6-aa20c14d8b67;;0;24190ff2-c521-4825-abd6-aa20c14d8b67;50.882447267228;5.7514724188739;Meerssen;nl;Limburg;Zuid-Nederland;good;park and ride;1;88;1;0;1;1;Nederlandse Spoorwegen
3227;P+R Spoorstraat (Susteren);https://npropendata.rdw.nl//parkingdata/v2/static/d20db70b-b980-41b2-a457-67148670b260;;0;d20db70b-b980-41b2-a457-67148670b260;51.0610628;5.8627103005283;Susteren;nl;Limburg;Zuid-Nederland;good;park and ride;1;27;1;0;1;1;Nederlandse Spoorwegen
3228;P+R Stationsstraat, Kesteren (Neder-Betuwe);https://npropendata.rdw.nl//parkingdata/v2/static/eafc74b5-cfb8-4eb5-b420-040cd4e2c82b;;0;eafc74b5-cfb8-4eb5-b420-040cd4e2c82b;51.9316687;5.5835396;Neder-Betuwe;nl;Gelderland;Oost-Nederland;good;park and ride;1;34;0;0;1;1;Nederlandse Spoorwegen
3234;P+R Proveniersplein (Rotterdam);https://npropendata.rdw.nl//parkingdata/v2/static/32b5007c-91bd-4a4d-b54a-13a05e89d402;https://npropendata.rdw.nl//parkingdata/v2/dynamic/32b5007c-91bd-4a4d-b54a-13a05e89d402;1;32b5007c-91bd-4a4d-b54a-13a05e89d402;51.92629535;4.4709024911843;Rotterdam;nl;Zuid-Holland;Zuidwest-Nederland;good;park and ride;1;106;1;0;1;0;Q-Park Nederland BV
3235;P+R Station Diemen-Zuid (Diemen);https://npropendata.rdw.nl//parkingdata/v2/static/92b4cc10-9da4-4c39-9049-502621412dea;;0;92b4cc10-9da4-4c39-9049-502621412dea;52.330166;4.95146;Diemen;nl;Noord-Holland;Noordwest-Nederland;good;park and ride;1;77;1;0;1;1;Diemen
3236;P+R Parallelweg (Bergen op Zoom);https://npropendata.rdw.nl//parkingdata/v2/static/296d1301-3ad2-4745-89fe-b64527a6e0c6;https://npropendata.rdw.nl//parkingdata/v2/dynamic/296d1301-3ad2-4745-89fe-b64527a6e0c6;1;296d1301-3ad2-4745-89fe-b64527a6e0c6;51.494898174267;4.2967126166777;Bergen op Zoom;nl;Noord-Brabant;Zuid-Nederland;good;park and ride;1;226;1;0;1;0;Q-Park Nederland BV
3266;P+R Spoorstraat (Best);https://npropendata.rdw.nl//parkingdata/v2/static/3166d355-4819-4339-b5a3-d97d0fa5a8ca;;0;3166d355-4819-4339-b5a3-d97d0fa5a8ca;51.5089508;5.3894142;Best;nl;Noord-Brabant;Zuid-Nederland;good;park and ride;1;203;1;0;1;1;Best
3309;P+R Spoorlaan (Valkenburg aan de Geul);https://npropendata.rdw.nl//parkingdata/v2/static/2a40bf32-ae3b-4bc8-a3af-3224382b0b3e;https://npropendata.rdw.nl//parkingdata/v2/dynamic/2a40bf32-ae3b-4bc8-a3af-3224382b0b3e;1;2a40bf32-ae3b-4bc8-a3af-3224382b0b3e;50.8702023;5.8304728021908;Valkenburg;nl;Limburg;Zuid-Nederland;good;park and ride;1;204;1;0;1;0;Q-Park Nederland BV
3358;P + R Geldermalsen-West (Geldermalsen);https://npropendata.rdw.nl//parkingdata/v2/static/5c69bcb1-ee7c-44af-8113-57f41d879bcf;;0;5c69bcb1-ee7c-44af-8113-57f41d879bcf;51.881675584744;5.2701894226402;West Betuwe;nl;Gelderland;Oost-Nederland;good;park and ride;1;493;1;0;1;1;West Betuwe
3361;P+R Borne (Borne);https://npropendata.rdw.nl//parkingdata/v2/static/739f47c9-db35-43ff-a656-366bc9aa3894;;0;739f47c9-db35-43ff-a656-366bc9aa3894;52.3000577;6.7481162;Borne;nl;Overijssel;Oost-Nederland;good;park and ride;1;125;1;0;1;1;Borne
3365;P+R Slochterenlaan (Naarden-Bussum);https://npropendata.rdw.nl//parkingdata/v2/static/2e9e0e3d-295b-46db-89c2-479b5385a380;https://npropendata.rdw.nl//parkingdata/v2/dynamic/2e9e0e3d-295b-46db-89c2-479b5385a380;1;2e9e0e3d-295b-46db-89c2-479b5385a380;52.27996095;5.1568167264112;Gooise Meren;nl;Noord-Holland;Noordwest-Nederland;good;park and ride;1;130;1;0;1;0;Q-Park Nederland BV
3367;P+R Kruseman van Eltenweg (Alkmaar);https://npropendata.rdw.nl//parkingdata/v2/static/7f91f5bf-56fe-4cb4-9660-c1bb35b614ff;https://npropendata.rdw.nl//parkingdata/v2/dynamic/7f91f5bf-56fe-4cb4-9660-c1bb35b614ff;1;7f91f5bf-56fe-4cb4-9660-c1bb35b614ff;52.6392538;4.7406921;Alkmaar;nl;Noord-Holland;Noordwest-Nederland;good;park and ride;1;230;1;0;1;0;Q-Park Nederland BV
3369;P+R Station Rheden, Doctor Langemeijerweg, Rheden (Rheden);https://npropendata.rdw.nl//parkingdata/v2/static/d7fb8f8b-a92c-4a9f-a742-7fc840c12c4f;;0;d7fb8f8b-a92c-4a9f-a742-7fc840c12c4f;52.0100045;6.0310073;Rheden;nl;Gelderland;Oost-Nederland;good;park and ride;1;3;0;0;1;1;Nederlandse Spoorwegen
3397;P+R Station Voorhout (Voorhout);https://npropendata.rdw.nl//parkingdata/v2/static/345fc0e9-b93c-4969-903d-52dfe8832c9c;;0;345fc0e9-b93c-4969-903d-52dfe8832c9c;52.2252523;4.4846100497677;Teylingen;nl;Zuid-Holland;Zuidwest-Nederland;good;park and ride;1;218;1;0;1;1;Teylingen
3400;P+R knooppunt N33/N34 (Gieten);https://npropendata.rdw.nl//parkingdata/v2/static/b34e20f3-0508-44c3-8699-111ae69cf8c0;;0;b34e20f3-0508-44c3-8699-111ae69cf8c0;53.0093356;6.750252429171;Aa en Hunze;nl;Drenthe;Noord-Nederland;good;park and ride;1;66;1;0;1;1;Aa en Hunze
3406;P+R Stationsplein (Assen);https://npropendata.rdw.nl//parkingdata/v2/static/e176fda1-54ab-4ee8-95eb-e428b9acf480;https://npropendata.rdw.nl//parkingdata/v2/dynamic/e176fda1-54ab-4ee8-95eb-e428b9acf480;1;e176fda1-54ab-4ee8-95eb-e428b9acf480;52.9901629;6.5699616805565;Assen;nl;Drenthe;Noord-Nederland;good;park and ride;1;230;1;0;1;0;Q-Park Nederland BV
3407;P+R Stationsweg (Gorinchem);https://npropendata.rdw.nl//parkingdata/v2/static/5c8527c1-e3f3-491a-97d8-5ae77e54a3da;https://npropendata.rdw.nl//parkingdata/v2/dynamic/5c8527c1-e3f3-491a-97d8-5ae77e54a3da;1;5c8527c1-e3f3-491a-97d8-5ae77e54a3da;51.834225;4.9695153;Gorinchem;nl;Zuid-Holland;Zuidwest-Nederland;good;park and ride;1;116;1;0;1;0;Q-Park Nederland BV
3410;P+R Station Veenendaal-Centrum (Veenendaal);https://npropendata.rdw.nl//parkingdata/v2/static/5512204f-fb36-43de-a58e-1743d41ebe8d;https://npropendata.rdw.nl//parkingdata/v2/dynamic/5512204f-fb36-43de-a58e-1743d41ebe8d;0;5512204f-fb36-43de-a58e-1743d41ebe8d;52.0201954;5.5482502436389;Veenendaal;nl;Utrecht;Noordwest-Nederland;good;park and ride;1;94;1;0;1;1;Nederlandse Spoorwegen
3413;P+R Magistratenlaan ('s-Hertogenbosch);https://npropendata.rdw.nl//parkingdata/v2/static/e20a8851-7cb1-4ef7-8e71-1b296d9eee89;https://npropendata.rdw.nl//parkingdata/v2/dynamic/e20a8851-7cb1-4ef7-8e71-1b296d9eee89;1;e20a8851-7cb1-4ef7-8e71-1b296d9eee89;51.686199326599;5.2909463420335;'s-Hertogenbosch;nl;Noord-Brabant;Zuid-Nederland;good;park and ride;1;163;1;0;1;0;Q-Park Nederland BV
3475;P+R Station Sassenheim (Sassenheim);https://npropendata.rdw.nl//parkingdata/v2/static/8bd30312-1f34-4fd8-8760-a85fbda72f9f;;0;8bd30312-1f34-4fd8-8760-a85fbda72f9f;52.215704711975;4.516723293145;Teylingen;nl;Zuid-Holland;Zuidwest-Nederland;good;park and ride;1;250;1;0;1;1;Teylingen
3483;P+R Station Pijnacker-Zuid (Pijnacker);https://npropendata.rdw.nl//parkingdata/v2/static/23a186af-503e-473f-9126-ff4316f97c38;;0;23a186af-503e-473f-9126-ff4316f97c38;52.00579495;4.4469867134103;Pijnacker-Nootdorp;nl;Zuid-Holland;Zuidwest-Nederland;good;park and ride;1;110;1;0;1;1;Pijnacker-Nootdorp
3510;P+R Leeghwaterweg, Wijdewormer (Wormerland);https://npropendata.rdw.nl//parkingdata/v2/static/2dbff624-0a0c-48ab-97e3-223bd4273c1c;;0;2dbff624-0a0c-48ab-97e3-223bd4273c1c;52.4767555;4.8519822;Wormerland;nl;Noord-Holland;Noordwest-Nederland;good;park and ride;1;120;1;0;1;1;Wormerland
3533;P + R station Bilthoven;https://npropendata.rdw.nl//parkingdata/v2/static/fbdec230-14d1-47f6-b62f-9aedc6f87280;https://npropendata.rdw.nl//parkingdata/v2/dynamic/fbdec230-14d1-47f6-b62f-9aedc6f87280;0;fbdec230-14d1-47f6-b62f-9aedc6f87280;52.1297801;5.201973;De Bilt;nl;Utrecht;Noordwest-Nederland;good;park and ride;1;134;0;0;1;1;Nederlandse Spoorwegen
3535;P+R Station Zoetermeer-Oost (Zoetermeer);https://npropendata.rdw.nl//parkingdata/v2/static/988760a1-485b-4048-9bc1-1b69f5ce6239;;0;988760a1-485b-4048-9bc1-1b69f5ce6239;52.046924705993;4.4920558307498;Zoetermeer;nl;Zuid-Holland;Zuidwest-Nederland;good;park and ride;1;143;0;0;1;1;Nederlandse Spoorwegen
3537;P+R Station Lichtenvoorde-Groenlo, Stationstraat, Lievelde (Oost Gelre);https://npropendata.rdw.nl//parkingdata/v2/static/bb88fecf-2910-4739-9b7f-46eb840ba7c5;;0;bb88fecf-2910-4739-9b7f-46eb840ba7c5;52.012322496881;6.594181062416;Oost Gelre;nl;Gelderland;Oost-Nederland;good;park and ride;1;54;1;0;1;1;Nederlandse Spoorwegen
3559;P+R Breda-Prinsenbeek (Breda);https://npropendata.rdw.nl//parkingdata/v2/static/8bcd7b6b-caaf-4190-801c-622990c5d4df;;0;8bcd7b6b-caaf-4190-801c-622990c5d4df;51.606014426669;4.7218960495289;Breda;nl;Noord-Brabant;Zuid-Nederland;good;park and ride;1;60;1;0;1;1;Breda
3565;P+R Helmond 't Hout (Helmond);https://npropendata.rdw.nl//parkingdata/v2/static/49c16890-858a-45f4-95fc-7b52587508ba;;0;49c16890-858a-45f4-95fc-7b52587508ba;51.467698328184;5.6289273540032;Helmond;nl;Noord-Brabant;Zuid-Nederland;good;park and ride;1;44;1;0;1;1;Helmond
3585;P+R Station Dieren, Burgemeester de Bruinstraat, Dieren (Rheden);https://npropendata.rdw.nl//parkingdata/v2/static/f2b23efb-64a1-4302-a581-c5344ce9ad53;;0;f2b23efb-64a1-4302-a581-c5344ce9ad53;52.0442245;6.1016848680531;Rheden;nl;Gelderland;Oost-Nederland;good;park and ride;1;170;0;0;1;1;Nederlandse Spoorwegen
3586;P + R station Breukelen W P3;https://npropendata.rdw.nl//parkingdata/v2/static/4fe55834-166f-4651-8371-d68807490125;https://npropendata.rdw.nl//parkingdata/v2/dynamic/4fe55834-166f-4651-8371-d68807490125;0;4fe55834-166f-4651-8371-d68807490125;52.169593015224;4.9862747778268;Stichtse Vecht;nl;Utrecht;Noordwest-Nederland;good;park and ride;1;235;0;0;1;1;Nederlandse Spoorwegen
3588;P+R Spoorlaan (Woerden);https://npropendata.rdw.nl//parkingdata/v2/static/87d5b693-64b5-4eb5-86d2-31060e513df8;https://npropendata.rdw.nl//parkingdata/v2/dynamic/87d5b693-64b5-4eb5-86d2-31060e513df8;1;87d5b693-64b5-4eb5-86d2-31060e513df8;52.08597775;4.8939814102683;Woerden;nl;Utrecht;Noordwest-Nederland;good;park and ride;1;172;1;0;1;0;Q-Park Nederland BV
3624;P+R Station Rijssen, Rijssen (Rijssen-Holten);https://npropendata.rdw.nl//parkingdata/v2/static/2571f72a-4ee4-4aca-9ad8-648872ec6d34;;0;2571f72a-4ee4-4aca-9ad8-648872ec6d34;52.3125956;6.5194441;Rijssen-Holten;nl;Overijssel;Oost-Nederland;good;park and ride;1;98;0;0;1;1;Nederlandse Spoorwegen
3627;P+R Station Loppersum;https://npropendata.rdw.nl//parkingdata/v2/static/96d03827-cc2d-405b-be57-28f40840de11;;0;96d03827-cc2d-405b-be57-28f40840de11;53.3347592;6.7459011;Loppersum;nl;Groningen;Noord-Nederland;good;park and ride;1;42;0;0;1;1;Nederlandse Spoorwegen
3629;P+R Station Vlaardingen Centrum, Parallelweg, Vlaardingen (Vlaardingen);https://npropendata.rdw.nl//parkingdata/v2/static/095f7067-c760-4a63-b306-73b5f8296c5a;;0;095f7067-c760-4a63-b306-73b5f8296c5a;51.903923;4.345381;Vlaardingen;nl;Zuid-Holland;Zuidwest-Nederland;good;park and ride;1;119;0;0;1;1;Nederlandse Spoorwegen
3649;P+R Hoofdstation (Groningen);https://npropendata.rdw.nl//parkingdata/v2/static/cf95aa52-3b83-4493-b84d-5cb28a037bfc;https://npropendata.rdw.nl//parkingdata/v2/dynamic/cf95aa52-3b83-4493-b84d-5cb28a037bfc;1;cf95aa52-3b83-4493-b84d-5cb28a037bfc;53.21167175;6.5606742751065;Groningen;nl;Groningen;Noord-Nederland;good;park and ride;1;258;1;0;1;0;Q-Park Nederland BV
3653;P+R Mayweg ('s-Hertogenbosch);https://npropendata.rdw.nl//parkingdata/v2/static/cde46750-b153-46b7-8282-eae2c4a06d2c;https://npropendata.rdw.nl//parkingdata/v2/dynamic/cde46750-b153-46b7-8282-eae2c4a06d2c;1;cde46750-b153-46b7-8282-eae2c4a06d2c;51.68748855;5.2932092878527;'s-Hertogenbosch;nl;Noord-Brabant;Zuid-Nederland;good;park and ride;1;370;1;0;1;0;Q-Park Nederland BV
3654;P+R Helmond Brouwhuis (Helmond);https://npropendata.rdw.nl//parkingdata/v2/static/6220afe3-5b7d-4c96-97c0-4b03da2fdb9b;;0;6220afe3-5b7d-4c96-97c0-4b03da2fdb9b;51.470976416293;5.7015640655771;Helmond;nl;Noord-Brabant;Zuid-Nederland;good;park and ride;1;12;1;0;1;1;Helmond
3688;P+R Station Holten, waagweg, Holten (Rijssen- Holten);https://npropendata.rdw.nl//parkingdata/v2/static/bd12ae38-54b4-4556-a150-447009d40a9e;;0;bd12ae38-54b4-4556-a150-447009d40a9e;52.284540564086;6.4248578006897;Rijssen-Holten;nl;Overijssel;Oost-Nederland;good;park and ride;1;0;1;0;1;1;Nederlandse Spoorwegen
3689;P+R transferium (Sittard-Geleen);https://npropendata.rdw.nl//parkingdata/v2/static/1fd837f8-13d5-4c8b-9f92-e88448dc6a10;https://npropendata.rdw.nl//parkingdata/v2/dynamic/1fd837f8-13d5-4c8b-9f92-e88448dc6a10;1;1fd837f8-13d5-4c8b-9f92-e88448dc6a10;51.0016911;5.8570218;Sittard;nl;Limburg;Zuid-Nederland;good;park and ride;1;525;1;0;1;0;Q-Park Nederland BV
3690;P+R Station Kropswolde, Woldweg, Kropswolde (Hoogezand-Sappemeer);https://npropendata.rdw.nl//parkingdata/v2/static/ed0a59f3-73fc-4aae-a36c-105de596f590;;0;ed0a59f3-73fc-4aae-a36c-105de596f590;53.1601204;6.7699493;Midden-Groningen;nl;Groningen;Noord-Nederland;good;park and ride;1;19;0;0;1;1;Nederlandse Spoorwegen
3692;P+R Stationsplein (Heerenveen);https://npropendata.rdw.nl//parkingdata/v2/static/1c64e8fc-3f22-4d0f-ab32-027a601859d1;https://npropendata.rdw.nl//parkingdata/v2/dynamic/1c64e8fc-3f22-4d0f-ab32-027a601859d1;1;1c64e8fc-3f22-4d0f-ab32-027a601859d1;52.96209845;5.9142719878336;Heerenveen;nl;Fryslân;Noord-Nederland;good;park and ride;1;131;1;0;1;0;Q-Park Nederland BV
3693;P+R Station Grijpskerk (Zuidhorn);https://npropendata.rdw.nl//parkingdata/v2/static/61c1f4ce-6a71-43ed-bfa0-1e96167d1bea;;0;61c1f4ce-6a71-43ed-bfa0-1e96167d1bea;53.2560666;6.311401;Westerkwartier;nl;Groningen;Noord-Nederland;average;park and ride;1;0;1;0;1;1;Nederlandse Spoorwegen
3697;P+R Stationsweg (Breda);https://npropendata.rdw.nl//parkingdata/v2/static/0958e08b-94be-44c6-95a2-3815bf0eba53;https://npropendata.rdw.nl//parkingdata/v2/dynamic/0958e08b-94be-44c6-95a2-3815bf0eba53;1;0958e08b-94be-44c6-95a2-3815bf0eba53;51.5952213;4.7831324656134;Breda;nl;Noord-Brabant;Zuid-Nederland;good;park and ride;1;94;1;2.1;1;0;Q-Park Nederland BV
3715;P+R Hoensbroek (Hoensbroek);https://npropendata.rdw.nl//parkingdata/v2/static/f8bcfb36-927a-470b-bb1c-c324d92d0089;;0;f8bcfb36-927a-470b-bb1c-c324d92d0089;50.9060681;5.9299706;Heerlen;nl;Limburg;Zuid-Nederland;good;park and ride;1;20;1;0;1;1;Heerlen
3734;P+R Station Oss-West (Oss);https://npropendata.rdw.nl//parkingdata/v2/static/01c139ae-bbc9-4eb9-a082-0fc2d90519d7;;0;01c139ae-bbc9-4eb9-a082-0fc2d90519d7;51.758241016489;5.5072353985383;Oss;nl;Noord-Brabant;Zuid-Nederland;good;park and ride;1;62;1;0;1;1;Nederlandse Spoorwegen
3738;P+R Horvathweg (Schiedam);https://npropendata.rdw.nl//parkingdata/v2/static/287934d1-9679-4e1d-9351-36afba67dacc;https://npropendata.rdw.nl//parkingdata/v2/dynamic/287934d1-9679-4e1d-9351-36afba67dacc;1;287934d1-9679-4e1d-9351-36afba67dacc;51.9213115;4.4097126;Schiedam;nl;Zuid-Holland;Zuidwest-Nederland;good;park and ride;1;64;1;0;1;0;Q-Park Nederland BV
3741;P+R Station Bloemendaal (Bloemendaal);https://npropendata.rdw.nl//parkingdata/v2/static/e5622e0d-c5c2-46a2-83b4-1d0c48a003d0;;0;e5622e0d-c5c2-46a2-83b4-1d0c48a003d0;52.4037844;4.6265332;Bloemendaal;nl;Noord-Holland;Noordwest-Nederland;good;park and ride;1;12;0;0;1;1;Nederlandse Spoorwegen
3750;P+R Station Chevremont (Kerkrade);https://npropendata.rdw.nl//parkingdata/v2/static/95a18833-c1c6-49ac-9278-0f365ad4b7ae;;0;95a18833-c1c6-49ac-9278-0f365ad4b7ae;50.8755077;6.0585858;Kerkrade;nl;Limburg;Zuid-Nederland;good;park and ride;1;25;1;0;1;1;Kerkrade
3765;P+R Stationsplein (Venlo);https://npropendata.rdw.nl//parkingdata/v2/static/b4b86712-0f65-4103-9e56-7ee5ed8fe6ea;https://npropendata.rdw.nl//parkingdata/v2/dynamic/b4b86712-0f65-4103-9e56-7ee5ed8fe6ea;1;b4b86712-0f65-4103-9e56-7ee5ed8fe6ea;51.36417975;6.1731274033321;Venlo;nl;Limburg;Zuid-Nederland;good;park and ride;1;198;1;0;1;0;Q-Park Nederland BV
3766;P+R Station Varsseveld, Varsseveld (Oude IJsselstreek);https://npropendata.rdw.nl//parkingdata/v2/static/89a2fe54-6f50-4486-8413-89f4649d3120;;0;89a2fe54-6f50-4486-8413-89f4649d3120;51.9382364;6.457125;Oude IJsselstreek;nl;Gelderland;Oost-Nederland;good;park and ride;1;142;0;0;1;1;Nederlandse Spoorwegen
3811;P+R Spijkenisse Centrum (Spijkenisse);https://npropendata.rdw.nl//parkingdata/v2/static/14a08d05-def7-4a19-955d-f46029554881;;0;14a08d05-def7-4a19-955d-f46029554881;51.8458691;4.332583;Nissewaard;nl;Zuid-Holland;Zuidwest-Nederland;good;park and ride;1;269;1;0;1;1;Nissewaard
3814;P+R station Driebergen-Zeist;https://npropendata.rdw.nl//parkingdata/v2/static/54612960-b8a6-4499-9f47-f7ae7c4fd2c8;;0;54612960-b8a6-4499-9f47-f7ae7c4fd2c8;52.0648255;5.2573993;Utrechtse Heuvelrug;nl;Utrecht;Noordwest-Nederland;good;park and ride;1;582;0;1.9;1;1;Nederlandse Spoorwegen
3815;P+R Baanweg (Schin op Geul);https://npropendata.rdw.nl//parkingdata/v2/static/241e35bc-be67-4ee9-9da0-71017d6a4267;;0;241e35bc-be67-4ee9-9da0-71017d6a4267;50.855710351508;5.8741500656783;Schin op Geul;nl;Limburg;Zuid-Nederland;good;park and ride;1;48;1;0;1;1;Nederlandse Spoorwegen
3826;P+R Station Zoetermeer Voorweg;https://npropendata.rdw.nl//parkingdata/v2/static/b4860d41-b6c3-472f-b914-4ba7c5b5bff4;;0;b4860d41-b6c3-472f-b914-4ba7c5b5bff4;52.062888407795;4.4710151516326;Zoetermeer;nl;Zuid-Holland;Zuidwest-Nederland;good;park and ride;1;30;0;0;1;1;Nederlandse Spoorwegen
3831;P+R Station Maastricht Noord;https://npropendata.rdw.nl//parkingdata/v2/static/c0aecf40-4df5-43b9-b8af-577fb8c681f8;;0;c0aecf40-4df5-43b9-b8af-577fb8c681f8;50.873044932915;5.718412539057;Maastricht;nl;Limburg;Zuid-Nederland;good;park and ride;1;540;1;2.5;1;1;Maastricht
3854;Carpool parkeren Heteren A50, Weerbroek Heteren (Overbetuwe);https://npropendata.rdw.nl//parkingdata/v2/static/bd4d638d-a04f-42a0-bc7c-adc29a15cf33;;0;bd4d638d-a04f-42a0-bc7c-adc29a15cf33;51.94348345;5.7566647074836;Overbetuwe;nl;Gelderland;Oost-Nederland;good;park and ride;1;36;1;0;1;1;Overbetuwe
3865;P+R Station Voorburg 't Loo Wilgendreef (Voorburg);https://npropendata.rdw.nl//parkingdata/v2/static/1298a245-7f5c-4a94-83ea-b18030e2764d;;0;1298a245-7f5c-4a94-83ea-b18030e2764d;52.0826331;4.3655600923108;Leidschendam-Voorburg;nl;Zuid-Holland;Zuidwest-Nederland;good;park and ride;1;64;1;0;1;1;Leidschendam-Voorburg
3867;P+R Station Zevenbergen, stationslaan, Zevenbergen (Moerdijk);https://npropendata.rdw.nl//parkingdata/v2/static/a5d70b2e-1c27-4c6c-b803-8a2441e5e1f7;;0;a5d70b2e-1c27-4c6c-b803-8a2441e5e1f7;51.6409433;4.6092055;Moerdijk;nl;Noord-Brabant;Zuid-Nederland;good;park and ride;1;147;0;0;1;1;Nederlandse Spoorwegen
3873;P+R Roemer Visscherplein;https://npropendata.rdw.nl//parkingdata/v2/static/0599015c-5cb5-40a1-ba24-e9fb157b64d4;https://npropendata.rdw.nl//parkingdata/v2/dynamic/0599015c-5cb5-40a1-ba24-e9fb157b64d4;1;0599015c-5cb5-40a1-ba24-e9fb157b64d4;52.3596319;4.6055501;Heemstede;nl;Noord-Holland;Noordwest-Nederland;average;park and ride;1;147;0;2.1;1;0;Q-Park Nederland BV
3875;P+R Station Twello, Stationsplein, Twello (Voorst);https://npropendata.rdw.nl//parkingdata/v2/static/f96561b4-e8c6-4291-a14b-bd3fe879e5e0;;0;f96561b4-e8c6-4291-a14b-bd3fe879e5e0;52.238532;6.1020837;Voorst;nl;Gelderland;Oost-Nederland;good;park and ride;1;80;0;0;1;1;Nederlandse Spoorwegen
3877;P+R Station Vlaardingen West, Geuzenplein, Vlaardingen (Vlaardingen);https://npropendata.rdw.nl//parkingdata/v2/static/57cd1844-039f-4d28-87f9-5d73b826e9f0;;0;57cd1844-039f-4d28-87f9-5d73b826e9f0;51.904276531383;4.3155225623957;Vlaardingen;nl;Zuid-Holland;Zuidwest-Nederland;good;park and ride;1;86;0;0;1;1;Nederlandse Spoorwegen
3883;P+R Salmstraat (Boxtel);https://npropendata.rdw.nl//parkingdata/v2/static/77dae242-8749-4351-8b2f-348df25f4305;https://npropendata.rdw.nl//parkingdata/v2/dynamic/77dae242-8749-4351-8b2f-348df25f4305;1;77dae242-8749-4351-8b2f-348df25f4305;51.58372205;5.3181014765895;Boxtel;nl;Noord-Brabant;Zuid-Nederland;good;park and ride;1;193;1;0;1;0;Q-Park Nederland BV
3886;P+R Station Swalmen (Swalmen);https://npropendata.rdw.nl//parkingdata/v2/static/ccbca601-cdf5-47db-9531-2af5832ce3ff;;0;ccbca601-cdf5-47db-9531-2af5832ce3ff;51.2355486;6.0334943;Roermond;nl;Limburg;Zuid-Nederland;good;park and ride;1;10;1;0;1;1;Roermond
3927;P+R Station Voorburg (Voorburg);https://npropendata.rdw.nl//parkingdata/v2/static/4f0408a2-90f2-4317-92d9-f51f0b8dd5e6;;0;4f0408a2-90f2-4317-92d9-f51f0b8dd5e6;52.0674189;4.3586054;Leidschendam-Voorburg;nl;Zuid-Holland;Zuidwest-Nederland;good;park and ride;1;265;1;0;1;1;Leidschendam-Voorburg
3934;P+R Station Oosterbeek, Nico Bovenweg, Oosterbeek (Renkum);https://npropendata.rdw.nl//parkingdata/v2/static/4d1ec6c5-68b9-4f64-bbfa-5027b69aa9f6;;0;4d1ec6c5-68b9-4f64-bbfa-5027b69aa9f6;51.9932253;5.8401013;Renkum;nl;Gelderland;Oost-Nederland;good;park and ride;1;5;1;0;1;1;Nederlandse Spoorwegen
3936;P + R station Sassenheim;https://npropendata.rdw.nl//parkingdata/v2/static/9976905e-fe02-4211-8976-1b77e57c3b6f;https://npropendata.rdw.nl//parkingdata/v2/dynamic/9976905e-fe02-4211-8976-1b77e57c3b6f;0;9976905e-fe02-4211-8976-1b77e57c3b6f;52.216481002712;4.5177377964891;Teylingen;nl;Zuid-Holland;Zuidwest-Nederland;average;park and ride;1;520;0;0;1;0;Nederlandse Spoorwegen
3938;P+R In de Cramer (Heerlen);https://npropendata.rdw.nl//parkingdata/v2/static/75104ad9-e029-4709-9b68-6b150258fc15;;0;75104ad9-e029-4709-9b68-6b150258fc15;50.8960462;5.9531626;Heerlen;nl;Limburg;Zuid-Nederland;good;park and ride;1;15;1;0;1;1;Nederlandse Spoorwegen
3941;P+R Handelskade (Deventer);https://npropendata.rdw.nl//parkingdata/v2/static/a8be911f-6822-4a56-bba9-019540fd5a94;https://npropendata.rdw.nl//parkingdata/v2/dynamic/a8be911f-6822-4a56-bba9-019540fd5a94;1;a8be911f-6822-4a56-bba9-019540fd5a94;52.2551153;6.1677792232208;Deventer;nl;Overijssel;Oost-Nederland;good;park and ride;1;237;1;0;1;0;Q-Park Nederland BV
3942;P+R Laan van NOI (Den Haag);https://npropendata.rdw.nl//parkingdata/v2/static/94043c94-ce81-45cd-a84f-72c4d6891d0b;https://npropendata.rdw.nl//parkingdata/v2/dynamic/94043c94-ce81-45cd-a84f-72c4d6891d0b;1;94043c94-ce81-45cd-a84f-72c4d6891d0b;52.0785507;4.3439572;Leidschendam-Voorburg;nl;Zuid-Holland;Zuidwest-Nederland;good;park and ride;1;152;1;0;1;0;Q-Park Nederland BV
3943;P+R, Leeuwenveldseweg, Weesp (Weesp);https://npropendata.rdw.nl//parkingdata/v2/static/2689d021-fb4b-4f02-8143-fd97339719a3;;0;2689d021-fb4b-4f02-8143-fd97339719a3;52.3131131;5.0435280982147;Weesp;nl;Noord-Holland;Noordwest-Nederland;good;park and ride;1;374;1;0;1;1;Nederlandse Spoorwegen
3946;P+R Station Terborg, Stationsweg, Terborg (Oude IJsselstreek);https://npropendata.rdw.nl//parkingdata/v2/static/f1e1883a-ff59-47c7-a06c-6e4ffee4c6d1;;0;f1e1883a-ff59-47c7-a06c-6e4ffee4c6d1;51.9223952;6.3637165;Oude IJsselstreek;nl;Gelderland;Oost-Nederland;good;park and ride;1;15;0;0;1;1;Nederlandse Spoorwegen
3947;P+R Eerste Oude Heselaan (Nijmegen);https://npropendata.rdw.nl//parkingdata/v2/static/85d7e2a6-5985-401b-b4be-4665bf247d83;https://npropendata.rdw.nl//parkingdata/v2/dynamic/85d7e2a6-5985-401b-b4be-4665bf247d83;1;85d7e2a6-5985-401b-b4be-4665bf247d83;51.8449826;5.8493183;Nijmegen;nl;Gelderland;Oost-Nederland;good;park and ride;1;267;1;0;1;0;Q-Park Nederland BV
3948;P + R Station Kruiningen-Yerseke, Stationsweg, Kruiningen (Riemerswaal);https://npropendata.rdw.nl//parkingdata/v2/static/04fa8bd1-cf22-4187-bb62-40fd100e8178;;0;04fa8bd1-cf22-4187-bb62-40fd100e8178;51.4649277;4.0368965208844;Reimerswaal;nl;Zeeland;Zuidwest-Nederland;good;park and ride;1;160;1;0;1;1;Nederlandse Spoorwegen
3960;P+R Station Maastricht Randwyck Westzijde (Maastricht);https://npropendata.rdw.nl//parkingdata/v2/static/a224efde-3233-448a-8be7-92d9b7642758;;0;a224efde-3233-448a-8be7-92d9b7642758;50.8374949;5.71766145;Maastricht;nl;Limburg;Zuid-Nederland;good;park and ride;1;14;1;0;1;1;Maastricht
3961;P+R Station Maarn (Maarn);https://npropendata.rdw.nl//parkingdata/v2/static/1480e83a-5e4b-412a-afbf-a6badddd0254;;0;1480e83a-5e4b-412a-afbf-a6badddd0254;52.0618673;5.37475;Utrechtse Heuvelrug;nl;Utrecht;Noordwest-Nederland;good;park and ride;1;24;0;0;1;1;Utrechtse Heuvelrug
3971;P+R Station Zaltbommel, Oude Stationsweg (Zaltbommel);https://npropendata.rdw.nl//parkingdata/v2/static/08f5594b-c0da-467d-9a5c-f45f6a7f07e6;;0;08f5594b-c0da-467d-9a5c-f45f6a7f07e6;51.8075696;5.2623446;Zaltbommel;nl;Gelderland;Oost-Nederland;good;park and ride;1;168;0;0;1;1;Nederlandse Spoorwegen
3975;P+R Station Wierden;https://npropendata.rdw.nl//parkingdata/v2/static/e6f83f8b-044a-49f6-abea-da4796d20df0;;0;e6f83f8b-044a-49f6-abea-da4796d20df0;52.3612302;6.5900002406394;Wierden;nl;Overijssel;Oost-Nederland;good;park and ride;1;75;0;0;1;1;Nederlandse Spoorwegen
3977;P+R Station Stedum, Stationstraat, Stedum (Loppersum);https://npropendata.rdw.nl//parkingdata/v2/static/3bde4800-6b71-483a-b6cf-56611d04c6e1;;0;3bde4800-6b71-483a-b6cf-56611d04c6e1;53.3263709;6.6881223;Loppersum;nl;Groningen;Noord-Nederland;good;park and ride;1;7;0;0;1;1;Nederlandse Spoorwegen
3979;P+R Station Zoetermeer (Zoetermeer);https://npropendata.rdw.nl//parkingdata/v2/static/e135ec83-e25e-45b1-8aea-4678cf483bdc;;0;e135ec83-e25e-45b1-8aea-4678cf483bdc;52.046749715421;4.4733600870746;Zoetermeer;nl;Zuid-Holland;Zuidwest-Nederland;good;park and ride;1;537;0;0;1;1;Nederlandse Spoorwegen
4006;P+R Station Uithuizermeeden (Uithuizermeeden);https://npropendata.rdw.nl//parkingdata/v2/static/e1f5c8b6-e8d2-4a2e-bbea-c5a6626fae4f;;0;e1f5c8b6-e8d2-4a2e-bbea-c5a6626fae4f;53.413988;6.7207392;Het Hogeland;nl;Groningen;Noord-Nederland;good;park and ride;1;30;1;0;1;1;Eemsmond
4009;P+R Elst, Nieuwe Aamsestraat Elst (Overbetuwe);https://npropendata.rdw.nl//parkingdata/v2/static/06f82af4-b67d-408a-9505-3f5d1ac9dc15;;0;06f82af4-b67d-408a-9505-3f5d1ac9dc15;51.916893;5.8553593987635;Overbetuwe;nl;Gelderland;Oost-Nederland;average;park and ride;1;0;1;0;1;1;Overbetuwe
4011;P + R station Veenendaal-De Klomp Noord;https://npropendata.rdw.nl//parkingdata/v2/static/8bfefa99-a526-4ce8-b4e0-236d6b19bb23;https://npropendata.rdw.nl//parkingdata/v2/dynamic/8bfefa99-a526-4ce8-b4e0-236d6b19bb23;0;8bfefa99-a526-4ce8-b4e0-236d6b19bb23;52.04588335;5.5755690929931;Ede;nl;Gelderland;Oost-Nederland;good;park and ride;1;281;1;0;1;1;Nederlandse Spoorwegen
4014;P+R Stationsstraat (Roosendaal);https://npropendata.rdw.nl//parkingdata/v2/static/9e45cd71-c7b7-4bbd-99d5-50ec58346a09;https://npropendata.rdw.nl//parkingdata/v2/dynamic/9e45cd71-c7b7-4bbd-99d5-50ec58346a09;1;9e45cd71-c7b7-4bbd-99d5-50ec58346a09;51.53872595;4.4565593957095;Roosendaal;nl;Noord-Brabant;Zuid-Nederland;good;park and ride;1;169;1;0;1;0;Q-Park Nederland BV
4016;P+R station Vlaardingen-Oost, Burg van Lierplein, Vlaardingen (Vlaardingen);https://npropendata.rdw.nl//parkingdata/v2/static/7b2516e0-f874-45ab-86d0-22a9e254c8cb;;0;7b2516e0-f874-45ab-86d0-22a9e254c8cb;51.909958884559;4.3594546077848;Vlaardingen;nl;Zuid-Holland;Zuidwest-Nederland;good;park and ride;1;30;0;0;1;1;Nederlandse Spoorwegen
4017;Nieuwerkerk aan den IJssel;https://npropendata.rdw.nl//parkingdata/v2/static/e857c561-8cd9-47f6-8f1e-2597dfb7df34;;0;e857c561-8cd9-47f6-8f1e-2597dfb7df34;51.9654935;4.6157106;Zuidplas;nl;Zuid-Holland;Zuidwest-Nederland;good;park and ride;1;64;1;0;1;1;Nederlandse Spoorwegen
4018;P+R Mareheiweg (Klimmen Ransdaal);https://npropendata.rdw.nl//parkingdata/v2/static/f7e4a75c-79a2-41c7-b12e-aa88bff379f1;;0;f7e4a75c-79a2-41c7-b12e-aa88bff379f1;50.8664646;5.8900912;Voerendaal;nl;Limburg;Zuid-Nederland;good;park and ride;1;10;1;0;1;1;Nederlandse Spoorwegen
4019;P + R station Breukelen ZO P1;https://npropendata.rdw.nl//parkingdata/v2/static/2c1cb38b-92ac-416c-a5a2-e3ee21d8180e;https://npropendata.rdw.nl//parkingdata/v2/dynamic/2c1cb38b-92ac-416c-a5a2-e3ee21d8180e;0;2c1cb38b-92ac-416c-a5a2-e3ee21d8180e;52.16948125;4.9914630850601;Stichtse Vecht;nl;Utrecht;Noordwest-Nederland;average;park and ride;1;200;0;0;1;0;Nederlandse Spoorwegen
4021;P + R staton Abcoude;https://npropendata.rdw.nl//parkingdata/v2/static/80e6904b-0183-46dc-9d75-5238487d89ad;https://npropendata.rdw.nl//parkingdata/v2/dynamic/80e6904b-0183-46dc-9d75-5238487d89ad;0;80e6904b-0183-46dc-9d75-5238487d89ad;52.2775135;4.9767222;De Ronde Venen;nl;Utrecht;Noordwest-Nederland;good;park and ride;1;50;0;0;1;1;Nederlandse Spoorwegen
4033;P+R Spijkenisse Heemraadlaan (Spijkenisse);https://npropendata.rdw.nl//parkingdata/v2/static/c25ca98b-8a68-4000-8d81-0e9ed50b8415;;0;c25ca98b-8a68-4000-8d81-0e9ed50b8415;51.8368691;4.3320600915358;Nissewaard;nl;Zuid-Holland;Zuidwest-Nederland;good;park and ride;1;245;1;0;1;1;Nissewaard
4034;P+R Station Geldrop (Geldrop);https://npropendata.rdw.nl//parkingdata/v2/static/c72a1c2c-f0ea-41c9-babf-c5725ef50a77;;0;c72a1c2c-f0ea-41c9-babf-c5725ef50a77;51.420545768187;5.5479732567253;Geldrop-Mierlo;nl;Noord-Brabant;Zuid-Nederland;good;park and ride;1;37;1;0;1;1;Geldrop-Mierlo
4040;P+R Station Voorburg 't Loo Sint Martinuslaan (Voorburg);https://npropendata.rdw.nl//parkingdata/v2/static/14a0ef4e-0425-445b-8da1-0a888d7c423b;;0;14a0ef4e-0425-445b-8da1-0a888d7c423b;52.0816192;4.3662825542871;Leidschendam-Voorburg;nl;Zuid-Holland;Zuidwest-Nederland;good;park and ride;1;50;1;0;1;1;Leidschendam-Voorburg
4041;P+R Station Den Haag Mariahoeve (Voorburg);https://npropendata.rdw.nl//parkingdata/v2/static/4d142fad-9ac7-4c12-98fa-9daefc3b57cd;;0;4d142fad-9ac7-4c12-98fa-9daefc3b57cd;52.0906728;4.3703546647034;Leidschendam-Voorburg;nl;Zuid-Holland;Zuidwest-Nederland;good;park and ride;1;212;1;0;1;1;Leidschendam-Voorburg
4045;P+R Rodenrijs (Berkel en Rodenrijs);https://npropendata.rdw.nl//parkingdata/v2/static/6ed0c121-0be9-4922-a2f1-29a1aa0fe99a;;0;6ed0c121-0be9-4922-a2f1-29a1aa0fe99a;51.97535815;4.4600846239931;Lansingerland;nl;Zuid-Holland;Zuidwest-Nederland;good;park and ride;1;127;1;0;1;1;Lansingerland
4047;P+R Stationsweg (Anna Paulowna);https://npropendata.rdw.nl//parkingdata/v2/static/282521fc-7b8a-4f13-b46b-929daa4e575d;;0;282521fc-7b8a-4f13-b46b-929daa4e575d;52.8676074;4.811433;Hollands Kroon;nl;Noord-Holland;Noordwest-Nederland;good;park and ride;1;110;1;0;1;1;Hollands Kroon
4088;P+R Spijkenisse Heemraadlaan Noordzijde (Spijkenisse);https://npropendata.rdw.nl//parkingdata/v2/static/3edd48f5-712a-4382-bdf0-3808ad5a1a39;;0;3edd48f5-712a-4382-bdf0-3808ad5a1a39;51.8406396;4.3314537;Nissewaard;nl;Zuid-Holland;Zuidwest-Nederland;good;park and ride;1;121;1;0;1;1;Nissewaard
4108;Carpool parkeren Elst A325, Sillestraat Elst (Overbetuwe);https://npropendata.rdw.nl//parkingdata/v2/static/20b024d7-933c-46a0-99ef-e35f7d78e62c;;0;20b024d7-933c-46a0-99ef-e35f7d78e62c;51.914439816208;5.8765918201384;Overbetuwe;nl;Gelderland;Oost-Nederland;good;park and ride;1;42;1;0;1;1;Overbetuwe
4109;P+R Stationsstraat (Susteren);https://npropendata.rdw.nl//parkingdata/v2/static/23703a32-e280-4265-97d3-dc82c40e92e1;;0;23703a32-e280-4265-97d3-dc82c40e92e1;51.059035757354;5.8626550599315;Susteren;nl;Limburg;Zuid-Nederland;good;park and ride;1;62;1;0;1;1;Nederlandse Spoorwegen
4125;P+R Garage Olympisch Stadion (Amsterdam);https://npropendata.rdw.nl//parkingdata/v2/static/840dccf1-bb44-4a73-971c-f2f60e7ab289;;0;840dccf1-bb44-4a73-971c-f2f60e7ab289;52.34463915;4.8552883790768;Amsterdam;nl;Noord-Holland;Noordwest-Nederland;good;park and ride;1;350;0;2;1;1;P1
4126;P+R Schin op Geul;https://npropendata.rdw.nl//parkingdata/v2/static/7d08a866-d54f-47fa-b4c4-559df36dd781;;0;7d08a866-d54f-47fa-b4c4-559df36dd781;50.855710351508;5.8741500656783;Schin op Geul;nl;Limburg;Zuid-Nederland;good;park and ride;1;48;1;0;1;1;Valkenburg aan de Geul
4129;P+R, Station Dronrijp, Hatzum, Dronrijp (Menameradiel);https://npropendata.rdw.nl//parkingdata/v2/static/9cbfc38d-eec8-4b0b-9a29-cffd1f3540be;;0;9cbfc38d-eec8-4b0b-9a29-cffd1f3540be;53.1778137;5.6343602;Waadhoeke;nl;Fryslân;Noord-Nederland;good;park and ride;1;20;1;0;1;1;Nederlandse Spoorwegen
4132;P+R Station Maarssen (Maarssen);https://npropendata.rdw.nl//parkingdata/v2/static/e8fbd500-4942-4ac7-bfce-7ad597078b9b;;0;e8fbd500-4942-4ac7-bfce-7ad597078b9b;52.13684005;5.0309607344062;Stichtse Vecht;nl;Utrecht;Noordwest-Nederland;good;park and ride;1;59;1;0;1;1;Stichtse Vecht
4198;P+R Doortocht (Nieuwerkerk aan den Ijssel);https://npropendata.rdw.nl//parkingdata/v2/static/998de38c-4a38-4237-877e-253d92e47f37;;0;998de38c-4a38-4237-877e-253d92e47f37;51.9666827;4.6178672;Zuidplas;nl;Zuid-Holland;Zuidwest-Nederland;good;park and ride;1;145;1;0;1;1;UNKNOWN
4199;P+R Kleinpolderlaan (Nieuwerkerk aan den Ijssel);https://npropendata.rdw.nl//parkingdata/v2/static/b3bebfd4-2bb3-43db-8e2f-26dfbe870a58;;0;b3bebfd4-2bb3-43db-8e2f-26dfbe870a58;51.965660029648;4.6181635885366;Zuidplas;nl;Zuid-Holland;Zuidwest-Nederland;good;park and ride;1;96;1;0;1;1;UNKNOWN
