id;name;staticDataUrl;dynamicDataUrl;limitedAccess;uuid;latitude;longitude;city;country_code;province;region;mark;usage;accessPoints;capacity;contactPersons;minimumHeightInMeters;openingTimes;tariffs;Operator
7;Carpool Fivellaan (Delfzijl);https://npropendata.rdw.nl//parkingdata/v2/static/170189ef-125c-4c75-9d8c-2567ae3ba149;;0;170189ef-125c-4c75-9d8c-2567ae3ba149;53.327493783867;6.9005249030175;Delfzijl;nl;Groningen;Noord-Nederland;good;carpool;1;18;1;2.1;1;1;Delfzijl
15;parkeergarage Boterdiep;https://npropendata.rdw.nl//parkingdata/v2/static/16779e5b-974d-482e-b110-96aee7a4c029;;1;16779e5b-974d-482e-b110-96aee7a4c029;53.2253125;6.562979;Groningen;nl;Groningen;Noord-Nederland;good;garage;1;1040;1;2;1;1;Groningen
42;parkeergarage Circus;https://npropendata.rdw.nl//parkingdata/v2/static/d43d1e38-d824-4ce2-a20b-3b148e45123d;;1;d43d1e38-d824-4ce2-a20b-3b148e45123d;53.227035;6.5621056;Groningen;nl;Groningen;Noord-Nederland;good;garage;1;300;1;1.9;1;1;Groningen
43;parkeergarage Euroborg;https://npropendata.rdw.nl//parkingdata/v2/static/dfda01b6-aeec-4b74-a9fe-434a2d62dd87;;0;dfda01b6-aeec-4b74-a9fe-434a2d62dd87;53.20622745;6.5904894486795;Groningen;nl;Groningen;Noord-Nederland;good;garage;1;2149;1;1.9;1;1;Groningen
44;parkeergarage Damsterdiep;https://npropendata.rdw.nl//parkingdata/v2/static/f8bedaec-2160-42c9-a121-a7ee67effd1b;;1;f8bedaec-2160-42c9-a121-a7ee67effd1b;53.2184757;6.5778489;Groningen;nl;Groningen;Noord-Nederland;good;garage;1;514;1;2.05;1;1;Groningen
46;parkeergarage Station Europapark;https://npropendata.rdw.nl//parkingdata/v2/static/76825e73-4c8d-4a9c-9061-6284afcd865c;https://opendata.technolution.nl/opendata/parkingdata/v1/dynamic/76825e73-4c8d-4a9c-9061-6284afcd865c;1;76825e73-4c8d-4a9c-9061-6284afcd865c;53.2052506;6.585899854809;Groningen;nl;Groningen;Noord-Nederland;good;garage;1;216;1;2.05;1;1;Groningen
52;Cubagarage;https://npropendata.rdw.nl//parkingdata/v2/static/2aed2095-5bc2-480d-b4cf-f1581884f4d6;;0;2aed2095-5bc2-480d-b4cf-f1581884f4d6;52.39376495;5.2764414526221;Almere;nl;Flevoland;Noordwest-Nederland;good;garage;1;209;1;1.9;1;1;Almere
56;P03 Regisseurgarage;https://npropendata.rdw.nl//parkingdata/v2/static/f914b954-5e4c-4b25-859f-d775e4c473f5;http://opd.it-t.nl/Data/parkingdata/v1/almere/dynamic/f914b954-5e4c-4b25-859f-d775e4c473f5.json;0;f914b954-5e4c-4b25-859f-d775e4c473f5;52.373349;5.2213808784393;Almere;nl;Flevoland;Noordwest-Nederland;good;garage;1;445;1;1.9;1;1;Almere
59;P12 Schoutgarage;https://npropendata.rdw.nl//parkingdata/v2/static/883bccff-15c5-46e8-bc2e-60599b54f10f;http://opd.it-t.nl/Data/parkingdata/v1/almere/dynamic/883bccff-15c5-46e8-bc2e-60599b54f10f.json;0;883bccff-15c5-46e8-bc2e-60599b54f10f;52.3741107;5.2180409;Almere;nl;Flevoland;Noordwest-Nederland;good;garage;1;350;1;1.9;1;1;Almere
60;P02 Metropolegarage;https://npropendata.rdw.nl//parkingdata/v2/static/e4f778ec-4db9-474a-af7a-520ea373912f;http://opd.it-t.nl/Data/parkingdata/v1/almere/dynamic/e4f778ec-4db9-474a-af7a-520ea373912f.json;0;e4f778ec-4db9-474a-af7a-520ea373912f;52.37394475;5.2211400972909;Almere;nl;Flevoland;Noordwest-Nederland;good;garage;1;414;1;1.9;1;1;Almere
61;Floridagarage (Almere Buiten);https://npropendata.rdw.nl//parkingdata/v2/static/4ce5abce-08f9-4b79-880a-132355273f2f;;0;4ce5abce-08f9-4b79-880a-132355273f2f;52.3934861;5.276028;Almere;nl;Flevoland;Noordwest-Nederland;good;garage;1;415;1;1.9;1;1;Almere
62;P04 Stadhuisgarage;https://npropendata.rdw.nl//parkingdata/v2/static/98ad5f41-d8c5-48ff-b205-c30be826d981;http://opd.it-t.nl/Data/parkingdata/v1/almere/dynamic/98ad5f41-d8c5-48ff-b205-c30be826d981.json;0;98ad5f41-d8c5-48ff-b205-c30be826d981;52.3719709;5.2238309;Almere;nl;Flevoland;Noordwest-Nederland;good;garage;1;262;1;2.2;1;1;Almere
64;P11 Leerlinggarage;https://npropendata.rdw.nl//parkingdata/v2/static/b8513bb2-460a-4f07-adee-66d1ae4ac909;http://opd.it-t.nl/Data/parkingdata/v1/almere/dynamic/b8513bb2-460a-4f07-adee-66d1ae4ac909.json;0;b8513bb2-460a-4f07-adee-66d1ae4ac909;52.37122415;5.21475055519;Almere;nl;Flevoland;Noordwest-Nederland;good;garage;1;99;1;1.9;1;1;Almere
65;P05 Hennepveld Parkeerterrein;https://npropendata.rdw.nl//parkingdata/v2/static/c3159e2b-cbc7-4547-b9f2-664be064931a;http://opd.it-t.nl/Data/parkingdata/v1/almere/dynamic/c3159e2b-cbc7-4547-b9f2-664be064931a.json;0;c3159e2b-cbc7-4547-b9f2-664be064931a;52.3697332;5.225258864198;Almere;nl;Flevoland;Noordwest-Nederland;good;terrain;1;313;1;2;1;1;Almere
66;P06 Hospitaalgarage;https://npropendata.rdw.nl//parkingdata/v2/static/16b75fd7-9296-4b7b-a58a-4fb92e1f2e8a;http://opd.it-t.nl/Data/parkingdata/v1/almere/dynamic/16b75fd7-9296-4b7b-a58a-4fb92e1f2e8a.json;0;16b75fd7-9296-4b7b-a58a-4fb92e1f2e8a;52.36888185;5.2209866761674;Almere;nl;Flevoland;Noordwest-Nederland;good;garage;1;886;1;2.1;1;1;Almere
68;P09 Krakelinggarage;https://npropendata.rdw.nl//parkingdata/v2/static/7895429d-3cda-4b0a-ad1e-321d0675a377;http://opd.it-t.nl/Data/parkingdata/v1/almere/dynamic/7895429d-3cda-4b0a-ad1e-321d0675a377.json;0;7895429d-3cda-4b0a-ad1e-321d0675a377;52.369734225831;5.2174532470652;Almere;nl;Flevoland;Noordwest-Nederland;good;garage;1;230;1;2;1;1;Almere
69;P07 Schippergarage;https://npropendata.rdw.nl//parkingdata/v2/static/d08e3df2-ed0e-4fb8-b784-83429a65d4c2;http://opd.it-t.nl/Data/parkingdata/v1/almere/dynamic/d08e3df2-ed0e-4fb8-b784-83429a65d4c2.json;0;d08e3df2-ed0e-4fb8-b784-83429a65d4c2;52.3685442;5.2175417;Almere;nl;Flevoland;Noordwest-Nederland;good;garage;1;408;1;2;1;1;Almere
71;P08 Flevogarage;https://npropendata.rdw.nl//parkingdata/v2/static/78eead8f-16d0-4438-899b-328c4c382619;http://opd.it-t.nl/Data/parkingdata/v1/almere/dynamic/78eead8f-16d0-4438-899b-328c4c382619.json;0;78eead8f-16d0-4438-899b-328c4c382619;52.36955295;5.2167688778016;Almere;nl;Flevoland;Noordwest-Nederland;good;garage;1;353;1;1.9;1;1;Almere
74;Santiagogarage;https://npropendata.rdw.nl//parkingdata/v2/static/b5f7d2b2-055c-4884-86bf-4c872a6b6bba;;0;b5f7d2b2-055c-4884-86bf-4c872a6b6bba;52.3945148;5.2794507666495;Almere;nl;Flevoland;Noordwest-Nederland;good;garage;1;334;1;1.9;1;1;Almere
151;Garage Willinkplein (Emmen);https://npropendata.rdw.nl//parkingdata/v2/static/089c475c-4403-4c91-8479-403e53159584;;0;089c475c-4403-4c91-8479-403e53159584;52.781815;6.8931845;Emmen;nl;Drenthe;Noord-Nederland;good;garage;1;853;1;1.95;1;1;Emmen
179;P-Klanderij;https://npropendata.rdw.nl//parkingdata/v2/static/14f1046d-1fda-4081-883b-d6a8a2ad937d;http://opendata.technolution.nl/opendata/parkingdata/v1/dynamic/14f1046d-1fda-4081-883b-d6a8a2ad937d;0;14f1046d-1fda-4081-883b-d6a8a2ad937d;53.197721;5.7980865803133;Leeuwarden;nl;Fryslân;Noord-Nederland;good;garage;1;625;1;2;1;1;Leeuwarden
184;P-Oldehove;https://npropendata.rdw.nl//parkingdata/v2/static/c0bc471b-86b3-4d80-b62f-1d88101096b2;http://opendata.technolution.nl/opendata/parkingdata/v1/dynamic/c0bc471b-86b3-4d80-b62f-1d88101096b2;0;c0bc471b-86b3-4d80-b62f-1d88101096b2;53.2032743;5.7898589;Leeuwarden;nl;Fryslân;Noord-Nederland;good;garage;1;525;1;2.2;1;1;Leeuwarden
185;Garage Raadhuisplein (Drachten);https://npropendata.rdw.nl//parkingdata/v2/static/0c7604bc-1cd5-442c-b729-99733dd37466;;0;0c7604bc-1cd5-442c-b729-99733dd37466;53.10531610108;6.1011762591295;Smallingerland;nl;Fryslân;Noord-Nederland;good;garage;1;225;1;2.1;1;1;Smallingerland
186;P-Zaailand;https://npropendata.rdw.nl//parkingdata/v2/static/80d26cc5-1210-4bdf-beb4-0602f35bdccc;http://opendata.technolution.nl/opendata/parkingdata/v1/dynamic/80d26cc5-1210-4bdf-beb4-0602f35bdccc;0;80d26cc5-1210-4bdf-beb4-0602f35bdccc;53.19893625;5.7937077972096;Leeuwarden;nl;Fryslân;Noord-Nederland;good;garage;1;720;1;2.1;1;1;Leeuwarden
226;P-Hoeksterend;https://npropendata.rdw.nl//parkingdata/v2/static/a03c3613-6fed-4659-906f-17843c227622;http://opendata.technolution.nl/opendata/parkingdata/v1/dynamic/a03c3613-6fed-4659-906f-17843c227622;0;a03c3613-6fed-4659-906f-17843c227622;53.2058312;5.8020039358694;Leeuwarden;nl;Fryslân;Noord-Nederland;good;garage;1;390;1;2.1;1;1;Leeuwarden
265;Garage Stadserf P1 (Almelo);https://npropendata.rdw.nl//parkingdata/v2/static/239e3b72-927d-4be6-b5d1-e6f54e90c4e6;;0;239e3b72-927d-4be6-b5d1-e6f54e90c4e6;52.35627625;6.6656780975107;Almelo;nl;Overijssel;Oost-Nederland;good;garage;1;89;1;2.1;1;1;Almelo
267;Garage Stadserf P2 (Almelo);https://npropendata.rdw.nl//parkingdata/v2/static/fe6179c6-ac58-4bb2-8e71-9cbdd7f49872;;0;fe6179c6-ac58-4bb2-8e71-9cbdd7f49872;52.35627625;6.6656780975107;Almelo;nl;Overijssel;Oost-Nederland;good;garage;1;72;1;2.1;1;1;Almelo
275;Garage Westerstraat (Emmen);https://npropendata.rdw.nl//parkingdata/v2/static/dca90cbe-5196-46f1-aba0-14c2aed76a31;;0;dca90cbe-5196-46f1-aba0-14c2aed76a31;52.786303217363;6.8923126684497;Emmen;nl;Drenthe;Noord-Nederland;good;garage;1;460;1;2.2;1;1;Emmen
290;Garage Oosterborgh P5 (Almelo);https://npropendata.rdw.nl//parkingdata/v2/static/b18b91a9-0802-4fb6-8687-ccb87589a726;;0;b18b91a9-0802-4fb6-8687-ccb87589a726;52.3614285;6.6705746;Almelo;nl;Overijssel;Oost-Nederland;good;garage;1;101;1;2.1;1;1;Almelo
291;P&R Javapark P12 (Almelo);https://npropendata.rdw.nl//parkingdata/v2/static/e47e886b-3838-4955-9c45-edebd5bf3032;;0;e47e886b-3838-4955-9c45-edebd5bf3032;52.35852295;6.6549650633922;Almelo;nl;Overijssel;Oost-Nederland;good;park and ride;1;345;1;2.1;1;1;Almelo
292;Garage Havenpassage Dek P14 (Almelo);https://npropendata.rdw.nl//parkingdata/v2/static/5ca6508f-4540-45b3-8c93-7a1a65526519;;0;5ca6508f-4540-45b3-8c93-7a1a65526519;52.35627625;6.6656780975107;Almelo;nl;Overijssel;Oost-Nederland;good;garage;1;176;1;2.1;1;1;Almelo
301;Garage Stadserf P3 (Almelo);https://npropendata.rdw.nl//parkingdata/v2/static/aa21d5af-cafa-4c77-a27e-d020e5eee405;;0;aa21d5af-cafa-4c77-a27e-d020e5eee405;52.35627625;6.6656780975107;Almelo;nl;Overijssel;Oost-Nederland;good;garage;1;269;1;2;1;1;Almelo
304;P&R Zuiderval;https://npropendata.rdw.nl//parkingdata/v2/static/618afa54-e882-4c12-916c-f223cc9c4e4a;;0;618afa54-e882-4c12-916c-f223cc9c4e4a;52.2037107;6.8913669145454;Enschede;nl;Overijssel;Oost-Nederland;good;park and ride;1;225;1;3.8;1;1;Enschede
305;Parkeergarage Van Heek;https://npropendata.rdw.nl//parkingdata/v2/static/1a39c8e9-91f9-40d9-bdf3-ce1f6e438a14;http://opd.it-t.nl/Data/parkingdata/v1/twente/dynamic/1a39c8e9-91f9-40d9-bdf3-ce1f6e438a14.json;0;1a39c8e9-91f9-40d9-bdf3-ce1f6e438a14;52.216915648586;6.9011979267887;Enschede;nl;Overijssel;Oost-Nederland;good;garage;1;1700;1;2.1;1;1;Enschede
317;Garage Keyserstroom (Meppel);https://npropendata.rdw.nl//parkingdata/v2/static/f73f6479-796b-4eb7-b415-8986eec54c7a;;0;f73f6479-796b-4eb7-b415-8986eec54c7a;52.69965705;6.1899243221142;Meppel;nl;Drenthe;Noord-Nederland;good;garage;1;300;1;2.1;1;1;Meppel
343;Garage StadsBaken P9 (Almelo);https://npropendata.rdw.nl//parkingdata/v2/static/ce7e6b6b-7465-4112-b47c-2b7e4eb416e3;;0;ce7e6b6b-7465-4112-b47c-2b7e4eb416e3;52.35627625;6.6656780975107;Almelo;nl;Overijssel;Oost-Nederland;good;garage;1;373;1;2.1;1;1;Almelo
356;Garage Centrum/Theater (Hardenberg);https://npropendata.rdw.nl//parkingdata/v2/static/2dff9aa8-17a0-4806-93a0-058592f7ee31;;0;2dff9aa8-17a0-4806-93a0-058592f7ee31;52.5766776;6.6169049526226;Hardenberg;nl;Overijssel;Oost-Nederland;good;garage;1;274;1;2.1;1;1;Hardenberg
380;Garage De Bijenkorf (Borne);https://npropendata.rdw.nl//parkingdata/v2/static/07819522-d81b-47d3-bea1-3c2f7157f79d;;0;07819522-d81b-47d3-bea1-3c2f7157f79d;52.3029998;6.7573249;Borne;nl;Overijssel;Oost-Nederland;good;garage;1;147;1;2.1;1;1;Borne
382;Parkeergarage Statiom;https://npropendata.rdw.nl//parkingdata/v2/static/51e760d1-9c5b-479b-bede-b31cd56911d0;;0;51e760d1-9c5b-479b-bede-b31cd56911d0;52.22146255;6.8922035113854;Enschede;nl;Overijssel;Oost-Nederland;good;garage;1;335;1;2;1;1;Enschede
408;Parkeergarage Pas de Deux (Zwolle);https://npropendata.rdw.nl//parkingdata/v2/static/a2bc4ea0-a218-4a59-a328-36fb8234402b;http://opd.it-t.nl/Data/parkingdata/v1/zwolle/dynamic/a2bc4ea0-a218-4a59-a328-36fb8234402b.json;0;a2bc4ea0-a218-4a59-a328-36fb8234402b;52.5032833;6.0923063467622;Zwolle;nl;Overijssel;Oost-Nederland;good;garage;1;204;1;2;1;1;Zwolle
409;Parkeergarage Diezerpoort (Zwolle);https://npropendata.rdw.nl//parkingdata/v2/static/68d5fcce-596d-4f6d-97d5-e67f6f644ac7;http://opd.it-t.nl/Data/parkingdata/v1/zwolle/dynamic/68d5fcce-596d-4f6d-97d5-e67f6f644ac7.json;0;68d5fcce-596d-4f6d-97d5-e67f6f644ac7;52.5174019;6.1004676;Zwolle;nl;Overijssel;Oost-Nederland;good;garage;1;611;1;1.9;1;1;Zwolle
410;Parkeergarage Stadspoort - Dek;https://npropendata.rdw.nl//parkingdata/v2/static/e3b7e292-ef14-43c9-96fb-85ab7b08ef09;https://opendata.technolution.nl/opendata/parkingdata/v1/dynamic/e3b7e292-ef14-43c9-96fb-85ab7b08ef09;0;e3b7e292-ef14-43c9-96fb-85ab7b08ef09;52.2563701;6.1520909;Deventer;nl;Overijssel;Oost-Nederland;good;garage;1;89;1;1.9;1;1;Deventer
411;Parkeergarage Mooienhof;https://npropendata.rdw.nl//parkingdata/v2/static/480c50ad-2ef0-48df-8dbc-d2c8552151fd;http://opd.it-t.nl/Data/parkingdata/v1/twente/dynamic/480c50ad-2ef0-48df-8dbc-d2c8552151fd.json;0;480c50ad-2ef0-48df-8dbc-d2c8552151fd;52.2165914;6.8974765;Enschede;nl;Overijssel;Oost-Nederland;good;garage;1;100;1;2.1;1;1;Enschede
412;Parkeergarage Irene;https://npropendata.rdw.nl//parkingdata/v2/static/824a6cd5-acd4-4d88-893e-d38aa1fc5116;http://opd.it-t.nl/Data/parkingdata/v1/twente/dynamic/824a6cd5-acd4-4d88-893e-d38aa1fc5116.json;0;824a6cd5-acd4-4d88-893e-d38aa1fc5116;52.222430393661;6.898198576302;Enschede;nl;Overijssel;Oost-Nederland;good;garage;1;525;1;2;1;1;Enschede
414;Parkeergarage Katwoldeplein (Zwolle);https://npropendata.rdw.nl//parkingdata/v2/static/92649a4d-67f8-4148-abc5-82cc95dedba3;http://opd.it-t.nl/Data/parkingdata/v1/zwolle/dynamic/92649a4d-67f8-4148-abc5-82cc95dedba3.json;0;92649a4d-67f8-4148-abc5-82cc95dedba3;52.5141685;6.0864307;Zwolle;nl;Overijssel;Oost-Nederland;good;garage;1;700;1;2.1;1;1;Zwolle
415;Brink garage;https://npropendata.rdw.nl//parkingdata/v2/static/186af3cc-3ebe-40b1-a807-72f98dbc94f7;https://opendata.technolution.nl/opendata/parkingdata/v1/dynamic/186af3cc-3ebe-40b1-a807-72f98dbc94f7;0;186af3cc-3ebe-40b1-a807-72f98dbc94f7;52.24989235;6.1597063024324;Deventer;nl;Overijssel;Oost-Nederland;good;garage;1;293;1;2;1;1;Deventer
439;Garage Centrum/Gemeentehuis (Hardenberg);https://npropendata.rdw.nl//parkingdata/v2/static/d38e6eea-4295-45d9-b4a0-f944cb5e15fd;;0;d38e6eea-4295-45d9-b4a0-f944cb5e15fd;52.573550871608;6.6200128918227;Hardenberg;nl;Overijssel;Oost-Nederland;good;garage;1;459;1;2;1;1;Hardenberg
446;Parkeergarage Emmawijk - Dek (Zwolle);https://npropendata.rdw.nl//parkingdata/v2/static/2d8e6321-7108-4763-ba53-5d107ff6e674;http://opd.it-t.nl/Data/parkingdata/v1/zwolle/dynamic/2d8e6321-7108-4763-ba53-5d107ff6e674.json;0;2d8e6321-7108-4763-ba53-5d107ff6e674;52.509149031094;6.0863958905997;Zwolle;nl;Overijssel;Oost-Nederland;good;garage;1;100;1;2;1;1;Zwolle
449;Parkeergarage Noordereiland - Dek (Zwolle);https://npropendata.rdw.nl//parkingdata/v2/static/ff27bae8-ce05-40c6-8422-03da3bd7d9e1;http://opd.it-t.nl/Data/parkingdata/v1/zwolle/dynamic/ff27bae8-ce05-40c6-8422-03da3bd7d9e1.json;0;ff27bae8-ce05-40c6-8422-03da3bd7d9e1;52.51552;6.0956106;Zwolle;nl;Overijssel;Oost-Nederland;good;garage;1;330;1;1.9;1;1;Zwolle
450;Parkeergarage Lübeckplein (Zwolle);https://npropendata.rdw.nl//parkingdata/v2/static/9e43035c-6707-4b47-a263-d62f0c5d5f84;http://opd.it-t.nl/Data/parkingdata/v1/zwolle/dynamic/9e43035c-6707-4b47-a263-d62f0c5d5f84.json;0;9e43035c-6707-4b47-a263-d62f0c5d5f84;52.5037066;6.0884284;Zwolle;nl;Overijssel;Oost-Nederland;good;garage;1;385;1;2;1;1;Zwolle
468;Garage Het Schip (Raalte);https://npropendata.rdw.nl//parkingdata/v2/static/dddfc251-ff9c-473d-9728-1a6eb4f2981f;;0;dddfc251-ff9c-473d-9728-1a6eb4f2981f;52.3851391;6.2768969;Raalte;nl;Overijssel;Oost-Nederland;good;garage;1;154;1;2.05;1;1;Raalte
471;Garage Musis;https://npropendata.rdw.nl//parkingdata/v2/static/5c584761-6bc2-453b-85e4-e67d7d952543;http://opd.it-t.nl/Data/parkingdata/v1/arnhem/dynamic/5c584761-6bc2-453b-85e4-e67d7d952543.json;0;5c584761-6bc2-453b-85e4-e67d7d952543;51.9842465;5.9123701;Arnhem;nl;Gelderland;Oost-Nederland;good;garage;1;690;1;2;0;1;Arnhem
494;Carpool Barneveld A30 (Terschuur);https://npropendata.rdw.nl//parkingdata/v2/static/1f044780-d739-49b1-b56a-995d6606ec05;;0;1f044780-d739-49b1-b56a-995d6606ec05;52.16815625;5.5645801753817;Barneveld;nl;Gelderland;Oost-Nederland;good;carpool;1;52;1;3.1;1;1;Barneveld
563;Garage P11 Vuldersbrink (Harderwijk);https://npropendata.rdw.nl//parkingdata/v2/static/b2ef972b-d8e8-4044-9a58-2223dace7c87;https://opendata.technolution.nl/opendata/parkingdata/v1/dynamic/b2ef972b-d8e8-4044-9a58-2223dace7c87;0;b2ef972b-d8e8-4044-9a58-2223dace7c87;52.3499306;5.6215431;Harderwijk;nl;Gelderland;Oost-Nederland;good;garage;1;85;1;2;1;1;Harderwijk
578;Carpool Heumen A73 (Heumen);https://npropendata.rdw.nl//parkingdata/v2/static/ea5265e6-6af6-4a58-8c6a-5f2807010652;;0;ea5265e6-6af6-4a58-8c6a-5f2807010652;51.7677865;5.835554;Heumen;nl;Gelderland;Oost-Nederland;good;carpool;1;48;1;2.1;1;1;Heumen
614;Garage Houtwal (Harderwijk);https://npropendata.rdw.nl//parkingdata/v2/static/ba951d66-5587-4874-bc96-68a0edd5bd62;https://opendata.technolution.nl/opendata/parkingdata/v1/dynamic/ba951d66-5587-4874-bc96-68a0edd5bd62;0;ba951d66-5587-4874-bc96-68a0edd5bd62;52.348135628552;5.6204018980543;Harderwijk;nl;Gelderland;Oost-Nederland;good;garage;1;450;1;2.1;1;1;Harderwijk
628;Transferium Heerde Horsthoek (Heerde);https://npropendata.rdw.nl//parkingdata/v2/static/86b91496-2b33-474b-aad4-019a7f15443f;;0;86b91496-2b33-474b-aad4-019a7f15443f;52.3708394;6.0220538003412;Heerde;nl;Gelderland;Oost-Nederland;good;park and ride;1;160;1;3;1;1;Heerde
635;Garage Rozet;https://npropendata.rdw.nl//parkingdata/v2/static/0cc34898-fc5d-4879-98e9-2a823b390b06;http://opd.it-t.nl/Data/parkingdata/v1/arnhem/dynamic/0cc34898-fc5d-4879-98e9-2a823b390b06.json;0;0cc34898-fc5d-4879-98e9-2a823b390b06;51.9795204;5.9059975;Arnhem;nl;Gelderland;Oost-Nederland;good;garage;1;450;1;2;0;1;Arnhem
640;Carpool afrit 19 Hoenderloo (A1);https://npropendata.rdw.nl//parkingdata/v2/static/f68c65c7-8928-4455-b6c1-5ea6b44b7bae;;0;f68c65c7-8928-4455-b6c1-5ea6b44b7bae;52.184817522073;5.9157839112672;Apeldoorn;nl;Gelderland;Oost-Nederland;good;carpool;1;30;1;2.1;1;1;Apeldoorn
641;Terrein Molenpoortdak (Nijmegen);https://npropendata.rdw.nl//parkingdata/v2/static/60bf0e76-d3bf-42d1-b7a0-04f0ab048e9d;http://opendata.technolution.nl/opendata/parkingdata/v1/dynamic/60bf0e76-d3bf-42d1-b7a0-04f0ab048e9d;0;60bf0e76-d3bf-42d1-b7a0-04f0ab048e9d;51.8438445;5.8639646;Nijmegen;nl;Gelderland;Oost-Nederland;good;terrain;1;350;1;2.4;1;1;Nijmegen
642;Garage Catharina (Doetinchem);https://npropendata.rdw.nl//parkingdata/v2/static/41db81b2-3d89-4e28-adb1-0d929b9e4b05;;0;41db81b2-3d89-4e28-adb1-0d929b9e4b05;51.9670467;6.2893978;Doetinchem;nl;Gelderland;Oost-Nederland;good;garage;1;190;1;2;1;1;Doetinchem
649;Garage Amphion (Doetinchem);https://npropendata.rdw.nl//parkingdata/v2/static/63668753-8a52-4660-8b89-f2cd097bd994;;0;63668753-8a52-4660-8b89-f2cd097bd994;51.9690414;6.2872317133144;Doetinchem;nl;Gelderland;Oost-Nederland;good;garage;1;396;1;2.1;1;1;Doetinchem
659;Carpool Harderwijk A28/N302 (Harderwijk);https://npropendata.rdw.nl//parkingdata/v2/static/ff3472fb-7151-4fee-a1e8-2cf5bab13c00;;0;ff3472fb-7151-4fee-a1e8-2cf5bab13c00;52.334973;5.6412543;Harderwijk;nl;Gelderland;Oost-Nederland;good;carpool;1;150;1;2.5;1;1;Harderwijk
692;P6 Parkeergarage Eiermarkt;https://npropendata.rdw.nl//parkingdata/v2/static/84af4dc6-992d-40dd-a6e1-a1900ea7961f;http://opendata.technolution.nl/opendata/parkingdata/v1/dynamic/84af4dc6-992d-40dd-a6e1-a1900ea7961f;0;84af4dc6-992d-40dd-a6e1-a1900ea7961f;51.8474575;5.8666148;Nijmegen;nl;Gelderland;Oost-Nederland;good;garage;1;350;1;1.9;1;1;Nijmegen
700;P3 Parkeergarage Kelfkensbos;https://npropendata.rdw.nl//parkingdata/v2/static/ffab40f6-4a10-41f2-9cc1-b9c2879d8c37;http://opendata.technolution.nl/opendata/parkingdata/v1/dynamic/ffab40f6-4a10-41f2-9cc1-b9c2879d8c37;0;ffab40f6-4a10-41f2-9cc1-b9c2879d8c37;51.84654605;5.8701012451423;Nijmegen;nl;Gelderland;Oost-Nederland;good;garage;1;600;1;1.9;1;1;Nijmegen
722;Garage Masiusplein (Zevenaar);https://npropendata.rdw.nl//parkingdata/v2/static/6ea76af6-0df3-4f41-868f-67014e78dc72;;0;6ea76af6-0df3-4f41-868f-67014e78dc72;51.9270358;6.073922874479;Zevenaar;nl;Gelderland;Oost-Nederland;good;garage;1;340;1;2.05;1;1;Zevenaar
734;Vaartsche Rijn;https://npropendata.rdw.nl//parkingdata/v2/static/72fa9c34-5ed4-49b9-a08a-5602eaaad45e;;0;72fa9c34-5ed4-49b9-a08a-5602eaaad45e;52.0781892;5.1233453729727;Utrecht;nl;Utrecht;Noordwest-Nederland;good;garage;1;224;1;2.1;1;1;Utrecht
769;Parkeergarage De Singel;https://npropendata.rdw.nl//parkingdata/v2/static/35f15232-94ef-49e8-b482-e711f292ce34;;1;35f15232-94ef-49e8-b482-e711f292ce34;52.6281756;4.7367582128046;Alkmaar;nl;Noord-Holland;Noordwest-Nederland;good;garage;1;396;1;2;1;1;Alkmaar
811;Garage P2 Bomengarage (Amsterdam);https://npropendata.rdw.nl//parkingdata/v2/static/3f96205f-e329-4d4b-ab37-e6845608260e;;0;3f96205f-e329-4d4b-ab37-e6845608260e;52.3994583;4.9395943;Amsterdam;nl;Noord-Holland;Noordwest-Nederland;good;garage;1;448;1;2.1;1;1;Amsterdam
814;Garage P6 Pathé ArenA/Uitgaansdriehoek (Amsterdam);https://npropendata.rdw.nl//parkingdata/v2/static/adb5f897-61ad-4314-8838-bc4ac4b01f42;;0;adb5f897-61ad-4314-8838-bc4ac4b01f42;52.3117469;4.9457020625789;Amsterdam;nl;Noord-Holland;Noordwest-Nederland;good;garage;1;399;1;2;1;1;Amsterdam
817;P+R Bos en Lommer (Amsterdam);https://npropendata.rdw.nl//parkingdata/v2/static/ff69524b-a4b1-4c65-85c1-b45c2ce5b144;;0;ff69524b-a4b1-4c65-85c1-b45c2ce5b144;52.3793042;4.8453276;Amsterdam;nl;Noord-Holland;Noordwest-Nederland;good;park and ride;1;250;1;1.95;1;1;Amsterdam
825;Parkeergarage Scheepjeshof (Veenendaal);https://npropendata.rdw.nl//parkingdata/v2/static/a32d6153-7f95-40dd-a912-91f9eefeb419;;0;a32d6153-7f95-40dd-a912-91f9eefeb419;52.0296045;5.5547641;Veenendaal;nl;Utrecht;Noordwest-Nederland;good;garage;1;470;1;1.85;1;1;Veenendaal
871;P1 Parkeergarage Keizer Karel;https://npropendata.rdw.nl//parkingdata/v2/static/96ec46a4-8089-49a8-8ca4-df67a5d0bdc1;http://opendata.technolution.nl/opendata/parkingdata/v1/dynamic/96ec46a4-8089-49a8-8ca4-df67a5d0bdc1;0;96ec46a4-8089-49a8-8ca4-df67a5d0bdc1;51.84239765;5.8561808405487;Nijmegen;nl;Gelderland;Oost-Nederland;good;garage;1;684;1;2.1;1;1;Nijmegen
896;Grifthoek;https://npropendata.rdw.nl//parkingdata/v2/static/cae79c77-78ee-41f9-b081-cceddef5fd70;;0;cae79c77-78ee-41f9-b081-cceddef5fd70;52.0981661;5.1262439;Utrecht;nl;Utrecht;Noordwest-Nederland;good;garage;1;320;1;2;1;1;Utrecht
905;Garage P5 Villa ArenA (Amsterdam);https://npropendata.rdw.nl//parkingdata/v2/static/e0f088ad-f1ee-40c4-ae79-170aa0784dd9;;0;e0f088ad-f1ee-40c4-ae79-170aa0784dd9;52.31195255;4.9409709212196;Amsterdam;nl;Noord-Holland;Noordwest-Nederland;good;garage;1;1354;1;2;1;1;Amsterdam
906;P+R Westraven;https://npropendata.rdw.nl//parkingdata/v2/static/6dab1568-c138-4551-b1ab-08be9e09e9a3;;0;6dab1568-c138-4551-b1ab-08be9e09e9a3;52.05751285;5.1049658712453;Utrecht;nl;Utrecht;Noordwest-Nederland;good;garage;1;1385;0;2;1;1;Utrecht
907;Garage Stadhuis-Muziektheater (Amsterdam);https://npropendata.rdw.nl//parkingdata/v2/static/b40a4b06-cca5-46c4-ab2a-1f9a929611d3;;0;b40a4b06-cca5-46c4-ab2a-1f9a929611d3;52.3683961;4.9019159;Amsterdam;nl;Noord-Holland;Noordwest-Nederland;good;garage;1;400;1;1.8;1;1;Amsterdam
922;Garage Emmaplein, voorheen Belcour (Zeist);https://npropendata.rdw.nl//parkingdata/v2/static/92869eef-dad0-450e-8687-fca67877732e;;0;92869eef-dad0-450e-8687-fca67877732e;52.0859769;5.2418688;Zeist;nl;Utrecht;Noordwest-Nederland;good;garage;1;78;1;2;1;1;Zeist
931;Garage 1e Hogeweg (Zeist);https://npropendata.rdw.nl//parkingdata/v2/static/80698609-8adb-4bde-966d-c08d071c20e8;;0;80698609-8adb-4bde-966d-c08d071c20e8;52.0860398;5.2402525;Zeist;nl;Utrecht;Noordwest-Nederland;good;garage;1;413;1;2;1;1;Zeist
972;Kruisstraat;https://npropendata.rdw.nl//parkingdata/v2/static/ae58cd0a-2b44-4e28-8d91-73c93bc76ea5;;0;ae58cd0a-2b44-4e28-8d91-73c93bc76ea5;52.0939379;5.1294531;Utrecht;nl;Utrecht;Noordwest-Nederland;good;garage;1;105;1;2;1;1;Utrecht
996;P+R De Uithof;https://npropendata.rdw.nl//parkingdata/v2/static/2cbe619e-552d-4f4b-9d41-c44c25286148;;0;2cbe619e-552d-4f4b-9d41-c44c25286148;52.0916469;5.1785275549195;Utrecht;nl;Utrecht;Noordwest-Nederland;good;park and ride;1;500;1;1.9;1;1;Utrecht
1024;Garage P3 Mikado (Amsterdam);https://npropendata.rdw.nl//parkingdata/v2/static/b72e1d6e-a1d2-4ac1-87e7-2aedc9fcff79;;0;b72e1d6e-a1d2-4ac1-87e7-2aedc9fcff79;52.3103425;4.9412969;Amsterdam;nl;Noord-Holland;Noordwest-Nederland;good;garage;1;366;1;2.1;1;1;Amsterdam
1028;P+R RAI (Amsterdam);https://npropendata.rdw.nl//parkingdata/v2/static/0ab22af9-911d-4cfb-9ac5-6c327aa48be2;;0;0ab22af9-911d-4cfb-9ac5-6c327aa48be2;52.339706;4.8884566863564;Amsterdam;nl;Noord-Holland;Noordwest-Nederland;good;park and ride;1;678;1;1.9;1;1;Amsterdam
1029;P+R Olympisch Stadion (Amsterdam);https://npropendata.rdw.nl//parkingdata/v2/static/c783d164-e1ce-4782-9552-eac48b1b100d;;0;c783d164-e1ce-4782-9552-eac48b1b100d;52.3445977;4.8550786;Amsterdam;nl;Noord-Holland;Noordwest-Nederland;good;park and ride;1;250;1;2.1;1;1;Amsterdam
1054;Carpool IJsselstein A2 (IJsselstein);https://npropendata.rdw.nl//parkingdata/v2/static/bd6706fa-f5dd-4264-bb7d-0256826ee32f;;0;bd6706fa-f5dd-4264-bb7d-0256826ee32f;52.0162156;5.0652735;IJsselstein;nl;Utrecht;Noordwest-Nederland;good;carpool;1;69;1;2.5;1;1;IJsselstein
1155;Parkeergarage Castellum;https://npropendata.rdw.nl//parkingdata/v2/static/e0fc7f00-4ef1-4fd3-a2eb-187acf9072a1;;0;e0fc7f00-4ef1-4fd3-a2eb-187acf9072a1;52.1295505;4.6580577;Alphen aan den Rijn;nl;Zuid-Holland;Zuidwest-Nederland;good;garage;1;742;1;2;1;1;Alphen aan den Rijn
1162;P+R Barendrecht NS (Barendrecht);https://npropendata.rdw.nl//parkingdata/v2/static/4dd5e7a5-69af-47af-a96c-e75b1103e4d5;;0;4dd5e7a5-69af-47af-a96c-e75b1103e4d5;51.855916748842;4.5523839002186;Barendrecht;nl;Zuid-Holland;Zuidwest-Nederland;good;park and ride;1;380;1;2.8;1;1;Barendrecht
1167;P+R Spinnerij (Amstelveen);https://npropendata.rdw.nl//parkingdata/v2/static/ddf28f39-e189-45c1-b4d9-507f593b3d42;;0;ddf28f39-e189-45c1-b4d9-507f593b3d42;52.2838668;4.8378639;Amstelveen;nl;Noord-Holland;Noordwest-Nederland;good;park and ride;1;125;1;1.9;1;1;Amstelveen
1176;Garage Phoenix (Delft);https://npropendata.rdw.nl//parkingdata/v2/static/c6fa5861-abde-41af-8f00-14c188566168;https://npropendata.rdw.nl//parkingdata/v2/dynamic/c6fa5861-abde-41af-8f00-14c188566168;0;c6fa5861-abde-41af-8f00-14c188566168;52.01099075;4.3547281278509;Delft;nl;Zuid-Holland;Zuidwest-Nederland;good;garage;1;202;1;1.9;1;1;Delft
1185;Garage Houtplein (haarlem);https://npropendata.rdw.nl//parkingdata/v2/static/cc389282-40a0-4721-9b1a-37f68ca404d2;;0;cc389282-40a0-4721-9b1a-37f68ca404d2;52.37490635;4.6313532331939;Haarlem;nl;Noord-Holland;Noordwest-Nederland;good;garage;1;862;1;1.95;1;1;Haarlem
1187;Garage P10 Plaza ArenA (Amsterdam);https://npropendata.rdw.nl//parkingdata/v2/static/5e24e192-5718-46da-945f-c59327a03294;;0;5e24e192-5718-46da-945f-c59327a03294;52.3066875;4.942096;Amsterdam;nl;Noord-Holland;Noordwest-Nederland;good;garage;1;814;1;2;1;1;Amsterdam
1189;Garage De Dreef (Haarlem);https://npropendata.rdw.nl//parkingdata/v2/static/4f337bf5-6284-47f6-a773-02d06603ff89;;0;4f337bf5-6284-47f6-a773-02d06603ff89;52.37210985;4.6304615730798;Haarlem;nl;Noord-Holland;Noordwest-Nederland;good;garage;1;219;1;2;1;1;Haarlem
1192;Parkeergarage Kweeklust;https://npropendata.rdw.nl//parkingdata/v2/static/45821bd3-1835-43ce-bb99-adc58b056ade;;0;45821bd3-1835-43ce-bb99-adc58b056ade;51.8329358;4.9732326671277;Gorinchem;nl;Zuid-Holland;Zuidwest-Nederland;good;garage;1;323;1;2;1;1;UNKNOWN
1197;P+R Gouda Goverwelle (Gouda);https://npropendata.rdw.nl//parkingdata/v2/static/dbc16752-ef47-4699-9fe0-549b2a6929e2;;0;dbc16752-ef47-4699-9fe0-549b2a6929e2;52.0147856;4.7409817;Gouda;nl;Zuid-Holland;Zuidwest-Nederland;good;park and ride;1;102;1;2.3;1;1;Gouda
1198;P+R Zeeburg (Amsterdam);https://npropendata.rdw.nl//parkingdata/v2/static/caeb9b56-de8d-40ec-9818-54b1344e6bea;;0;caeb9b56-de8d-40ec-9818-54b1344e6bea;52.3717803;4.9613192522962;Amsterdam;nl;Noord-Holland;Noordwest-Nederland;good;park and ride;1;200;1;4.3;1;1;Amsterdam
1220;Garage Steynlaan (Zeist);https://npropendata.rdw.nl//parkingdata/v2/static/36c7c206-b5fb-4c75-a314-8096d5a67761;;0;36c7c206-b5fb-4c75-a314-8096d5a67761;52.0898818;5.2488118;Zeist;nl;Utrecht;Noordwest-Nederland;good;garage;1;221;1;2;1;1;Zeist
1243;Garage Pleingarage (Den Haag);https://npropendata.rdw.nl//parkingdata/v2/static/1b96b5df-841f-400b-ba2d-7cff51a41d02;;0;1b96b5df-841f-400b-ba2d-7cff51a41d02;52.07981235;4.3158523147058;Den Haag;nl;Zuid-Holland;Zuidwest-Nederland;good;garage;1;255;1;1.9;1;1;Den Haag
1308;Garage Zuidpoort (Delft);https://npropendata.rdw.nl//parkingdata/v2/static/333f3516-1869-43fc-a84a-24c2356049b9;https://npropendata.rdw.nl//parkingdata/v2/dynamic/333f3516-1869-43fc-a84a-24c2356049b9;0;333f3516-1869-43fc-a84a-24c2356049b9;52.00873135;4.3640956999725;Delft;nl;Zuid-Holland;Zuidwest-Nederland;good;garage;1;810;1;2.05;0;1;Delft
1309;Prinsenhofgarage;https://npropendata.rdw.nl//parkingdata/v2/static/a5035792-66f7-491c-8c99-0b6c7e49811d;https://npropendata.rdw.nl//parkingdata/v2/dynamic/a5035792-66f7-491c-8c99-0b6c7e49811d;0;a5035792-66f7-491c-8c99-0b6c7e49811d;52.0147215;4.3496756;Delft;nl;Zuid-Holland;Zuidwest-Nederland;good;garage;1;639;1;2.1;1;1;Delft
1321;Piet Heingarage (Amsterdam);https://npropendata.rdw.nl//parkingdata/v2/static/e08d6a7e-cfcf-4cbd-a59a-8821766c016c;;0;e08d6a7e-cfcf-4cbd-a59a-8821766c016c;52.3779838;4.9128451351188;Amsterdam;nl;Noord-Holland;Noordwest-Nederland;good;garage;1;400;1;2.1;1;1;Amsterdam
1322;P+R VUmc (Amsterdam);https://npropendata.rdw.nl//parkingdata/v2/static/4a9684bf-f532-4248-9f43-1334233dc5d5;;0;4a9684bf-f532-4248-9f43-1334233dc5d5;52.3362618;4.86096965;Amsterdam;nl;Noord-Holland;Noordwest-Nederland;good;park and ride;1;450;1;1.9;1;1;Amsterdam
1329;P+R ArenA (Amsterdam);https://npropendata.rdw.nl//parkingdata/v2/static/7035fbb3-74a2-43e9-b873-e8d7ddb03fd3;;0;7035fbb3-74a2-43e9-b873-e8d7ddb03fd3;52.31435305;4.942843089054;Amsterdam;nl;Noord-Holland;Noordwest-Nederland;good;park and ride;1;500;1;2.25;1;1;Amsterdam
1331;Garage Princehaven (Katwijk);https://npropendata.rdw.nl//parkingdata/v2/static/5b4d066f-a394-4888-9825-2cd524514184;;0;5b4d066f-a394-4888-9825-2cd524514184;52.2042388;4.399869;Katwijk;nl;Zuid-Holland;Zuidwest-Nederland;good;garage;1;250;1;2.05;1;1;Katwijk
1337;Stationsgarage;https://npropendata.rdw.nl//parkingdata/v2/static/c644d0f6-07a1-4a80-8130-fcf46bc25b99;;0;c644d0f6-07a1-4a80-8130-fcf46bc25b99;52.0180007;4.7079646;Gouda;nl;Zuid-Holland;Zuidwest-Nederland;good;garage;1;320;1;2.1;1;1;Gouda
1341;Morspoort;https://npropendata.rdw.nl//parkingdata/v2/static/6b59640f-b895-482c-8ebd-430e364a0aa5;;0;6b59640f-b895-482c-8ebd-430e364a0aa5;52.16236175;4.480733630202;Leiden;nl;Zuid-Holland;Zuidwest-Nederland;good;garage;1;397;1;2.1;1;1;Leiden
1406;Garage Markt (Delft);https://npropendata.rdw.nl//parkingdata/v2/static/c4172abb-8ad1-446a-8c35-ddb310d1a0f9;https://npropendata.rdw.nl//parkingdata/v2/dynamic/c4172abb-8ad1-446a-8c35-ddb310d1a0f9;0;c4172abb-8ad1-446a-8c35-ddb310d1a0f9;52.01431405;4.36627316002;Delft;nl;Zuid-Holland;Zuidwest-Nederland;good;garage;1;339;1;2.2;1;1;Delft
1412;Garage Riedijkshaven (Dordrecht);https://npropendata.rdw.nl//parkingdata/v2/static/5b3d8f1d-67f8-499e-a35c-92f3b181bfa1;;0;5b3d8f1d-67f8-499e-a35c-92f3b181bfa1;51.817879;4.6765956;Dordrecht;nl;Zuid-Holland;Zuidwest-Nederland;good;garage;1;46;1;2;1;1;Dordrecht
1431;Parkeergarage Kazerneplein;https://npropendata.rdw.nl//parkingdata/v2/static/7a5f86eb-e437-48c0-a32e-ba2643bc475e;;0;7a5f86eb-e437-48c0-a32e-ba2643bc475e;51.8296781;4.9701058;Gorinchem;nl;Zuid-Holland;Zuidwest-Nederland;good;garage;1;385;1;2;1;1;UNKNOWN
1455;P+R Ridderkerk Oostendam (Ridderkerk);https://npropendata.rdw.nl//parkingdata/v2/static/a78cd84b-8226-44bc-8149-dd32b2959f6a;;0;a78cd84b-8226-44bc-8149-dd32b2959f6a;51.8594868;4.627516;Ridderkerk;nl;Zuid-Holland;Zuidwest-Nederland;good;park and ride;1;40;1;2.1;1;1;Ridderkerk
1470;Carpool Hoorn-Noord A7 (Zwaag);https://npropendata.rdw.nl//parkingdata/v2/static/c950fefb-30a0-46d1-882b-76fa350b9f1d;;0;c950fefb-30a0-46d1-882b-76fa350b9f1d;52.6701395;5.041835324279;Hoorn;nl;Noord-Holland;Noordwest-Nederland;good;carpool;1;34;1;1.95;1;1;Hoorn
1485;Garage Colosseumweg;https://npropendata.rdw.nl//parkingdata/v2/static/31938897-d183-426d-ad6b-0c613a147cea;http://opendata.technolution.nl/opendata/parkingdata/v1/dynamic/31938897-d183-426d-ad6b-0c613a147cea;0;31938897-d183-426d-ad6b-0c613a147cea;51.8969643;4.5114088;Rotterdam;nl;Zuid-Holland;Zuidwest-Nederland;good;garage;1;203;1;1.9;1;1;Rotterdam
1486;Garage Meent;https://npropendata.rdw.nl//parkingdata/v2/static/48383bbe-e212-4903-bfd2-440846d80059;;0;48383bbe-e212-4903-bfd2-440846d80059;51.9241816;4.4823924;Rotterdam;nl;Zuid-Holland;Zuidwest-Nederland;good;garage;1;548;1;1.9;1;1;Rotterdam
1487;Garage Kiphof;https://npropendata.rdw.nl//parkingdata/v2/static/dc96d900-8446-4e99-8a09-dd60da167fc8;http://opendata.technolution.nl/opendata/parkingdata/v1/dynamic/dc96d900-8446-4e99-8a09-dd60da167fc8;0;dc96d900-8446-4e99-8a09-dd60da167fc8;51.9217585;4.4924057;Rotterdam;nl;Zuid-Holland;Zuidwest-Nederland;good;garage;1;339;1;1.9;1;1;Rotterdam
1498;Parkeerdak Hoogvliet;https://npropendata.rdw.nl//parkingdata/v2/static/674ceff0-96c2-4ecc-85fb-6fd52783deb3;;0;674ceff0-96c2-4ecc-85fb-6fd52783deb3;52.1278622;4.6610183;Alphen aan den Rijn;nl;Zuid-Holland;Zuidwest-Nederland;good;garage;1;48;1;1.9;0;1;Alphen aan den Rijn
1517;Parkeergarage Brouwerij;https://npropendata.rdw.nl//parkingdata/v2/static/335d508f-cb75-480d-b034-b30f128fccce;;0;335d508f-cb75-480d-b034-b30f128fccce;52.2321133;6.8905443614195;Enschede;nl;Overijssel;Oost-Nederland;good;garage;1;70;1;2;1;1;Enschede
1531;Parkeergarage Achterom;https://npropendata.rdw.nl//parkingdata/v2/static/01e2fd1b-550b-40e1-b9fe-5373a15d88a0;;0;01e2fd1b-550b-40e1-b9fe-5373a15d88a0;51.8120914;4.666674;Dordrecht;nl;Zuid-Holland;Zuidwest-Nederland;good;garage;1;370;1;2.1;1;1;Dordrecht
1545;Garage Cronjé (Haarlem);https://npropendata.rdw.nl//parkingdata/v2/static/7874dbfe-fed1-4f45-a24b-72531d5be736;;0;7874dbfe-fed1-4f45-a24b-72531d5be736;52.3939298;4.6387205129803;Haarlem;nl;Noord-Holland;Noordwest-Nederland;good;garage;1;400;1;2.1;1;1;Haarlem
1546;Parkeergarage De Beurs (Hengelo);https://npropendata.rdw.nl//parkingdata/v2/static/34e3978f-2883-4763-9407-4b293fabebe0;;0;34e3978f-2883-4763-9407-4b293fabebe0;52.2638811;6.7953476021112;Hengelo;nl;Overijssel;Oost-Nederland;good;garage;1;315;1;2;1;1;Hengelo
1547;Garage Tramstraat (Katwijk);https://npropendata.rdw.nl//parkingdata/v2/static/e1390cc1-3862-4e0c-88f9-de60e45a8550;;0;e1390cc1-3862-4e0c-88f9-de60e45a8550;52.2044108;4.3981003;Katwijk;nl;Zuid-Holland;Zuidwest-Nederland;good;garage;1;125;1;2.05;1;1;Katwijk
1551;Garage Raaks (Haarlem);https://npropendata.rdw.nl//parkingdata/v2/static/22807760-eec0-4275-9b17-ae5dde2240bc;;0;22807760-eec0-4275-9b17-ae5dde2240bc;52.381562;4.6289864;Haarlem;nl;Noord-Holland;Noordwest-Nederland;good;garage;1;960;1;2;1;1;Haarlem
1569;Garage De Geere (Middelburg);https://npropendata.rdw.nl//parkingdata/v2/static/9fc01af6-e44c-4431-8113-b42ff83af102;;0;9fc01af6-e44c-4431-8113-b42ff83af102;51.4963826;3.6093751262784;Middelburg;nl;Zeeland;Zuidwest-Nederland;good;garage;1;302;1;2;1;1;Middelburg
1570;Garage Kousteensedijk (Middelburg);https://npropendata.rdw.nl//parkingdata/v2/static/67119b14-972e-4404-95cc-7082438a8357;;0;67119b14-972e-4404-95cc-7082438a8357;51.4954561;3.614618;Middelburg;nl;Zeeland;Zuidwest-Nederland;good;garage;1;257;1;1.95;1;1;Middelburg
1589;Garage Schuttershof (Terneuzen);https://npropendata.rdw.nl//parkingdata/v2/static/fe6d6e4c-9b29-464e-8fa8-3ba4a98a8375;;0;fe6d6e4c-9b29-464e-8fa8-3ba4a98a8375;51.3331045;3.8275251;Terneuzen;nl;Zeeland;Zuidwest-Nederland;good;garage;1;177;1;2.05;1;1;Terneuzen
1602;Garage Blokhuis (Lisse);https://npropendata.rdw.nl//parkingdata/v2/static/dc6e3dc0-92e1-4ee3-8c45-9e9618642aa6;;0;dc6e3dc0-92e1-4ee3-8c45-9e9618642aa6;52.2610769;4.5588835;Lisse;nl;Zuid-Holland;Zuidwest-Nederland;good;garage;1;304;1;2.1;1;1;Lisse
1612;Parkeergarage Overtoom;https://npropendata.rdw.nl//parkingdata/v2/static/710bc845-fbad-4513-bf0e-0f7c9cacf336;;0;710bc845-fbad-4513-bf0e-0f7c9cacf336;51.8249271;4.6862965;Papendrecht;nl;Zuid-Holland;Zuidwest-Nederland;good;garage;1;135;1;2.1;1;1;Papendrecht
1647;Garage Het Turfschip (Breda);https://npropendata.rdw.nl//parkingdata/v2/static/6ea457a0-c73c-4b1a-8602-ff6af1114fe3;https://opendata.technolution.nl/opendata/parkingdata/v1/dynamic/6ea457a0-c73c-4b1a-8602-ff6af1114fe3;0;6ea457a0-c73c-4b1a-8602-ff6af1114fe3;51.589268;4.7855378;Breda;nl;Noord-Brabant;Zuid-Nederland;good;garage;1;600;1;2.05;1;1;Breda
1704;Garage Schouwburgplein 1;https://npropendata.rdw.nl//parkingdata/v2/static/fa25b695-5055-40a5-9930-ac2aa77ba975;http://opendata.technolution.nl/opendata/parkingdata/v1/dynamic/fa25b695-5055-40a5-9930-ac2aa77ba975;0;fa25b695-5055-40a5-9930-ac2aa77ba975;51.923052371276;4.4705025923503;Rotterdam;nl;Zuid-Holland;Zuidwest-Nederland;good;garage;1;730;1;2.1;1;1;Rotterdam
1706;Garage Schouwburgplein 2;https://npropendata.rdw.nl//parkingdata/v2/static/bae90cb2-90cc-4ef7-9752-672ef216a52c;http://opendata.technolution.nl/opendata/parkingdata/v1/dynamic/bae90cb2-90cc-4ef7-9752-672ef216a52c;0;bae90cb2-90cc-4ef7-9752-672ef216a52c;51.9175991;4.467722269662;Rotterdam;nl;Zuid-Holland;Zuidwest-Nederland;good;garage;1;760;1;2.1;1;1;Rotterdam
1711;Parkeergarage Euroscoop Noorderweg (Schiedam);https://npropendata.rdw.nl//parkingdata/v2/static/64154385-8fb1-4bd1-9041-5c047aec5ed1;;0;64154385-8fb1-4bd1-9041-5c047aec5ed1;51.92155915;4.412249386927;Schiedam;nl;Zuid-Holland;Zuidwest-Nederland;good;garage;1;450;1;2;0;1;Schiedam
1713;Carpool afrit 21 Voorst (A1);https://npropendata.rdw.nl//parkingdata/v2/static/1dba2bcd-0fc1-46f6-bb30-5ba73ac35919;;0;1dba2bcd-0fc1-46f6-bb30-5ba73ac35919;52.1970367;6.0516314408302;Apeldoorn;nl;Gelderland;Oost-Nederland;good;carpool;1;60;1;2.1;1;1;Apeldoorn
1732;Transferium Deutersestraat;https://npropendata.rdw.nl//parkingdata/v2/static/1e0fbf8b-5e3a-4ee4-96df-6206c2bac453;;0;1e0fbf8b-5e3a-4ee4-96df-6206c2bac453;51.68535015;5.2701148147745;'s-Hertogenbosch;nl;Noord-Brabant;Zuid-Nederland;good;park and ride;1;1100;0;2.1;1;1;'s-Hertogenbosch
1755;Garage Centraal;https://npropendata.rdw.nl//parkingdata/v2/static/8ef842d3-f5f2-4679-a074-9096f4000db7;http://opd.it-t.nl/Data/parkingdata/v1/arnhem/dynamic/8ef842d3-f5f2-4679-a074-9096f4000db7.json;0;8ef842d3-f5f2-4679-a074-9096f4000db7;51.9841828;5.8990498;Arnhem;nl;Gelderland;Oost-Nederland;good;garage;1;1050;1;2;0;1;Arnhem
1762;Garage Ringkade;https://npropendata.rdw.nl//parkingdata/v2/static/5869699a-1dd5-4c4f-a6d1-b91cb4ca8c7c;;0;5869699a-1dd5-4c4f-a6d1-b91cb4ca8c7c;52.1655779;4.5071715;Leiden;nl;Zuid-Holland;Zuidwest-Nederland;good;garage;1;210;1;2.1;1;1;Leiden
1778;Parkeergarage Brabantplein (Uden);https://npropendata.rdw.nl//parkingdata/v2/static/93ecfc41-0b62-4cac-929e-96e255e603be;;0;93ecfc41-0b62-4cac-929e-96e255e603be;51.6597039;5.6149797;Uden;nl;Noord-Brabant;Zuid-Nederland;good;garage;1;109;1;1.9;1;1;Uden
1829;Parkeergarage Prins Willem Alexanderplein (Vaals);https://npropendata.rdw.nl//parkingdata/v2/static/a32feecf-35b2-4dc8-a5a0-7c0b2ed5ecb6;;0;a32feecf-35b2-4dc8-a5a0-7c0b2ed5ecb6;50.7723557;6.0211989;Vaals;nl;Limburg;Zuid-Nederland;good;garage;1;190;1;1.9;1;1;Vaals
1857;Ursulinengarage (Weert);https://npropendata.rdw.nl//parkingdata/v2/static/5d3eac2f-a0dc-44fd-9630-0be2a8676280;;0;5d3eac2f-a0dc-44fd-9630-0be2a8676280;51.2524357;5.704625636113;Weert;nl;Limburg;Zuid-Nederland;good;garage;1;228;1;2;1;1;Weert
1872;Garage De Hagen (Rijssen);https://npropendata.rdw.nl//parkingdata/v2/static/b45d6242-0b74-40f6-bc72-f67df7e5719c;;0;b45d6242-0b74-40f6-bc72-f67df7e5719c;52.30704895;6.522160206304;Rijssen-Holten;nl;Overijssel;Oost-Nederland;good;garage;1;190;1;2.1;1;1;Rijssen - Holten
1893;Theatergarage (Spijkenisse);https://npropendata.rdw.nl//parkingdata/v2/static/639191c9-297d-4ec4-9f69-85bc97600977;;0;639191c9-297d-4ec4-9f69-85bc97600977;51.85100435;4.3303115758272;Nissewaard;nl;Zuid-Holland;Zuidwest-Nederland;good;garage;1;650;1;2.1;1;1;Nissewaard
1894;Garage Boscotondo (Helmond);https://npropendata.rdw.nl//parkingdata/v2/static/5be7439a-bf35-4ca2-a043-f86bc29750d7;;0;5be7439a-bf35-4ca2-a043-f86bc29750d7;51.4781002;5.6496393;Helmond;nl;Noord-Brabant;Zuid-Nederland;good;garage;1;279;1;2;1;1;Helmond
1905;Carpoolparkeren Zuidbroek A7, Burgermeester Omtaweg, Zuidbroek (Menterwolde);https://npropendata.rdw.nl//parkingdata/v2/static/45ebf1e6-c9ce-4c41-a303-0a9ceff33f29;;0;45ebf1e6-c9ce-4c41-a303-0a9ceff33f29;53.169208378149;6.8597326497912;Midden-Groningen;nl;Groningen;Noord-Nederland;good;carpool;1;24;1;2.2;1;1;Midden-Groningen
1910;Garage Kop van Lombok;https://npropendata.rdw.nl//parkingdata/v2/static/551be64d-fd3d-4f13-8afd-fc2b0186e67b;https://opendata.technolution.nl/opendata/parkingdata/v1/dynamic/551be64d-fd3d-4f13-8afd-fc2b0186e67b;0;551be64d-fd3d-4f13-8afd-fc2b0186e67b;52.09267019027;5.1039747320235;Utrecht;nl;Utrecht;Noordwest-Nederland;good;garage;1;320;0;2;1;1;P1
1911;Garage De Grifthoek (Utrecht);https://npropendata.rdw.nl//parkingdata/v2/static/ed1ecb9f-bbf1-4578-97c7-16cd3ed8b4da;https://opendata.technolution.nl/opendata/parkingdata/v1/dynamic/ed1ecb9f-bbf1-4578-97c7-16cd3ed8b4da;0;ed1ecb9f-bbf1-4578-97c7-16cd3ed8b4da;52.0981661;5.1262437;Utrecht;nl;Utrecht;Noordwest-Nederland;good;garage;1;320;0;2;1;1;P1
1912;P+R Hoofddorp (Haarlemmermeer);https://npropendata.rdw.nl//parkingdata/v2/static/f5fc36b9-1f4b-4e31-9214-6ec6bcfb263b;;0;f5fc36b9-1f4b-4e31-9214-6ec6bcfb263b;52.29202105;4.7026053500004;Haarlemmermeer;nl;Noord-Holland;Noordwest-Nederland;good;park and ride;1;408;0;2.1;1;1;P1
1915;P+R Slinge (Rotterdam);https://npropendata.rdw.nl//parkingdata/v2/static/24aca731-db99-4c8b-a429-b664bc5a17bf;;0;24aca731-db99-4c8b-a429-b664bc5a17bf;51.87260475;4.4770017669296;Rotterdam;nl;Zuid-Holland;Zuidwest-Nederland;good;park and ride;1;849;1;2.1;1;1;Rotterdam
1944;Garage Biosparking (Groningen);https://npropendata.rdw.nl//parkingdata/v2/static/eda67214-1c0d-4fe2-843a-b9a20b4be727;;0;eda67214-1c0d-4fe2-843a-b9a20b4be727;53.2139471;6.5666424;Groningen;nl;Groningen;Noord-Nederland;good;garage;1;90;1;1.9;1;1;Interparking
1945;Garage Oppidium (Amersfoort);https://npropendata.rdw.nl//parkingdata/v2/static/0ac14c9a-92fc-4877-864a-faec60e2af42;;0;0ac14c9a-92fc-4877-864a-faec60e2af42;52.158717932217;5.3772202845107;Amersfoort;nl;Utrecht;Noordwest-Nederland;good;garage;1;600;1;2.05;1;1;Interparking
1946;Garage Kruitmolen (Houten);https://npropendata.rdw.nl//parkingdata/v2/static/63d6360a-c2d8-4e1b-8d6f-076d1e8f7679;;0;63d6360a-c2d8-4e1b-8d6f-076d1e8f7679;52.0337354;5.1709472;Houten;nl;Utrecht;Noordwest-Nederland;good;garage;1;640;1;2;1;1;Interparking
1947;Garage Spoorhaag (Houten);https://npropendata.rdw.nl//parkingdata/v2/static/380137db-234a-415f-a9a2-47f1c7e842d0;;0;380137db-234a-415f-a9a2-47f1c7e842d0;52.0357613;5.1676007;Houten;nl;Utrecht;Noordwest-Nederland;good;garage;1;220;1;2;1;1;Interparking
1948;Garage P3 Radboud (Utrecht);https://npropendata.rdw.nl//parkingdata/v2/static/200e0f50-57f5-4cb8-9a46-e172ed735a86;https://opendata.technolution.nl/opendata/parkingdata/v1/dynamic/200e0f50-57f5-4cb8-9a46-e172ed735a86;0;200e0f50-57f5-4cb8-9a46-e172ed735a86;52.0900041;5.1125843360484;Utrecht;nl;Utrecht;Noordwest-Nederland;good;garage;1;451;1;1.95;1;1;Interparking
1949;Garage Oranjekwartier (Amsterdam);https://npropendata.rdw.nl//parkingdata/v2/static/6fd23205-2ad4-4e9b-839e-d2fd380c628c;;0;6fd23205-2ad4-4e9b-839e-d2fd380c628c;52.3535424;4.8396427;Amsterdam;nl;Noord-Holland;Noordwest-Nederland;good;garage;1;472;1;2.05;1;1;Interparking
1952;Garage Leidschenhof (Den Haag);https://npropendata.rdw.nl//parkingdata/v2/static/ad4879fb-a2c3-459d-aec2-c6a9295d08d0;;0;ad4879fb-a2c3-459d-aec2-c6a9295d08d0;52.0630134;4.4036626;Den Haag;nl;Zuid-Holland;Zuidwest-Nederland;good;garage;1;207;1;2.1;1;1;Interparking
1955;Garage Gelderlandplein (Amsterdam);https://npropendata.rdw.nl//parkingdata/v2/static/0c8410c5-702b-4e01-9bf2-2664133f815d;;0;0c8410c5-702b-4e01-9bf2-2664133f815d;52.331270475277;4.8790799314519;Amsterdam;nl;Noord-Holland;Noordwest-Nederland;good;garage;1;820;1;1.95;1;1;ParkKing
1956;Garage Lammermarkt (Leiden);https://npropendata.rdw.nl//parkingdata/v2/static/512a0c61-8cbe-46d8-b3e4-ffd1a8e16fa8;;0;512a0c61-8cbe-46d8-b3e4-ffd1a8e16fa8;52.1635477;4.4867728;Leiden;nl;Zuid-Holland;Zuidwest-Nederland;good;garage;1;525;1;2.1;1;1;Leiden
1957;Garage Waterlooplein (Amsterdam);https://npropendata.rdw.nl//parkingdata/v2/static/d1afdb94-1c2c-4dbc-95d0-000d81b044e8;;0;d1afdb94-1c2c-4dbc-95d0-000d81b044e8;52.3690422;4.9048213;Amsterdam;nl;Noord-Holland;Noordwest-Nederland;good;garage;1;180;1;1.9;1;1;ParkKing
1958;Garage Soestdijkkade (Leiden);https://npropendata.rdw.nl//parkingdata/v2/static/fa93165b-9a53-4bbd-a008-6129d00a4a5c;;0;fa93165b-9a53-4bbd-a008-6129d00a4a5c;52.1662648;4.5057053;Leiden;nl;Zuid-Holland;Zuidwest-Nederland;good;garage;1;140;1;2;1;1;Leiden
1962;Centrumgarage (Deventer);https://npropendata.rdw.nl//parkingdata/v2/static/9939a414-628f-4b60-8068-f7731ea5f31a;https://opendata.technolution.nl/opendata/parkingdata/v1/dynamic/9939a414-628f-4b60-8068-f7731ea5f31a;0;9939a414-628f-4b60-8068-f7731ea5f31a;52.2546358;6.1587068;Deventer;nl;Overijssel;Oost-Nederland;good;garage;1;575;1;2.35;1;1;Centrumgarage
2007;Garage Doorneind (Helmond);https://npropendata.rdw.nl//parkingdata/v2/static/d93af391-9b60-43e8-9c79-c7a72e736eb1;;0;d93af391-9b60-43e8-9c79-c7a72e736eb1;51.4783409;5.6583074;Helmond;nl;Noord-Brabant;Zuid-Nederland;good;garage;1;470;1;2;1;1;Helmond
2008;Stadhuisgarage (Spijkenisse);https://npropendata.rdw.nl//parkingdata/v2/static/71f335f8-8529-4d84-915f-1c012664b86a;;0;71f335f8-8529-4d84-915f-1c012664b86a;51.8485242;4.3298608;Nissewaard;nl;Zuid-Holland;Zuidwest-Nederland;good;garage;1;410;1;1.9;1;1;Nissewaard
2013;Garage De Olmen (Bussem);https://npropendata.rdw.nl//parkingdata/v2/static/b34eaf06-ba87-4b71-b380-866cf111e75d;;0;b34eaf06-ba87-4b71-b380-866cf111e75d;52.2761909;5.160733;Gooise Meren;nl;Noord-Holland;Noordwest-Nederland;good;garage;1;251;1;1.9;0;1;Gooise Meren
2015;Carpool Schijndel, Structuurweg, Schijndel (Meierijstad);https://npropendata.rdw.nl//parkingdata/v2/static/c0150935-0ab0-4800-9c4a-69a5394d67ac;;0;c0150935-0ab0-4800-9c4a-69a5394d67ac;51.634588102429;5.4177958675126;Meierijstad;nl;Noord-Brabant;Zuid-Nederland;good;carpool;1;80;1;2.2;1;1;Meierijstad
2027;Garage Tricotage (Veenendaal);https://npropendata.rdw.nl//parkingdata/v2/static/38b7b9d8-8108-42bc-b21e-276be97aa08c;;0;38b7b9d8-8108-42bc-b21e-276be97aa08c;52.026961657789;5.5548886604285;Veenendaal;nl;Utrecht;Noordwest-Nederland;good;garage;1;500;1;2;1;1;P1
2029;Garage Sluisdijk (Den Helder);https://npropendata.rdw.nl//parkingdata/v2/static/098f4eb3-a44b-4a5c-9396-eb4a6e978da0;;0;098f4eb3-a44b-4a5c-9396-eb4a6e978da0;52.95686105;4.7647026516298;Den Helder;nl;Noord-Holland;Noordwest-Nederland;good;garage;1;181;0;1.95;1;1;P1
2035;Garage Oostwal-Oost;https://npropendata.rdw.nl//parkingdata/v2/static/cc540b20-b010-4f3d-b997-976bf2ca3249;;0;cc540b20-b010-4f3d-b997-976bf2ca3249;51.77007475;5.5283522602064;Oss;nl;Noord-Brabant;Zuid-Nederland;good;garage;1;59;1;2.15;1;1;Oss
2039;Garage Meander Medisch Centrum (Amersfoort);https://npropendata.rdw.nl//parkingdata/v2/static/8981f76d-79a9-41b2-8b6f-bde3675ec273;;0;8981f76d-79a9-41b2-8b6f-bde3675ec273;52.17091725;5.3688223725377;Amersfoort;nl;Utrecht;Noordwest-Nederland;good;garage;1;1070;1;2;1;1;Meander Medisch Centrum
2062;Garage P6 Rijnkade (Utrecht);https://npropendata.rdw.nl//parkingdata/v2/static/70abd541-a025-4b29-b99c-0a96a6f23a06;https://opendata.technolution.nl/opendata/parkingdata/v1/dynamic/70abd541-a025-4b29-b99c-0a96a6f23a06;0;70abd541-a025-4b29-b99c-0a96a6f23a06;52.0902262;5.1148685;Utrecht;nl;Utrecht;Noordwest-Nederland;good;garage;1;368;1;1.95;1;1;Interparking
2063;Garage Triade (Assen);https://npropendata.rdw.nl//parkingdata/v2/static/f8c399b5-d519-45e2-aa59-20699f919522;;0;f8c399b5-d519-45e2-aa59-20699f919522;52.99753155;6.56059655;Assen;nl;Drenthe;Noord-Nederland;good;garage;1;560;1;2.1;1;1;Interparking
2064;Garage Springweg (Utrecht);https://npropendata.rdw.nl//parkingdata/v2/static/558ec6d7-e8e1-4683-8206-84e3f73caa6b;https://opendata.technolution.nl/opendata/parkingdata/v1/dynamic/558ec6d7-e8e1-4683-8206-84e3f73caa6b;0;558ec6d7-e8e1-4683-8206-84e3f73caa6b;52.088944492053;5.1201544669179;Utrecht;nl;Utrecht;Noordwest-Nederland;good;garage;1;409;1;2;1;1;Interparking
2065;Garage P5 Vredenburg (Utrecht);https://npropendata.rdw.nl//parkingdata/v2/static/552a9b88-f367-42ba-a429-0abdafd14886;https://opendata.technolution.nl/opendata/parkingdata/v1/dynamic/552a9b88-f367-42ba-a429-0abdafd14886;0;552a9b88-f367-42ba-a429-0abdafd14886;52.09166575;5.1138000123088;Utrecht;nl;Utrecht;Noordwest-Nederland;good;garage;1;1184;1;2;1;1;Interparking
2067;Garage Hoog Catharijne P2 (Utrecht);https://npropendata.rdw.nl//parkingdata/v2/static/c479f58b-1683-4321-adff-3e54ad468e59;https://opendata.technolution.nl/opendata/parkingdata/v1/dynamic/c479f58b-1683-4321-adff-3e54ad468e59;0;c479f58b-1683-4321-adff-3e54ad468e59;52.08937705;5.1133603091277;Utrecht;nl;Utrecht;Noordwest-Nederland;good;garage;1;318;1;1.95;1;1;Interparking
2070;Garage The Edge (Amsterdam);https://npropendata.rdw.nl//parkingdata/v2/static/b2511737-3129-42e8-88ce-0b8afbf6ceec;;0;b2511737-3129-42e8-88ce-0b8afbf6ceec;52.3371589;4.8620232828466;Amsterdam;nl;Noord-Holland;Noordwest-Nederland;good;garage;1;370;1;2;1;1;Interparking
2073;Terrein Maasplaza (Dordrecht);https://npropendata.rdw.nl//parkingdata/v2/static/df7c63de-122a-4aa7-a222-81e567386daa;;0;df7c63de-122a-4aa7-a222-81e567386daa;51.810275;4.6557142;Dordrecht;nl;Zuid-Holland;Zuidwest-Nederland;good;terrain;1;400;1;2.6;1;1;APCOA Parking
2074;Garage Parnassusweg (Amsterdam);https://npropendata.rdw.nl//parkingdata/v2/static/7f71b2b8-13a5-4be4-af85-fb6dbfb42706;;0;7f71b2b8-13a5-4be4-af85-fb6dbfb42706;52.339477272241;4.8684769375514;Amsterdam;nl;Noord-Holland;Noordwest-Nederland;good;terrain;1;100;1;4;1;1;ParkKing
2075;Garage Strand (Den Haag);https://npropendata.rdw.nl//parkingdata/v2/static/6f411bd5-e76b-449b-a390-bb7e5d7e1c0e;https://npropendata.rdw.nl//parkingdata/v2/dynamic/6f411bd5-e76b-449b-a390-bb7e5d7e1c0e;0;6f411bd5-e76b-449b-a390-bb7e5d7e1c0e;52.101434161077;4.2592454515867;Den Haag;nl;Zuid-Holland;Zuidwest-Nederland;good;garage;1;2030;1;1.9;1;1;BKS Parking
2098;Parkeergarage Fonteyne (Vlissingen);https://npropendata.rdw.nl//parkingdata/v2/static/34a37cf7-aeab-491a-b979-02639d8252ce;;0;34a37cf7-aeab-491a-b979-02639d8252ce;51.443233715289;3.5701334444664;Vlissingen;nl;Zeeland;Zuidwest-Nederland;good;garage;1;300;1;2.1;0;1;Vlissingen
2102;Garage De Barones (Breda);https://npropendata.rdw.nl//parkingdata/v2/static/c724ecc9-e6ae-42aa-b462-8ce7cf48912a;https://opendata.technolution.nl/opendata/parkingdata/v1/dynamic/c724ecc9-e6ae-42aa-b462-8ce7cf48912a;0;c724ecc9-e6ae-42aa-b462-8ce7cf48912a;51.5873699;4.7724653;Breda;nl;Noord-Brabant;Zuid-Nederland;good;garage;1;570;1;2;1;1;Breda
2110;P+R Station Deurne (Deurne);https://npropendata.rdw.nl//parkingdata/v2/static/ddfd4718-252f-453d-971c-214c87a37428;;0;ddfd4718-252f-453d-971c-214c87a37428;51.4578112;5.7855734;Deurne;nl;Noord-Brabant;Zuid-Nederland;good;park and ride;1;227;1;2.28;1;1;Deurne
2113;Garage De Hoge Wal (Rijssen);https://npropendata.rdw.nl//parkingdata/v2/static/7fa2efab-58d8-48df-a07f-b6a1b8b0c44a;;0;7fa2efab-58d8-48df-a07f-b6a1b8b0c44a;52.30622045;6.5192181160965;Rijssen-Holten;nl;Overijssel;Oost-Nederland;good;garage;1;150;1;1.8;1;1;Rijssen - Holten
2114;Garage Hoogvliet Centrum;https://npropendata.rdw.nl//parkingdata/v2/static/a4265c3c-b33d-4f83-973b-bf7eb97958e2;http://opendata.technolution.nl/opendata/parkingdata/v1/dynamic/a4265c3c-b33d-4f83-973b-bf7eb97958e2;0;a4265c3c-b33d-4f83-973b-bf7eb97958e2;51.8659938;4.358077;Rotterdam;nl;Zuid-Holland;Zuidwest-Nederland;good;garage;1;257;1;2.1;1;1;Rotterdam
2145;Garage Flowparking (Amsterdam);https://npropendata.rdw.nl//parkingdata/v2/static/ee50386d-0375-4a11-88c6-6c2ab1cabe0a;;0;ee50386d-0375-4a11-88c6-6c2ab1cabe0a;52.3401455;4.8936311;Amsterdam;nl;Noord-Holland;Noordwest-Nederland;good;garage;1;170;1;2;1;1;APCOA Parking
2146;Garage Victoriberg (Noordwijkerhout);https://npropendata.rdw.nl//parkingdata/v2/static/ed1e812a-cbdb-4df0-bd60-6e72c42d1b39;;0;ed1e812a-cbdb-4df0-bd60-6e72c42d1b39;52.2636462;4.4921392;Noordwijk;nl;Zuid-Holland;Zuidwest-Nederland;good;garage;1;200;1;2;1;1;Interparking
2147;Garage Station Leidschenveen Garage (Den Haag);https://npropendata.rdw.nl//parkingdata/v2/static/a6ec51a8-6739-4485-be5a-b10b12e4f2a6;;0;a6ec51a8-6739-4485-be5a-b10b12e4f2a6;52.0672556;4.3980793;Den Haag;nl;Zuid-Holland;Zuidwest-Nederland;good;garage;1;170;1;2.1;1;1;Interparking
2150;Carpool Geleen Neerbeek A76 (Neerbeek);https://npropendata.rdw.nl//parkingdata/v2/static/887a92a3-db4c-4dce-b2c9-7467ddf8ec36;;0;887a92a3-db4c-4dce-b2c9-7467ddf8ec36;50.9541108;5.8123761;Beek;nl;Limburg;Zuid-Nederland;good;carpool;1;16;1;2;1;1;Beek
2154;Garage 't Jeudje (Hoorn);https://npropendata.rdw.nl//parkingdata/v2/static/bc09b9a5-a929-4b13-bd54-3a92fc3b7b89;;0;bc09b9a5-a929-4b13-bd54-3a92fc3b7b89;52.642608;5.0634935;Hoorn;nl;Noord-Holland;Noordwest-Nederland;good;garage;1;220;0;2;1;1;InPublic Ventures B.V.
2155;Terrein Kloosterraderplein (Kerkrade);https://npropendata.rdw.nl//parkingdata/v2/static/528253b8-c64f-4139-893f-89af5f7bace1;;0;528253b8-c64f-4139-893f-89af5f7bace1;50.86592495;6.0652318530454;Kerkrade;nl;Limburg;Zuid-Nederland;good;terrain;1;84;1;2.6;1;1;Kerkrade
2180;Garage De Parade (Bergen op Zoom);https://npropendata.rdw.nl//parkingdata/v2/static/737ee0e7-a936-469e-9aa1-fa26e684b0b5;;0;737ee0e7-a936-469e-9aa1-fa26e684b0b5;51.4936471;4.292006;Bergen op Zoom;nl;Noord-Brabant;Zuid-Nederland;good;garage;1;400;1;2.5;1;1;Bergen op Zoom
2181;Garage Biggelaar (Roosendaal);https://npropendata.rdw.nl//parkingdata/v2/static/b7fd59d7-ef6e-4b8b-804d-42ba6bb98dbf;http://opendata.technolution.nl/opendata/parkingdata/v1/dynamic/b7fd59d7-ef6e-4b8b-804d-42ba6bb98dbf;0;b7fd59d7-ef6e-4b8b-804d-42ba6bb98dbf;51.5333416;4.4586306;Roosendaal;nl;Noord-Brabant;Zuid-Nederland;good;garage;1;375;1;2.1;1;1;Roosendaal
2183;Garage Liga (Roosendaal);https://npropendata.rdw.nl//parkingdata/v2/static/500f53b7-d700-4f9d-818b-72951caf4d40;http://opendata.technolution.nl/opendata/parkingdata/v1/dynamic/500f53b7-d700-4f9d-818b-72951caf4d40;0;500f53b7-d700-4f9d-818b-72951caf4d40;51.5304222;4.4521473;Roosendaal;nl;Noord-Brabant;Zuid-Nederland;good;garage;1;150;1;2.1;1;1;Roosendaal
2186;Garage Nieuwe Markt (Roosendaal);https://npropendata.rdw.nl//parkingdata/v2/static/02f38b89-a5a7-4df6-8e87-5de543d84440;http://opendata.technolution.nl/opendata/parkingdata/v1/dynamic/02f38b89-a5a7-4df6-8e87-5de543d84440;0;02f38b89-a5a7-4df6-8e87-5de543d84440;51.531257;4.4591518;Roosendaal;nl;Noord-Brabant;Zuid-Nederland;good;garage;1;520;1;2.1;1;1;Roosendaal
2232;Garage Asch van Wijckstraat (Amersfoort);https://npropendata.rdw.nl//parkingdata/v2/static/fb2c27c1-d0d0-45dc-a927-1e5d13ddb559;;0;fb2c27c1-d0d0-45dc-a927-1e5d13ddb559;52.1532863;5.3807877261535;Amersfoort;nl;Utrecht;Noordwest-Nederland;good;garage;1;440;0;1.9;1;1;P1
2235;Garage Arie van Hensbergen (Veenendaal);https://npropendata.rdw.nl//parkingdata/v2/static/d022d2fa-98e1-4623-b54a-bd01ee4eb6d6;;0;d022d2fa-98e1-4623-b54a-bd01ee4eb6d6;52.0283733;5.5600313;Veenendaal;nl;Utrecht;Noordwest-Nederland;good;garage;1;356;0;2;1;1;P1
2237;Garage AH Stadionplein;https://npropendata.rdw.nl//parkingdata/v2/static/1dec1004-25b2-4fc0-9e1e-1a72fa480643;;0;1dec1004-25b2-4fc0-9e1e-1a72fa480643;52.3448112;4.8585054;Amsterdam;nl;Noord-Holland;Noordwest-Nederland;good;garage;1;118;1;2.1;1;1;P1
2243;Garage Koningsplein (Tilburg);https://npropendata.rdw.nl//parkingdata/v2/static/9b0b1df4-ccce-4b4c-9fc6-f2cf8ccfd0cb;;0;9b0b1df4-ccce-4b4c-9fc6-f2cf8ccfd0cb;51.554261;5.090075;Tilburg;nl;Noord-Brabant;Zuid-Nederland;good;garage;1;450;1;1.9;0;1;P1
2247;Garage De Grijze Generaal (Eindhoven);https://npropendata.rdw.nl//parkingdata/v2/static/733120f4-051f-4c33-9180-8418a63dd14c;;0;733120f4-051f-4c33-9180-8418a63dd14c;51.4668764;5.4783074;Eindhoven;nl;Noord-Brabant;Zuid-Nederland;good;garage;1;344;0;2.1;1;1;P1
2256;Garage Markthal (Rotterdam);https://npropendata.rdw.nl//parkingdata/v2/static/c8131e4c-c497-49d0-9a30-9e7d3effd6ad;;0;c8131e4c-c497-49d0-9a30-9e7d3effd6ad;51.919687;4.4861338;Rotterdam;nl;Zuid-Holland;Zuidwest-Nederland;good;garage;1;1042;1;2.1;1;1;Interparking
2257;Garage Havenkwartier (Den Haag);https://npropendata.rdw.nl//parkingdata/v2/static/b87082bd-9a92-4377-af57-9579d4e558b9;;0;b87082bd-9a92-4377-af57-9579d4e558b9;52.0947187;4.2656665;Den Haag;nl;Zuid-Holland;Zuidwest-Nederland;good;garage;1;93;1;2.5;1;1;APCOA Parking
2259;Garage Bovenlangs (Zoetermeer);https://npropendata.rdw.nl//parkingdata/v2/static/efd0964c-d529-42b8-9002-2a5424015be2;;0;efd0964c-d529-42b8-9002-2a5424015be2;52.060935;4.4866957941121;Zoetermeer;nl;Zuid-Holland;Zuidwest-Nederland;good;garage;1;448;1;1.9;1;1;Interparking
2262;Garage Hoogstraat (Vlaardingen);https://npropendata.rdw.nl//parkingdata/v2/static/953eec27-3077-4c28-84df-0d4248d45b08;https://npropendata.rdw.nl//parkingdata/v2/dynamic/953eec27-3077-4c28-84df-0d4248d45b08;0;953eec27-3077-4c28-84df-0d4248d45b08;51.91132415;4.342909930836;Vlaardingen;nl;Zuid-Holland;Zuidwest-Nederland;good;garage;1;423;1;1.95;1;1;BKS Parking
2264;Parkeergarage Geer;https://npropendata.rdw.nl//parkingdata/v2/static/30bf4952-4122-4855-9916-124b992b3c78;;0;30bf4952-4122-4855-9916-124b992b3c78;51.421359992778;5.4035379305077;Veldhoven;nl;Noord-Brabant;Zuid-Nederland;good;garage;1;296;1;2.1;0;1;Veldhoven
2271;Garage Van Knobelsdorffplein (Drachten);https://npropendata.rdw.nl//parkingdata/v2/static/7225087f-a041-4d4c-940b-92d2113aab63;;0;7225087f-a041-4d4c-940b-92d2113aab63;53.1036161;6.0996292;Smallingerland;nl;Fryslân;Noord-Nederland;good;garage;1;285;1;2.1;1;1;Smallingerland
2285;Carpool Heerle A58 (Heerle);https://npropendata.rdw.nl//parkingdata/v2/static/005b3e89-8077-411d-ab4d-b9aab229acd1;;0;005b3e89-8077-411d-ab4d-b9aab229acd1;51.50823405;4.3608105169113;Bergen op Zoom;nl;Noord-Brabant;Zuid-Nederland;good;carpool;1;14;1;2;1;1;Roosendaal
2295;Marktgarage (Geleen);https://npropendata.rdw.nl//parkingdata/v2/static/90c58f86-8ed4-4389-b9af-0c24b4380357;http://opd.it-t.nl/Data/parkingdata/v1/sittard-geleen/dynamic/90c58f86-8ed4-4389-b9af-0c24b4380357.json;0;90c58f86-8ed4-4389-b9af-0c24b4380357;50.9706139;5.8274797;Geleen;nl;Limburg;Zuid-Nederland;good;garage;1;415;1;2.1;1;1;Sittard-Geleen
2313;Parkeergarage Stadspoort - BG;https://npropendata.rdw.nl//parkingdata/v2/static/cead9a79-430b-4b99-b37b-a98fa324a30a;;0;cead9a79-430b-4b99-b37b-a98fa324a30a;52.2559113;6.1525609;Deventer;nl;Overijssel;Oost-Nederland;good;garage;1;33;1;1.9;1;1;Deventer
2316;Garage Hooghuis (Eindhoven);https://npropendata.rdw.nl//parkingdata/v2/static/6b5f3ec8-7662-42ef-aeb9-0cd3518fda57;;0;6b5f3ec8-7662-42ef-aeb9-0cd3518fda57;51.437824068513;5.4762154904209;Eindhoven;nl;Noord-Brabant;Zuid-Nederland;good;garage;1;195;0;2.1;1;1;P1
2321;Garage St. Jorisplein (Amersfoort);https://npropendata.rdw.nl//parkingdata/v2/static/b354b409-976e-4db7-a5f2-9c812be9b718;https://npropendata.rdw.nl//parkingdata/v2/dynamic/b354b409-976e-4db7-a5f2-9c812be9b718;1;b354b409-976e-4db7-a5f2-9c812be9b718;52.155094;5.3845044;Amersfoort;nl;Utrecht;Noordwest-Nederland;good;garage;1;462;1;2;1;1;Q-Park Nederland BV
2322;Garage Zuidtangent (Heerhugowaard);https://npropendata.rdw.nl//parkingdata/v2/static/a37c03dd-a67f-4d35-9b73-4c7e08053a34;;0;a37c03dd-a67f-4d35-9b73-4c7e08053a34;52.664217703838;4.8304688052226;Heerhugowaard;nl;Noord-Holland;Noordwest-Nederland;good;garage;1;794;1;1.95;1;1;Interparking
2323;Sluisgarage (Almere Haven);https://npropendata.rdw.nl//parkingdata/v2/static/3de34454-d247-43d0-9dec-ba3f5bbde1ee;;0;3de34454-d247-43d0-9dec-ba3f5bbde1ee;52.3347129;5.2199661651527;Almere;nl;Flevoland;Noordwest-Nederland;good;garage;1;270;0;2.1;1;1;P1
2324;Garage Torenlaan (Assen);https://npropendata.rdw.nl//parkingdata/v2/static/3c879957-1959-48ba-b190-7b520fc4ca0d;;0;3c879957-1959-48ba-b190-7b520fc4ca0d;52.9930462;6.5613375;Assen;nl;Drenthe;Noord-Nederland;good;garage;1;246;1;1.95;1;1;Interparking
2329;Garage IJDock (Amsterdam);https://npropendata.rdw.nl//parkingdata/v2/static/9fa30f4e-d97e-4feb-bf03-c84aced00e73;;0;9fa30f4e-d97e-4feb-bf03-c84aced00e73;52.38468495;4.8941093298097;Amsterdam;nl;Noord-Holland;Noordwest-Nederland;good;garage;1;350;1;2.05;1;1;Interparking
2330;Garage UMCG Zuid (Groningen);https://npropendata.rdw.nl//parkingdata/v2/static/0e119572-94b9-44f2-b6fc-79abeeb82240;;0;0e119572-94b9-44f2-b6fc-79abeeb82240;53.22310875;6.57414025255;Groningen;nl;Groningen;Noord-Nederland;good;garage;1;1500;1;1.9;1;1;UMCG
2331;Garage Lammenschans (Leiden);https://npropendata.rdw.nl//parkingdata/v2/static/72acdbf7-98cf-40d3-84a9-4c9066c192da;;0;72acdbf7-98cf-40d3-84a9-4c9066c192da;52.1597947;4.4979902;Leiden;nl;Zuid-Holland;Zuidwest-Nederland;good;garage;1;350;1;2.05;1;1;ParkKing
2335;Garage Parade (Pijnacker-Nootdorp);https://npropendata.rdw.nl//parkingdata/v2/static/6b1f7b9a-ceb6-4a3f-afa7-59fafc684b00;;0;6b1f7b9a-ceb6-4a3f-afa7-59fafc684b00;52.0454657;4.3921523;Pijnacker-Nootdorp;nl;Zuid-Holland;Zuidwest-Nederland;good;garage;1;559;0;1.9;1;1;P1
2337;Garage Heinekenplein (Amsterdam);https://npropendata.rdw.nl//parkingdata/v2/static/eb79ab5a-abd5-4a48-8f6c-e21dbfe545d2;;0;eb79ab5a-abd5-4a48-8f6c-e21dbfe545d2;52.3573707;4.8926028;Amsterdam;nl;Noord-Holland;Noordwest-Nederland;good;garage;1;259;1;2;1;1;APCOA Parking
2339;Garage Overtoom (IJsselstein);https://npropendata.rdw.nl//parkingdata/v2/static/6e124261-46e7-48e0-a689-283f63965c9e;;0;6e124261-46e7-48e0-a689-283f63965c9e;52.0149722;5.0381514;IJsselstein;nl;Utrecht;Noordwest-Nederland;good;garage;1;225;1;1.8;0;1;ParkeerService
2343;P+R Getsewoud-Zuid (Nieuw-Vennep);https://npropendata.rdw.nl//parkingdata/v2/static/6cc31bc9-4c26-4496-883e-301e7a053543;;0;6cc31bc9-4c26-4496-883e-301e7a053543;52.260439435338;4.6054999328427;Haarlemmermeer;nl;Noord-Holland;Noordwest-Nederland;good;park and ride;1;100;1;1.9;1;1;Haarlemmermeer
2384;Parkeergarage Emmawijk - Kelder;https://npropendata.rdw.nl//parkingdata/v2/static/7f0f42aa-bdbb-44de-a2a1-9e06ad4a8b65;;0;7f0f42aa-bdbb-44de-a2a1-9e06ad4a8b65;52.5096131;6.0864272;Zwolle;nl;Overijssel;Oost-Nederland;good;garage;1;100;1;1.9;1;1;Zwolle
2420;Parkeergarage Noordereiland - Kelder (Zwolle);https://npropendata.rdw.nl//parkingdata/v2/static/7397d2c5-d5ad-44d7-8200-49a01fbff508;;0;7397d2c5-d5ad-44d7-8200-49a01fbff508;52.5154992;6.0956669;Zwolle;nl;Overijssel;Oost-Nederland;good;garage;1;340;1;1.9;1;1;Zwolle
2427;Terrein De Zuid (Zandvoort);https://npropendata.rdw.nl//parkingdata/v2/static/6febe6b8-4eed-4a79-87ec-3f5ce8857cc4;;0;6febe6b8-4eed-4a79-87ec-3f5ce8857cc4;52.3658213;4.5208384;Zandvoort;nl;Noord-Holland;Noordwest-Nederland;good;terrain;1;1750;1;2.1;1;1;Zandvoort
2428;Garage Centrum (LDC) (Zandvoort);https://npropendata.rdw.nl//parkingdata/v2/static/1615a75c-2d37-4743-8b3e-41f5e05bb613;;0;1615a75c-2d37-4743-8b3e-41f5e05bb613;52.3712983;4.5324202;Zandvoort;nl;Noord-Holland;Noordwest-Nederland;good;garage;1;390;0;2.1;1;1;Zandvoort
2451;Parkeerdak Aarhof;https://npropendata.rdw.nl//parkingdata/v2/static/6d8e8e54-a9c8-4d29-905a-085cef77e9ba;;0;6d8e8e54-a9c8-4d29-905a-085cef77e9ba;52.1299553;4.6651617;Alphen aan den Rijn;nl;Zuid-Holland;Zuidwest-Nederland;good;garage;1;365;1;2;1;1;Alphen aan den Rijn
2459;Garage Veemarkt (Dordrecht);https://npropendata.rdw.nl//parkingdata/v2/static/1558c63d-0d97-40f3-9a0f-5f11e65875d7;;0;1558c63d-0d97-40f3-9a0f-5f11e65875d7;51.8111203;4.6644385940563;Dordrecht;nl;Zuid-Holland;Zuidwest-Nederland;good;garage;1;680;1;2;1;1;Dordrecht
2460;Garage Sportboulevard (Dordrecht);https://npropendata.rdw.nl//parkingdata/v2/static/9db41fc3-238c-45aa-8dc5-f3c1ee7d73ab;;0;9db41fc3-238c-45aa-8dc5-f3c1ee7d73ab;51.79238635;4.6782270286614;Dordrecht;nl;Zuid-Holland;Zuidwest-Nederland;good;garage;1;675;1;2;0;1;Dordrecht
2504;P+R Transferium Barneveld-Noord (Barneveld);https://npropendata.rdw.nl//parkingdata/v2/static/a5f2a2aa-f0ad-4bfa-b46f-c76a7dd6385f;;0;a5f2a2aa-f0ad-4bfa-b46f-c76a7dd6385f;52.16211475;5.598302621122;Barneveld;nl;Gelderland;Oost-Nederland;good;park and ride;1;250;1;2.1;1;1;Barneveld
2524;P+R Park & Beach Scheveningen (Den Haag);https://npropendata.rdw.nl//parkingdata/v2/static/4d338e11-e012-4136-a99c-40f8a49caf87;;0;4d338e11-e012-4136-a99c-40f8a49caf87;52.0803649;4.3269472978158;Den Haag;nl;Zuid-Holland;Zuidwest-Nederland;good;park and ride;1;960;1;1.9;1;1;Den Haag
2563;Parkeergarage Struytse Hoeck;https://npropendata.rdw.nl//parkingdata/v2/static/9df2cc80-a389-4a27-925b-4e31af7e8830;;0;9df2cc80-a389-4a27-925b-4e31af7e8830;51.833998611293;4.1443957397815;Hellevoetsluis;nl;Zuid-Holland;Zuidwest-Nederland;good;garage;1;1700;1;1.9;1;1;Hellevoetsluis
2569;Haarlemmerstraat;https://npropendata.rdw.nl//parkingdata/v2/static/b738ecc8-8778-42bd-95f7-b21985a8bda9;;0;b738ecc8-8778-42bd-95f7-b21985a8bda9;52.1597947;4.4979902;Leiden;nl;Zuid-Holland;Zuidwest-Nederland;good;garage;1;270;1;1.9;1;1;Leiden
2601;Carpool IJsselmonde (Ridderkerk);https://npropendata.rdw.nl//parkingdata/v2/static/14988079-9c04-4617-b21b-3a7938252ac4;;0;14988079-9c04-4617-b21b-3a7938252ac4;51.86927095;4.5539115493783;Ridderkerk;nl;Zuid-Holland;Zuidwest-Nederland;good;carpool;1;150;1;2;1;1;Ridderkerk
2609;Kop van Lombok;https://npropendata.rdw.nl//parkingdata/v2/static/708c8b22-b3b3-43cb-90e9-7dd6b4219b43;;0;708c8b22-b3b3-43cb-90e9-7dd6b4219b43;52.0924876;5.1038286;Utrecht;nl;Utrecht;Noordwest-Nederland;good;garage;1;230;1;2;1;1;Utrecht
2610;Croeselaan;https://npropendata.rdw.nl//parkingdata/v2/static/7b81ab5b-e577-43ca-8701-b76b17ba7963;;0;7b81ab5b-e577-43ca-8701-b76b17ba7963;52.087355618125;5.1067019421656;Utrecht;nl;Utrecht;Noordwest-Nederland;good;garage;1;778;1;2.1;0;1;Utrecht
2635;P+R Kralingse Zoom (Rotterdam);https://npropendata.rdw.nl//parkingdata/v2/static/cbf81a2f-235b-409a-8b96-eaa8c249a735;;0;cbf81a2f-235b-409a-8b96-eaa8c249a735;51.9231434;4.5347007630063;Rotterdam;nl;Zuid-Holland;Zuidwest-Nederland;good;park and ride;1;1700;1;2.1;1;1;Rotterdam
2644;Garage Plein 1953 (Rotterdam);https://npropendata.rdw.nl//parkingdata/v2/static/09070424-2dd4-43e7-becc-3ca791bf8197;;0;09070424-2dd4-43e7-becc-3ca791bf8197;51.874507;4.468089;Rotterdam;nl;Zuid-Holland;Zuidwest-Nederland;good;garage;1;69;1;2.1;1;1;Rotterdam
2646;Parkeergarage Karperton;https://npropendata.rdw.nl//parkingdata/v2/static/c06e8266-5df0-411e-8b7d-3027530f2661;;0;c06e8266-5df0-411e-8b7d-3027530f2661;52.6323009;4.7518149;Alkmaar;nl;Noord-Holland;Noordwest-Nederland;good;garage;1;439;1;2;1;1;Alkmaar
2648;Parkeergarage Vest;https://npropendata.rdw.nl//parkingdata/v2/static/e7f0ddfb-8b9f-4f47-a274-076807a63a5b;;0;e7f0ddfb-8b9f-4f47-a274-076807a63a5b;52.634197419007;4.7451385776811;Alkmaar;nl;Noord-Holland;Noordwest-Nederland;good;garage;1;143;1;2;1;1;Alkmaar
2649;Parkeergarage Kanaalschiereiland;https://npropendata.rdw.nl//parkingdata/v2/static/1cad8786-d4e9-46fa-b5f8-8bb517772d6c;;1;1cad8786-d4e9-46fa-b5f8-8bb517772d6c;52.63530075;4.7468018079098;Alkmaar;nl;Noord-Holland;Noordwest-Nederland;good;garage;1;353;1;2;1;1;Alkmaar
2650;Parkeergarage De Kazerne;https://npropendata.rdw.nl//parkingdata/v2/static/29aea386-858e-4190-b4f8-40a51d81a02c;;1;29aea386-858e-4190-b4f8-40a51d81a02c;52.6372238;4.7462426;Alkmaar;nl;Noord-Holland;Noordwest-Nederland;good;garage;1;87;1;2;1;1;Alkmaar
2651;Parkeergarage Schelphoek;https://npropendata.rdw.nl//parkingdata/v2/static/b782966b-1bbc-4176-80ab-7cd897f7df8a;;1;b782966b-1bbc-4176-80ab-7cd897f7df8a;52.6273043;4.7536632;Alkmaar;nl;Noord-Holland;Noordwest-Nederland;good;garage;1;495;1;2.1;1;1;Alkmaar
2663;Garage Benthuizerstraat;https://npropendata.rdw.nl//parkingdata/v2/static/84bd2d72-5a20-41d5-b91d-dd7e5c1311b9;;0;84bd2d72-5a20-41d5-b91d-dd7e5c1311b9;51.9366296;4.4803685;Rotterdam;nl;Zuid-Holland;Zuidwest-Nederland;good;garage;1;135;1;1.9;1;1;Rotterdam
2665;Garage Boulevard Zuid;https://npropendata.rdw.nl//parkingdata/v2/static/a10e2ad5-982b-452e-b54c-b668d74caba7;;0;a10e2ad5-982b-452e-b54c-b668d74caba7;51.8963689;4.5094963;Rotterdam;nl;Zuid-Holland;Zuidwest-Nederland;good;garage;1;189;1;1.9;1;1;Rotterdam
2666;Garage Mathenesserplein;https://npropendata.rdw.nl//parkingdata/v2/static/00001592-a190-4710-b704-a2f1820ad7cc;;0;00001592-a190-4710-b704-a2f1820ad7cc;51.91551235;4.4500756781695;Rotterdam;nl;Zuid-Holland;Zuidwest-Nederland;good;garage;1;156;1;2.1;1;1;Rotterdam
2667;Garage Nieuwe Binnenweg;https://npropendata.rdw.nl//parkingdata/v2/static/74507562-40f3-4fdd-a55b-782d71313489;;0;74507562-40f3-4fdd-a55b-782d71313489;51.91551235;4.4500756781695;Rotterdam;nl;Zuid-Holland;Zuidwest-Nederland;good;garage;1;115;1;1.9;1;1;Rotterdam
2668;Garage De Boompjes;https://npropendata.rdw.nl//parkingdata/v2/static/9386ab02-ee17-4fd7-9580-93115e203a31;http://opendata.technolution.nl/opendata/parkingdata/v1/dynamic/9386ab02-ee17-4fd7-9580-93115e203a31;0;9386ab02-ee17-4fd7-9580-93115e203a31;51.9137633;4.4851717;Rotterdam;nl;Zuid-Holland;Zuidwest-Nederland;good;garage;1;632;1;1.9;1;1;Rotterdam
2669;Garage Lusthofstraat;https://npropendata.rdw.nl//parkingdata/v2/static/22cad175-3582-4607-9bf7-06ac7b026f6f;;0;22cad175-3582-4607-9bf7-06ac7b026f6f;51.9251228;4.5093174;Rotterdam;nl;Zuid-Holland;Zuidwest-Nederland;good;garage;1;217;1;2.1;1;1;Rotterdam
2671;Garage P18 HES/ROC (Amsterdam);https://npropendata.rdw.nl//parkingdata/v2/static/3fe787de-79f6-4cf8-b076-0bfcb6bbe6e8;;0;3fe787de-79f6-4cf8-b076-0bfcb6bbe6e8;52.315210992052;4.946254404412;Amsterdam;nl;Noord-Holland;Noordwest-Nederland;good;garage;1;291;1;1.9;1;1;Amsterdam
2673;Garage Erasmusbrug;https://npropendata.rdw.nl//parkingdata/v2/static/b702aa0d-1392-4b9c-a158-5ead5179f9ad;http://opendata.technolution.nl/opendata/parkingdata/v1/dynamic/b702aa0d-1392-4b9c-a158-5ead5179f9ad;0;b702aa0d-1392-4b9c-a158-5ead5179f9ad;51.910403502241;4.4838105284345;Rotterdam;nl;Zuid-Holland;Zuidwest-Nederland;good;garage;1;327;1;1.9;1;1;Rotterdam
2675;Garage Museumpark;https://npropendata.rdw.nl//parkingdata/v2/static/ac1a8242-ea7d-48ff-8935-9fbe07691d77;http://opendata.technolution.nl/opendata/parkingdata/v1/dynamic/ac1a8242-ea7d-48ff-8935-9fbe07691d77;0;ac1a8242-ea7d-48ff-8935-9fbe07691d77;51.9126701;4.4714203778966;Rotterdam;nl;Zuid-Holland;Zuidwest-Nederland;good;garage;1;1162;1;2.1;1;1;Rotterdam
2679;Dome-garage (Amsterdam);https://npropendata.rdw.nl//parkingdata/v2/static/9d21d7de-e982-43e0-a56d-de606abece4e;;0;9d21d7de-e982-43e0-a56d-de606abece4e;52.35889285;4.8339806344241;Amsterdam;nl;Noord-Holland;Noordwest-Nederland;good;garage;1;550;1;2.1;1;1;Amsterdam
2680;Garage Oude Haven;https://npropendata.rdw.nl//parkingdata/v2/static/4988115d-7c6e-4a4a-bd9d-5605e692c2cb;http://opendata.technolution.nl/opendata/parkingdata/v1/dynamic/4988115d-7c6e-4a4a-bd9d-5605e692c2cb;0;4988115d-7c6e-4a4a-bd9d-5605e692c2cb;51.9209656;4.4929149;Rotterdam;nl;Zuid-Holland;Zuidwest-Nederland;good;garage;1;229;1;1.9;1;1;Rotterdam
2702;Garage Markenhoven (Amsterdam);https://npropendata.rdw.nl//parkingdata/v2/static/16d1d783-3a53-4b62-9a69-a44993a10211;;0;16d1d783-3a53-4b62-9a69-a44993a10211;52.3697322;4.9087342;Amsterdam;nl;Noord-Holland;Noordwest-Nederland;good;garage;1;352;1;2;1;1;Amsterdam
2718;Garage Achter de Houttuinen (Middelburg);https://npropendata.rdw.nl//parkingdata/v2/static/fc719edc-8056-4422-9655-444c2eabc24e;;0;fc719edc-8056-4422-9655-444c2eabc24e;51.4980307;3.6060894;Middelburg;nl;Zeeland;Zuidwest-Nederland;good;garage;1;80;1;2.1;1;1;Middelburg
2723;Carpool Meerkerk (Meerkerk);https://npropendata.rdw.nl//parkingdata/v2/static/2ccdc7e7-6b44-4454-b08a-d8f6f35c2209;;0;2ccdc7e7-6b44-4454-b08a-d8f6f35c2209;51.899656002549;4.9840299834418;Vijfheerenlanden;nl;Utrecht;Noordwest-Nederland;good;carpool;1;82;1;2.4;1;1;Giessenlanden
2730;Garage Theaterplein (Terneuzen);https://npropendata.rdw.nl//parkingdata/v2/static/9eb9e7cb-0991-4b37-9fac-599f875da081;;0;9eb9e7cb-0991-4b37-9fac-599f875da081;51.33954415;3.823511355086;Terneuzen;nl;Zeeland;Zuidwest-Nederland;good;garage;1;228;1;1.9;1;1;Terneuzen
2748;Garage Concordiastraat (Breda);https://npropendata.rdw.nl//parkingdata/v2/static/c22bc535-e3cb-41e6-a4aa-0870f94ee478;https://opendata.technolution.nl/opendata/parkingdata/v1/dynamic/c22bc535-e3cb-41e6-a4aa-0870f94ee478;0;c22bc535-e3cb-41e6-a4aa-0870f94ee478;51.584334;4.7755108;Breda;nl;Noord-Brabant;Zuid-Nederland;good;garage;1;455;1;1.8;1;1;Breda
2750;Garage Chasséparking (Breda);https://npropendata.rdw.nl//parkingdata/v2/static/4498b82f-6da9-4887-b2a1-be921341d1d0;https://opendata.technolution.nl/opendata/parkingdata/v1/dynamic/4498b82f-6da9-4887-b2a1-be921341d1d0;0;4498b82f-6da9-4887-b2a1-be921341d1d0;51.5863923;4.7842316;Breda;nl;Noord-Brabant;Zuid-Nederland;good;garage;1;620;1;2;1;1;Breda
2762;Garage City (Helmond);https://npropendata.rdw.nl//parkingdata/v2/static/20f005f9-d7e9-47d6-8039-81b8381b1b33;;0;20f005f9-d7e9-47d6-8039-81b8381b1b33;51.4817436;5.6558058549971;Helmond;nl;Noord-Brabant;Zuid-Nederland;good;garage;1;172;1;1.9;1;1;Helmond
2797;P+R Berkel Westpolder (Berkel en Rodenrijs);https://npropendata.rdw.nl//parkingdata/v2/static/325883cf-684f-45df-8f82-6018443673ff;;0;325883cf-684f-45df-8f82-6018443673ff;51.9901861;4.4539715221362;Lansingerland;nl;Zuid-Holland;Zuidwest-Nederland;good;park and ride;1;177;1;2.1;1;1;Lansingerland
2816;Garage Corbulo (Leidschendam-Voorburg);https://npropendata.rdw.nl//parkingdata/v2/static/f767423d-001f-4775-8e45-c12b22dc7b6e;;0;f767423d-001f-4775-8e45-c12b22dc7b6e;52.07545245;4.3609698206884;Leidschendam-Voorburg;nl;Zuid-Holland;Zuidwest-Nederland;good;garage;1;73;1;2.1;1;1;Leidschendam-Voorburg
2817;P+R Spijkenisse De Akkers (Spijkenisse);https://npropendata.rdw.nl//parkingdata/v2/static/eb647bc4-cf9f-4031-8c82-4e59d7d2f0b6;;0;eb647bc4-cf9f-4031-8c82-4e59d7d2f0b6;51.832998130937;4.3177159271528;Nissewaard;nl;Zuid-Holland;Zuidwest-Nederland;good;park and ride;1;326;1;2;1;1;Nissewaard
2846;Garage Middenweg (Heerhugowaard);https://npropendata.rdw.nl//parkingdata/v2/static/c2bdc402-ecf6-4732-97ab-cfd8abb65a33;;0;c2bdc402-ecf6-4732-97ab-cfd8abb65a33;52.66192448827;4.8308332987026;Heerhugowaard;nl;Noord-Holland;Noordwest-Nederland;good;garage;1;551;1;2.1;1;1;Interparking
2848;Garage Mercurius (Assen);https://npropendata.rdw.nl//parkingdata/v2/static/6dfeb5d2-64c7-4b84-9f74-c5b2eb578d3d;;0;6dfeb5d2-64c7-4b84-9f74-c5b2eb578d3d;52.9964766;6.5586878;Assen;nl;Drenthe;Noord-Nederland;good;garage;1;288;1;1.95;1;1;Interparking
2850;Garage Kruiskade (Rotterdam);https://npropendata.rdw.nl//parkingdata/v2/static/5599078d-a764-44e4-8754-4ac9d1553354;;0;5599078d-a764-44e4-8754-4ac9d1553354;51.9230019;4.4763144;Rotterdam;nl;Zuid-Holland;Zuidwest-Nederland;good;garage;1;275;1;1.9;1;1;Interparking
2852;Garage Level (Leiden);https://npropendata.rdw.nl//parkingdata/v2/static/86180a13-432f-479d-998f-40b74ff00afd;;0;86180a13-432f-479d-998f-40b74ff00afd;52.166707754187;4.4807689053151;Leiden;nl;Zuid-Holland;Zuidwest-Nederland;good;garage;1;331;1;1.9;1;1;ParkKing
2854;Garage Ziekenhuis Gelderse Vallei (Ede);https://npropendata.rdw.nl//parkingdata/v2/static/0c54053c-5744-4246-bdf0-f8bc0472613e;;0;0c54053c-5744-4246-bdf0-f8bc0472613e;52.0217178;5.6472630576857;Ede;nl;Gelderland;Oost-Nederland;good;garage;1;1350;1;2.1;1;1;Parking + Protection
2855;Garage Middenweg (Amsterdam);https://npropendata.rdw.nl//parkingdata/v2/static/f4b9fb6b-6412-46cf-96c9-382abd899d00;;0;f4b9fb6b-6412-46cf-96c9-382abd899d00;52.353367;4.931566;Amsterdam;nl;Noord-Holland;Noordwest-Nederland;good;garage;1;90;1;1.9;1;1;ParkKing
2856;Garage MediaMarkt (Doetinchem);https://npropendata.rdw.nl//parkingdata/v2/static/09e967ff-41f7-4849-861b-60921f0a1521;;0;09e967ff-41f7-4849-861b-60921f0a1521;51.9683327;6.288752;Doetinchem;nl;Gelderland;Oost-Nederland;good;garage;1;182;1;2.1;1;1;Parking + Protection
2857;Garage Velperpoort (Arnhem);https://npropendata.rdw.nl//parkingdata/v2/static/30c0e701-c2c6-4a19-abd4-6fe053d8a3ed;;0;30c0e701-c2c6-4a19-abd4-6fe053d8a3ed;51.9850477;5.9189841;Arnhem;nl;Gelderland;Oost-Nederland;good;garage;1;125;1;1.8;1;1;Velperpoort BV
2858;Garage Noordeinde (Den Haag);https://npropendata.rdw.nl//parkingdata/v2/static/af4fca5b-cf00-4cee-bec7-8ebb78c43e3d;;0;af4fca5b-cf00-4cee-bec7-8ebb78c43e3d;52.0808997;4.308345;Den Haag;nl;Zuid-Holland;Zuidwest-Nederland;good;garage;1;87;1;1.9;1;1;APCOA Parking
2859;Garage Geuzenpoort (Amsterdam);https://npropendata.rdw.nl//parkingdata/v2/static/4ef99de8-c94d-4bb0-bc8f-8899df26548d;;0;4ef99de8-c94d-4bb0-bc8f-8899df26548d;52.3785941;4.8007961;Amsterdam;nl;Noord-Holland;Noordwest-Nederland;good;garage;1;90;1;2;1;1;ParkKing
2860;Garage Wolfsberg (Deurne);https://npropendata.rdw.nl//parkingdata/v2/static/9d0e77ba-fb27-4c26-a568-f087a189dce1;;0;9d0e77ba-fb27-4c26-a568-f087a189dce1;51.4620477;5.795334;Deurne;nl;Noord-Brabant;Zuid-Nederland;good;garage;1;361;1;1.95;1;1;ParkKing
2861;Garage Baronie (Alphen aan den Rijn);https://npropendata.rdw.nl//parkingdata/v2/static/b0224ee0-1102-4eea-a98f-b17625b386b5;;0;b0224ee0-1102-4eea-a98f-b17625b386b5;52.135472200518;4.6512569682485;Alphen aan den Rijn;nl;Zuid-Holland;Zuidwest-Nederland;good;garage;1;450;1;2;1;1;ParkKing
2874;RUNUMC P2 vLeydenlaan;https://npropendata.rdw.nl//parkingdata/v2/static/cba8da27-10e4-4683-8d09-93e961fa9c0a;;0;cba8da27-10e4-4683-8d09-93e961fa9c0a;51.8245509;5.857432730082;Nijmegen;nl;Gelderland;Oost-Nederland;good;terrain;1;260;1;2.1;1;1;Nijmegen
2876;P5 Parkeergarage Mariënburg;https://npropendata.rdw.nl//parkingdata/v2/static/deb8f7da-0864-4019-8715-53ca185efc42;http://opendata.technolution.nl/opendata/parkingdata/v1/dynamic/deb8f7da-0864-4019-8715-53ca185efc42;0;deb8f7da-0864-4019-8715-53ca185efc42;51.8447524;5.865963;Nijmegen;nl;Gelderland;Oost-Nederland;good;garage;1;300;1;2;1;1;Nijmegen
2900;P+R Zeeburg 2 (Amsterdam);https://npropendata.rdw.nl//parkingdata/v2/static/1c770197-5e7b-455b-86f9-4137651c4319;;0;1c770197-5e7b-455b-86f9-4137651c4319;52.37013845;4.9644518508884;Amsterdam;nl;Noord-Holland;Noordwest-Nederland;good;park and ride;1;400;1;1.9;1;1;Amsterdam
2902;Garage P4 Villa ArenA (Amsterdam);https://npropendata.rdw.nl//parkingdata/v2/static/43878fed-4dbf-4aef-a2b9-80168d11b5aa;;0;43878fed-4dbf-4aef-a2b9-80168d11b5aa;52.3116299;4.9392329;Amsterdam;nl;Noord-Holland;Noordwest-Nederland;good;garage;1;1248;1;1.9;1;1;Amsterdam
2905;Garage Zoomstraat;https://npropendata.rdw.nl//parkingdata/v2/static/b8698d40-1736-4e76-8686-038b2bc5c170;;0;b8698d40-1736-4e76-8686-038b2bc5c170;51.9376608;4.4801369;Rotterdam;nl;Zuid-Holland;Zuidwest-Nederland;good;garage;1;94;1;1.9;1;1;Rotterdam
2908;Garage Veranda;https://npropendata.rdw.nl//parkingdata/v2/static/87bc4887-6bd5-4882-9510-dac0bcd544bb;;0;87bc4887-6bd5-4882-9510-dac0bcd544bb;51.8967816;4.5277232423872;Rotterdam;nl;Zuid-Holland;Zuidwest-Nederland;good;garage;1;589;1;2.1;1;1;Rotterdam
2915;Garage Willemspoort (Amsterdam);https://npropendata.rdw.nl//parkingdata/v2/static/5f58e5ac-d811-4d20-a3e2-660a4809c537;;0;5f58e5ac-d811-4d20-a3e2-660a4809c537;52.3849709;4.884525;Amsterdam;nl;Noord-Holland;Noordwest-Nederland;good;garage;1;109;1;2.1;1;1;Amsterdam
2964;Parkeergarage Scheldeplein (Vlissingen);https://npropendata.rdw.nl//parkingdata/v2/static/32820350-3c02-4c2e-b26a-d3bb52170998;;0;32820350-3c02-4c2e-b26a-d3bb52170998;51.4444293;3.5791052860903;Vlissingen;nl;Zeeland;Zuidwest-Nederland;good;garage;1;275;1;1.85;1;1;Vlissingen
2996;Parkeergarage Paleiskwartier;https://npropendata.rdw.nl//parkingdata/v2/static/88f214e0-36e0-49d3-b6d1-f73b1413cd12;;0;88f214e0-36e0-49d3-b6d1-f73b1413cd12;51.6893546;5.2897779;'s-Hertogenbosch;nl;Noord-Brabant;Zuid-Nederland;good;garage;1;1059;0;1.9;1;1;'s-Hertogenbosch
3037;Garage Boschplein;https://npropendata.rdw.nl//parkingdata/v2/static/ac5b0e97-4a1f-4ea5-a041-1c00cf063ec9;;0;ac5b0e97-4a1f-4ea5-a041-1c00cf063ec9;53.0276483;5.6585106;Súdwest-Fryslân;nl;Fryslân;Noord-Nederland;good;garage;1;470;1;2.5;0;1;Súdwest-Fryslân
3039;Garage Odaparking (Sittard);https://npropendata.rdw.nl//parkingdata/v2/static/83ee26c4-7904-4920-b243-8d6a96016600;;0;83ee26c4-7904-4920-b243-8d6a96016600;51.0003201;5.8677848;Sittard;nl;Limburg;Zuid-Nederland;good;garage;1;640;1;2.2;1;1;Sittard-Geleen
3049;Stationsplein;https://npropendata.rdw.nl//parkingdata/v2/static/45434989-3252-4c85-8731-c856b02c390c;https://opendata.technolution.nl/opendata/parkingdata/v1/dynamic/45434989-3252-4c85-8731-c856b02c390c;0;45434989-3252-4c85-8731-c856b02c390c;52.256281592883;6.1614458772662;Deventer;nl;Overijssel;Oost-Nederland;good;garage;1;165;1;2;1;1;Deventer
3052;Garage Koninckshoek (Den Helder);https://npropendata.rdw.nl//parkingdata/v2/static/e221a563-9218-41e4-a9d6-7237a58c2927;;0;e221a563-9218-41e4-a9d6-7237a58c2927;52.9606096;4.7617864;Den Helder;nl;Noord-Holland;Noordwest-Nederland;good;garage;1;120;0;2;1;1;P1
3062;Garage IJburg (Amsterdam);https://npropendata.rdw.nl//parkingdata/v2/static/fcaa1a21-fe88-4d6d-b60d-bf9f9c110e4f;;0;fcaa1a21-fe88-4d6d-b60d-bf9f9c110e4f;52.35530525;4.9967135149671;Amsterdam;nl;Noord-Holland;Noordwest-Nederland;good;garage;1;281;1;2.1;1;1;Interparking
3063;Garage Amsterdamstraat (Zoetermeer);https://npropendata.rdw.nl//parkingdata/v2/static/0ef495a4-fec5-4777-a8b3-e9155a6ca547;;0;0ef495a4-fec5-4777-a8b3-e9155a6ca547;52.0607432;4.4908664010346;Zoetermeer;nl;Zuid-Holland;Zuidwest-Nederland;good;garage;1;495;1;1.9;1;1;Interparking
3064;Garage De Nieuwe Kolk (Assen);https://npropendata.rdw.nl//parkingdata/v2/static/1053469b-3c7c-4a2c-b57f-9a8393c6e5ea;;0;1053469b-3c7c-4a2c-b57f-9a8393c6e5ea;52.9953681;6.5573699;Assen;nl;Drenthe;Noord-Nederland;good;garage;1;500;1;2.25;1;1;Interparking
3065;Garage ABC (Schiedam);https://npropendata.rdw.nl//parkingdata/v2/static/8320527a-5823-4dd5-9473-13eca65a3968;;0;8320527a-5823-4dd5-9473-13eca65a3968;51.9187149;4.4012203;Schiedam;nl;Zuid-Holland;Zuidwest-Nederland;good;garage;1;325;1;2.05;1;1;Interparking
3066;Garage Badhuisstraat (Den Haag);https://npropendata.rdw.nl//parkingdata/v2/static/fe96d489-8384-4977-bc3b-33e40572dfb3;;0;fe96d489-8384-4977-bc3b-33e40572dfb3;52.10232175;4.2764425446905;Den Haag;nl;Zuid-Holland;Zuidwest-Nederland;good;garage;1;92;1;2;1;1;BKS Parking
3068;Garage De Loodsen (Amsterdam);https://npropendata.rdw.nl//parkingdata/v2/static/0192291b-810a-4045-a6fe-7b312f630b33;;0;0192291b-810a-4045-a6fe-7b312f630b33;52.3762775;4.9251409;Amsterdam;nl;Noord-Holland;Noordwest-Nederland;good;garage;1;446;1;2;1;1;APCOA Parking
3069;Garage Eudokiaplein (Rotterdam);https://npropendata.rdw.nl//parkingdata/v2/static/f3795fbd-2475-4716-9fbf-119c7336ce2d;;0;f3795fbd-2475-4716-9fbf-119c7336ce2d;51.93286965;4.4709288858419;Rotterdam;nl;Zuid-Holland;Zuidwest-Nederland;good;garage;1;220;1;1.9;1;1;ParkKing
3070;Garage Museum Quarter;https://npropendata.rdw.nl//parkingdata/v2/static/dd2b3e90-3e2c-454d-98cc-de8ba3e18a32;;0;dd2b3e90-3e2c-454d-98cc-de8ba3e18a32;52.35523165;4.8857571000948;Amsterdam;nl;Noord-Holland;Noordwest-Nederland;good;garage;1;72;1;1.9;1;1;ParkKing
3071;Garage Keijzershof (Pijnacker-Nootdorp);https://npropendata.rdw.nl//parkingdata/v2/static/96efe581-b233-4d3a-bbdf-a2e0debdef98;;0;96efe581-b233-4d3a-bbdf-a2e0debdef98;52.0038146;4.4427119;Pijnacker-Nootdorp;nl;Zuid-Holland;Zuidwest-Nederland;good;garage;1;115;1;2.1;1;1;ParkKing
3072;Garage Bigshops (Rotterdam);https://npropendata.rdw.nl//parkingdata/v2/static/5516a177-0618-4ba8-8ad8-58e694c12631;;0;5516a177-0618-4ba8-8ad8-58e694c12631;51.90871835;4.4379768362206;Rotterdam;nl;Zuid-Holland;Zuidwest-Nederland;good;garage;1;750;1;2.1;1;1;Interparking
3073;Garage Liesveld (Vlaardingen);https://npropendata.rdw.nl//parkingdata/v2/static/226e334b-3fdd-4aaa-bddf-a6b10a3c98ee;https://npropendata.rdw.nl//parkingdata/v2/dynamic/226e334b-3fdd-4aaa-bddf-a6b10a3c98ee;0;226e334b-3fdd-4aaa-bddf-a6b10a3c98ee;51.9108776;4.3372722;Vlaardingen;nl;Zuid-Holland;Zuidwest-Nederland;good;garage;1;398;1;2;1;1;BKS Parking
3075;Garage Grote Kerk (Alkmaar);https://npropendata.rdw.nl//parkingdata/v2/static/46c2167d-7d65-4e5f-9e3e-6d625aa8c7b6;;0;46c2167d-7d65-4e5f-9e3e-6d625aa8c7b6;52.6323242;4.7427177;Alkmaar;nl;Noord-Holland;Noordwest-Nederland;good;garage;1;86;1;1.9;1;1;APCOA Parking
3076;Garage Geelvinck (Amsterdam);https://npropendata.rdw.nl//parkingdata/v2/static/7f728d4a-3ef0-4a7e-941f-f407ae2b464f;;0;7f728d4a-3ef0-4a7e-941f-f407ae2b464f;52.36649655;4.8919485211745;Amsterdam;nl;Noord-Holland;Noordwest-Nederland;good;garage;1;60;1;1.95;1;1;APCOA Parking
3077;Garage Visstraat (Dordrecht);https://npropendata.rdw.nl//parkingdata/v2/static/10069523-8d88-4c20-9810-53b791b47007;;0;10069523-8d88-4c20-9810-53b791b47007;51.8138507;4.6658262;Dordrecht;nl;Zuid-Holland;Zuidwest-Nederland;good;garage;1;172;1;2.05;1;1;APCOA Parking
3078;Garage Prins & Keizer (Amsterdam);https://npropendata.rdw.nl//parkingdata/v2/static/92871f2d-d779-418c-a07f-888a87447539;;0;92871f2d-d779-418c-a07f-888a87447539;52.36317885;4.8917709145276;Amsterdam;nl;Noord-Holland;Noordwest-Nederland;good;garage;1;140;1;1.7;1;1;APCOA Parking
3079;Garage Kalverstraat (Amsterdam);https://npropendata.rdw.nl//parkingdata/v2/static/1fc4f305-8d3f-4626-af10-a145c5834554;;0;1fc4f305-8d3f-4626-af10-a145c5834554;52.36747245;4.8916141814809;Amsterdam;nl;Noord-Holland;Noordwest-Nederland;good;garage;1;130;1;1.9;1;1;ParkKing
3080;Garage Kurhaus (Den Haag);https://npropendata.rdw.nl//parkingdata/v2/static/2e7daa83-19e3-4133-8d57-3911d7681d40;https://npropendata.rdw.nl//parkingdata/v2/dynamic/2e7daa83-19e3-4133-8d57-3911d7681d40;0;2e7daa83-19e3-4133-8d57-3911d7681d40;52.1118465;4.2794887;Den Haag;nl;Zuid-Holland;Zuidwest-Nederland;good;garage;1;250;1;1.9;1;1;BKS Parking
3095;Parkeergarage de Meent;https://npropendata.rdw.nl//parkingdata/v2/static/cb3f4fda-b435-4ca3-bce2-2830f21f4dc3;;0;cb3f4fda-b435-4ca3-bce2-2830f21f4dc3;51.8266432;4.6847926;Papendrecht;nl;Zuid-Holland;Zuidwest-Nederland;good;garage;1;360;1;2.1;1;1;Papendrecht
3102;Garage Stadserf (Schiedam);https://npropendata.rdw.nl//parkingdata/v2/static/b11dc298-9570-4d94-af7d-1842fb9ba928;;0;b11dc298-9570-4d94-af7d-1842fb9ba928;51.9189531;4.4037346;Schiedam;nl;Zuid-Holland;Zuidwest-Nederland;good;garage;1;89;1;1.9;1;1;Schiedam
3104;Garage P1 ArenA (Amsterdam);https://npropendata.rdw.nl//parkingdata/v2/static/5e7238be-7205-4303-bbbc-b4f38ed2564e;;0;5e7238be-7205-4303-bbbc-b4f38ed2564e;52.31435305;4.942843089054;Amsterdam;nl;Noord-Holland;Noordwest-Nederland;good;garage;1;2400;1;2.25;1;1;Amsterdam
3105;Parkeergarage Walburg (Zwijndrecht);https://npropendata.rdw.nl//parkingdata/v2/static/7dd1a4de-3496-4129-841b-82bb94040ad5;;0;7dd1a4de-3496-4129-841b-82bb94040ad5;51.819191820147;4.6420299203081;Zwijndrecht;nl;Zuid-Holland;Zuidwest-Nederland;good;garage;1;232;1;1.9;0;1;Zwijndrecht
3123;Garage Kanaalweg (Middelburg);https://npropendata.rdw.nl//parkingdata/v2/static/9404f581-7630-442c-baa5-3778e0131aa7;;0;9404f581-7630-442c-baa5-3778e0131aa7;51.496578841878;3.6218971618165;Middelburg;nl;Zeeland;Zuidwest-Nederland;good;garage;1;342;1;2.3;1;1;Middelburg
3179;Garage Basiliek (Oosterhout);https://npropendata.rdw.nl//parkingdata/v2/static/0aba654c-6fef-4495-943d-16b7acc7c780;http://opd.it-t.nl/Data/parkingdata/v1/oosterhout/dynamic/0aba654c-6fef-4495-943d-16b7acc7c780.json;0;0aba654c-6fef-4495-943d-16b7acc7c780;51.6464805;4.8620234;Oosterhout;nl;Noord-Brabant;Zuid-Nederland;good;garage;1;275;1;2.1;1;1;Oosterhout
3196;Garage Proosdijpark (Meerssen);https://npropendata.rdw.nl//parkingdata/v2/static/a614b2d4-cf6a-4356-b6d5-386d269f818e;;0;a614b2d4-cf6a-4356-b6d5-386d269f818e;50.8842964;5.7527181;Meerssen;nl;Limburg;Zuid-Nederland;good;garage;1;90;1;2.05;1;1;Meerssen
3214;Parkeergarage Lochtenburg Schijndel (Meierijstad);https://npropendata.rdw.nl//parkingdata/v2/static/f7789db4-0c0d-4d72-9f79-987eb161c676;;0;f7789db4-0c0d-4d72-9f79-987eb161c676;51.6175301;5.4337105;Meierijstad;nl;Noord-Brabant;Zuid-Nederland;good;garage;1;150;1;2.1;0;1;Meierijstad
3218;Garage Drievriendenhof / Dordrecht Centre (Dordrecht);https://npropendata.rdw.nl//parkingdata/v2/static/6469fdb7-fc01-4b01-bf06-ed588a4976a4;;0;6469fdb7-fc01-4b01-bf06-ed588a4976a4;51.8131412;4.6705052;Dordrecht;nl;Zuid-Holland;Zuidwest-Nederland;good;garage;1;440;0;1.95;1;1;P1
3219;Brinkgarage (Almere Haven);https://npropendata.rdw.nl//parkingdata/v2/static/89a72d28-25c0-4364-ae5f-579a9c1f12fe;;0;89a72d28-25c0-4364-ae5f-579a9c1f12fe;52.3378035;5.2172236;Almere;nl;Flevoland;Noordwest-Nederland;good;garage;1;158;0;2.1;1;1;P1
3237;Garage Centrum (Groningen);https://npropendata.rdw.nl//parkingdata/v2/static/d1a9e917-4e50-43d8-b5aa-02dda83c4ae9;;0;d1a9e917-4e50-43d8-b5aa-02dda83c4ae9;53.2170074;6.5663035;Groningen;nl;Groningen;Noord-Nederland;good;garage;1;340;1;1.9;1;1;Interparking
3238;Garage The Bank (Amsterdam);https://npropendata.rdw.nl//parkingdata/v2/static/a63813f7-8dda-43e9-bd52-aed6675b88a8;;0;a63813f7-8dda-43e9-bd52-aed6675b88a8;52.366078;4.8986576;Amsterdam;nl;Noord-Holland;Noordwest-Nederland;good;garage;1;110;1;2.1;1;1;ParkKing
3239;Garage Arrivals Parking (Rotterdam);https://npropendata.rdw.nl//parkingdata/v2/static/b3694638-3100-4bb9-b013-e43f6e0c6f47;;0;b3694638-3100-4bb9-b013-e43f6e0c6f47;51.9175991;4.467722269662;Rotterdam;nl;Zuid-Holland;Zuidwest-Nederland;good;garage;1;399;1;2;1;1;Interparking
3244;Garage Centrum (Volendam);https://npropendata.rdw.nl//parkingdata/v2/static/6ccf038d-77da-4b84-b123-7d870ecfe905;;0;6ccf038d-77da-4b84-b123-7d870ecfe905;52.4974951;5.0744898;Edam-Volendam;nl;Noord-Holland;Noordwest-Nederland;good;garage;1;120;1;2.1;1;1;Allround Parking Services
3246;Garage Zaans Medisch Centrum (Zaandam);https://npropendata.rdw.nl//parkingdata/v2/static/a932e77a-2232-4105-89da-64bee2cf399f;;0;a932e77a-2232-4105-89da-64bee2cf399f;52.45406145;4.8271003846188;Zaanstad;nl;Noord-Holland;Noordwest-Nederland;good;garage;1;500;1;2.1;1;1;Parking + Protection
3247;Garage Castellum (Woerden);https://npropendata.rdw.nl//parkingdata/v2/static/452669d1-db9f-4bb3-a676-6918844b62ff;;0;452669d1-db9f-4bb3-a676-6918844b62ff;52.0860245;4.8799722787545;Woerden;nl;Utrecht;Noordwest-Nederland;good;garage;1;520;1;2.1;1;1;ParkeerService
3252;Garage Koopcentrum Akerpoort (Amsterdam);https://npropendata.rdw.nl//parkingdata/v2/static/e9110aeb-5a35-4237-a54f-90ad315818b1;;0;e9110aeb-5a35-4237-a54f-90ad315818b1;52.3594879;4.7832856;Amsterdam;nl;Noord-Holland;Noordwest-Nederland;good;garage;1;550;1;2.1;1;1;Koopcentrum Akerpoort
3254;Garage Gooiland (Hilversum);https://npropendata.rdw.nl//parkingdata/v2/static/d52bb7ad-21c9-4558-94fd-f4807610ad7d;;0;d52bb7ad-21c9-4558-94fd-f4807610ad7d;52.2208196;5.1733197;Hilversum;nl;Noord-Holland;Noordwest-Nederland;good;garage;1;364;1;1.9;0;1;UNKNOWN
3257;Garage Geerts Willigen (Heerenveen);https://npropendata.rdw.nl//parkingdata/v2/static/8e661d0a-c466-4fdf-b59e-e713119b5d78;;0;8e661d0a-c466-4fdf-b59e-e713119b5d78;52.9609315;5.9241837;Heerenveen;nl;Fryslân;Noord-Nederland;good;garage;1;325;0;2;1;1;InPublic Ventures B.V.
3260;Garage Torckdael (Wageningen);https://npropendata.rdw.nl//parkingdata/v2/static/b894d107-fd54-4dc5-a428-d2f9097e4346;;0;b894d107-fd54-4dc5-a428-d2f9097e4346;51.9650916;5.6677247;Wageningen;nl;Gelderland;Oost-Nederland;good;garage;1;40;1;2.1;1;1;Parking + Protection
3262;Garage Markthof (Den Haag);https://npropendata.rdw.nl//parkingdata/v2/static/1ed5984e-13b9-455f-87a0-4938efdd06a2;;0;1ed5984e-13b9-455f-87a0-4938efdd06a2;52.0766994;4.3150772;Den Haag;nl;Zuid-Holland;Zuidwest-Nederland;good;garage;1;62;0;1.9;1;1;Markthof Parkeergarage BV
3272;Parkeergarage Wolvenhoek;https://npropendata.rdw.nl//parkingdata/v2/static/461a6ae3-b610-4bec-95e1-bae6755b83a3;;0;461a6ae3-b610-4bec-95e1-bae6755b83a3;51.686817;5.3031363;'s-Hertogenbosch;nl;Noord-Brabant;Zuid-Nederland;good;garage;1;471;0;1.9;1;1;'s-Hertogenbosch
3281;Parkeergarage Stationsplein;https://npropendata.rdw.nl//parkingdata/v2/static/eab6b680-ef29-4e0a-971c-c5055fc59c19;;0;eab6b680-ef29-4e0a-971c-c5055fc59c19;51.689369245536;5.2947533055325;'s-Hertogenbosch;nl;Noord-Brabant;Zuid-Nederland;good;garage;1;175;0;1.9;1;1;'s-Hertogenbosch
3290;P-Oosterstraat;https://npropendata.rdw.nl//parkingdata/v2/static/d3bd2edf-cd1f-4b3d-baee-eb37c8bc9e53;https://opendata.technolution.nl/opendata/parkingdata/v1/dynamic/d3bd2edf-cd1f-4b3d-baee-eb37c8bc9e53;0;d3bd2edf-cd1f-4b3d-baee-eb37c8bc9e53;53.2011195;5.8017848136283;Leeuwarden;nl;Fryslân;Noord-Nederland;good;garage;1;250;1;2.2;1;1;Leeuwarden
3303;Parkeergarage Muntgarage (Weert);https://npropendata.rdw.nl//parkingdata/v2/static/fe6cc239-f4f9-4825-82db-72121d19c3b2;;0;fe6cc239-f4f9-4825-82db-72121d19c3b2;52.37160125;5.2165570757968;Almere;nl;Flevoland;Noordwest-Nederland;good;garage;1;290;1;1.9;1;1;Weert
3308;Garage Mauritskade (Den Haag);https://npropendata.rdw.nl//parkingdata/v2/static/2898733d-e5ef-4e84-8afe-066c71d04b48;;0;2898733d-e5ef-4e84-8afe-066c71d04b48;52.0844697;4.3033014;Den Haag;nl;Zuid-Holland;Zuidwest-Nederland;good;garage;1;188;1;1.95;1;1;ParkKing
3310;Garage Wijnhaven Centrum (Den Haag);https://npropendata.rdw.nl//parkingdata/v2/static/60d6f308-33d4-40d1-bd58-b6f9576056b3;;0;60d6f308-33d4-40d1-bd58-b6f9576056b3;52.076949703497;4.3198809738547;Den Haag;nl;Zuid-Holland;Zuidwest-Nederland;good;garage;1;560;1;1.95;1;1;APCOA Parking
3311;Garage Malieveld (Den Haag);https://npropendata.rdw.nl//parkingdata/v2/static/de5983e6-30ef-465a-8653-f673a4fe96c9;;0;de5983e6-30ef-465a-8653-f673a4fe96c9;52.0848641;4.3176448;Den Haag;nl;Zuid-Holland;Zuidwest-Nederland;good;garage;1;600;1;2;1;1;APCOA Parking
3313;Garage Luxemburglaan (Zoetermeer);https://npropendata.rdw.nl//parkingdata/v2/static/0d0b89e9-f349-49b3-b209-93d56988a4f1;;0;0d0b89e9-f349-49b3-b209-93d56988a4f1;52.06217305;4.4915434002784;Zoetermeer;nl;Zuid-Holland;Zuidwest-Nederland;good;garage;1;456;1;1.9;1;1;Interparking
3362;Parkeergarage Stadspoort - Kelder;https://npropendata.rdw.nl//parkingdata/v2/static/4639a30f-a31e-4f72-8430-49c1d8ff6be7;https://opendata.technolution.nl/opendata/parkingdata/v1/dynamic/4639a30f-a31e-4f72-8430-49c1d8ff6be7;0;4639a30f-a31e-4f72-8430-49c1d8ff6be7;52.2563701;6.1520909;Deventer;nl;Overijssel;Oost-Nederland;good;garage;1;165;1;2;1;1;Deventer
3364;Garage Stadhuis (Den Haag);https://npropendata.rdw.nl//parkingdata/v2/static/7da314b1-ab93-4931-ab45-de32162695d2;;0;7da314b1-ab93-4931-ab45-de32162695d2;52.077165623723;4.3197285485994;Den Haag;nl;Zuid-Holland;Zuidwest-Nederland;good;garage;1;350;0;1.9;1;1;P1
3370;Garage Kennedy Business Center (Eindhoven);https://npropendata.rdw.nl//parkingdata/v2/static/7acbf003-9bae-4d94-9e72-43921b0eec8f;;0;7acbf003-9bae-4d94-9e72-43921b0eec8f;51.4438049;5.480687;Eindhoven;nl;Noord-Brabant;Zuid-Nederland;good;garage;1;799;0;2;1;1;P1
3373;Garage De Driehoek (Oldenzaal);https://npropendata.rdw.nl//parkingdata/v2/static/af318e26-8ded-449c-96a1-8e26859c3dad;;0;af318e26-8ded-449c-96a1-8e26859c3dad;52.3142647;6.9272953;Oldenzaal;nl;Overijssel;Oost-Nederland;good;garage;1;430;1;2;1;1;APCOA Parking
3376;Garage Gooische Brink (Hilversum);https://npropendata.rdw.nl//parkingdata/v2/static/dd9c3c06-f0bf-4cac-98a7-b3738502bd5a;;0;dd9c3c06-f0bf-4cac-98a7-b3738502bd5a;52.2231075;5.1695614;Hilversum;nl;Noord-Holland;Noordwest-Nederland;good;garage;1;400;1;1.9;0;1;UNKNOWN
3379;garage Stadhuisplein;https://npropendata.rdw.nl//parkingdata/v2/static/bac0bb64-8684-4e97-bf80-185829e01c35;;0;bac0bb64-8684-4e97-bf80-185829e01c35;52.157013;5.3904966945918;Amersfoort;nl;Utrecht;Noordwest-Nederland;average;garage;1;177;0;1.8;0;1;Parkeren Amersfoort BV
3381;Garage Stadhuis (Nieuwegein);https://npropendata.rdw.nl//parkingdata/v2/static/fceaf79d-517c-4880-924a-f794853105a8;;0;fceaf79d-517c-4880-924a-f794853105a8;52.0269484;5.0834805;Nieuwegein;nl;Utrecht;Noordwest-Nederland;good;garage;1;530;1;2.1;1;1;ParkeerService
3382;Garage Jeroen Bosch Ziekenhuis ('s-Hertogenbosch);https://npropendata.rdw.nl//parkingdata/v2/static/7dc020f9-e910-4c8c-b775-e06e858fe481;;0;7dc020f9-e910-4c8c-b775-e06e858fe481;51.6850177;5.2763216623925;'s-Hertogenbosch;nl;Noord-Brabant;Zuid-Nederland;good;garage;1;650;1;2.1;1;1;Parking + Protection
3384;Garage Ziekenhuis Rijnstate P1 (Arnhem);https://npropendata.rdw.nl//parkingdata/v2/static/d8c5bc43-1657-4869-932f-82cc57bb1960;;0;d8c5bc43-1657-4869-932f-82cc57bb1960;52.0003784;5.9097200464174;Arnhem;nl;Gelderland;Oost-Nederland;good;garage;1;1592;1;2.1;1;1;Interparking
3385;Garage Het Theater (Nieuwegein);https://npropendata.rdw.nl//parkingdata/v2/static/2f572afb-47e1-42cc-83c2-e7cdead36c70;;0;2f572afb-47e1-42cc-83c2-e7cdead36c70;52.0259036;5.0752771;Nieuwegein;nl;Utrecht;Noordwest-Nederland;good;garage;1;592;1;2.1;1;1;ParkeerService
3386;Garage Flintplein;https://npropendata.rdw.nl//parkingdata/v2/static/8b9d13f3-4264-4ca4-9152-e0123626ce9a;;0;8b9d13f3-4264-4ca4-9152-e0123626ce9a;52.157013;5.3904966945918;Amersfoort;nl;Utrecht;Noordwest-Nederland;average;garage;1;347;0;1.9;0;1;Parkeren Amersfoort BV
3412;Garage Citadel (Assen);https://npropendata.rdw.nl//parkingdata/v2/static/eec0c6ed-f862-4bc0-8e82-ed4cc67a521b;;0;eec0c6ed-f862-4bc0-8e82-ed4cc67a521b;52.9975465;6.5669074;Assen;nl;Drenthe;Noord-Nederland;good;garage;1;550;1;2.2;1;1;Interparking
3414;VOC Garage Batavia Stad (Lelystad);https://npropendata.rdw.nl//parkingdata/v2/static/edcaa9d0-82de-4215-a6dd-368609627608;;0;edcaa9d0-82de-4215-a6dd-368609627608;52.519978278386;5.4400426703021;Lelystad;nl;Flevoland;Noordwest-Nederland;good;garage;1;180;1;2.1;1;1;Batavia Stad Fashion Outlet
3416;Garage Eiteren (IJsselstein);https://npropendata.rdw.nl//parkingdata/v2/static/8cea4075-8d1b-4812-b680-b8bdcbcb72e7;;0;8cea4075-8d1b-4812-b680-b8bdcbcb72e7;52.022216720157;5.0445769340449;IJsselstein;nl;Utrecht;Noordwest-Nederland;good;garage;1;20;1;2;0;1;ParkeerService
3417;Garage Schouwburg het Park (Hoorn);https://npropendata.rdw.nl//parkingdata/v2/static/05ff1b07-991b-4766-a885-94f9897c8a00;;0;05ff1b07-991b-4766-a885-94f9897c8a00;52.6417531;5.0506273310626;Hoorn;nl;Noord-Holland;Noordwest-Nederland;good;garage;1;120;1;1.8;1;1;InPublic Ventures B.V.
3442;Garage Westerpark (Bussum);https://npropendata.rdw.nl//parkingdata/v2/static/27c6bccf-5aa2-4be5-aff4-6aba96fa2f57;;0;27c6bccf-5aa2-4be5-aff4-6aba96fa2f57;52.2642491;5.1697036;Gooise Meren;nl;Noord-Holland;Noordwest-Nederland;good;garage;1;36;1;2.1;1;1;Gooise Meren
3452;Garage De Prins (Breda);https://npropendata.rdw.nl//parkingdata/v2/static/07f8962e-d251-4055-b9a8-0752024b355e;https://opendata.technolution.nl/opendata/parkingdata/v1/dynamic/07f8962e-d251-4055-b9a8-0752024b355e;0;07f8962e-d251-4055-b9a8-0752024b355e;51.5914616;4.7710920668267;Breda;nl;Noord-Brabant;Zuid-Nederland;good;garage;1;470;1;1.95;1;1;Breda
3481;Garage Bredlusdam (Bussum);https://npropendata.rdw.nl//parkingdata/v2/static/ddce5391-d3aa-4d21-9687-651b92d599a0;;0;ddce5391-d3aa-4d21-9687-651b92d599a0;52.2783837;5.1608494;Gooise Meren;nl;Noord-Holland;Noordwest-Nederland;good;garage;1;45;1;2;0;1;Gooise Meren
3487;Garage De Appelaar (Haarlem);https://npropendata.rdw.nl//parkingdata/v2/static/e1fa86f9-c322-45f3-a60f-c76f04c9d94f;;0;e1fa86f9-c322-45f3-a60f-c76f04c9d94f;52.3802452;4.6393722;Haarlem;nl;Noord-Holland;Noordwest-Nederland;good;garage;1;290;1;2;1;1;Haarlem
3532;Garage Engelandlaan (Zoetermeer);https://npropendata.rdw.nl//parkingdata/v2/static/ec8c6587-cb6b-469e-ba27-07724d3d6ce2;;0;ec8c6587-cb6b-469e-ba27-07724d3d6ce2;52.060399834113;4.4927667461439;Zoetermeer;nl;Zuid-Holland;Zuidwest-Nederland;good;garage;1;261;0;1.9;1;1;P1
3538;Garage De Kamp (Haarlem);https://npropendata.rdw.nl//parkingdata/v2/static/26ca7f06-ab07-4ece-9465-1eddeb37caaa;;0;26ca7f06-ab07-4ece-9465-1eddeb37caaa;52.3771504;4.6368548;Haarlem;nl;Noord-Holland;Noordwest-Nederland;good;garage;1;430;1;2;1;1;Haarlem
3539;Garage Noorder Arcade (Alkmaar);https://npropendata.rdw.nl//parkingdata/v2/static/4e4a7d8e-5e62-4887-933a-4d4f8c2ed6f6;;0;4e4a7d8e-5e62-4887-933a-4d4f8c2ed6f6;52.63405695;4.7511872414963;Alkmaar;nl;Noord-Holland;Noordwest-Nederland;good;garage;1;540;1;2;1;1;ParkKing
3540;Garage Nederlandlaan (Zoetermeer);https://npropendata.rdw.nl//parkingdata/v2/static/21eb64e8-fcc7-4cae-9714-0895af47cd63;;0;21eb64e8-fcc7-4cae-9714-0895af47cd63;52.061522232888;4.4838490784782;Zoetermeer;nl;Zuid-Holland;Zuidwest-Nederland;good;garage;1;656;1;2;1;1;Interparking
3561;Garage Achter de Grote Markt (Bergen op Zoom);https://npropendata.rdw.nl//parkingdata/v2/static/a38064fc-4fe6-4f5d-a37b-fc2be49188d4;;0;a38064fc-4fe6-4f5d-a37b-fc2be49188d4;51.4930092;4.285594262628;Bergen op Zoom;nl;Noord-Brabant;Zuid-Nederland;good;garage;1;150;1;2.05;1;1;Bergen op Zoom
3583;Garage Breestraat (Leiden);https://npropendata.rdw.nl//parkingdata/v2/static/8c13bc36-9d46-4deb-837a-fb40a13e3001;;0;8c13bc36-9d46-4deb-837a-fb40a13e3001;52.1554769;4.4939897;Leiden;nl;Zuid-Holland;Zuidwest-Nederland;good;garage;1;340;1;2.1;1;1;P1
3584;Garage Kruisstraat (Utrecht);https://npropendata.rdw.nl//parkingdata/v2/static/5c7a3167-55bd-441f-bd09-60e97503a603;https://opendata.technolution.nl/opendata/parkingdata/v1/dynamic/5c7a3167-55bd-441f-bd09-60e97503a603;0;5c7a3167-55bd-441f-bd09-60e97503a603;52.0937908;5.1292996;Utrecht;nl;Utrecht;Noordwest-Nederland;good;garage;1;105;0;2.1;1;1;P1
3587;Garage Neptunusplein (Assen);https://npropendata.rdw.nl//parkingdata/v2/static/8b82aaf7-f781-4716-a15f-beae58f5061e;;0;8b82aaf7-f781-4716-a15f-beae58f5061e;52.9972089;6.5591971;Assen;nl;Drenthe;Noord-Nederland;good;garage;1;190;1;1.95;1;1;Interparking
3590;Garage Centrum/LOC (Hardenberg);https://npropendata.rdw.nl//parkingdata/v2/static/55de527d-aea6-4e65-8422-74641d0dd6d8;;0;55de527d-aea6-4e65-8422-74641d0dd6d8;52.5761512;6.6252785435405;Hardenberg;nl;Overijssel;Oost-Nederland;good;garage;1;189;1;2;1;1;Hardenberg
3623;Garage V&D Centre (Amstelveen);https://npropendata.rdw.nl//parkingdata/v2/static/74381658-c132-4428-ae4b-39e4ad9292ef;;0;74381658-c132-4428-ae4b-39e4ad9292ef;52.3008915;4.8646434;Amstelveen;nl;Noord-Holland;Noordwest-Nederland;good;garage;1;473;0;1.9;1;1;P1
3625;Garage Frankrijklaan (Zoetermeer);https://npropendata.rdw.nl//parkingdata/v2/static/66064833-b1d9-44f6-9aec-79eb25ed255d;;0;66064833-b1d9-44f6-9aec-79eb25ed255d;52.060746576046;4.4941420351468;Zoetermeer;nl;Zuid-Holland;Zuidwest-Nederland;good;garage;1;117;0;1.9;1;1;P1
3626;Garage Koestraat;https://npropendata.rdw.nl//parkingdata/v2/static/7a27c407-e4d8-4e20-90b3-cca5b15b42a9;;0;7a27c407-e4d8-4e20-90b3-cca5b15b42a9;52.157013;5.3904966945918;Amersfoort;nl;Utrecht;Noordwest-Nederland;average;garage;1;406;0;1.95;0;1;Parkeren Amersfoort BV
3630;Garage Antarctica (Amsterdam);https://npropendata.rdw.nl//parkingdata/v2/static/71d79095-af8b-4c85-babc-0a780b100e9a;;0;71d79095-af8b-4c85-babc-0a780b100e9a;52.30970985;4.9473790257229;Amsterdam;nl;Noord-Holland;Noordwest-Nederland;good;garage;1;688;1;2;1;1;APCOA Parking
3631;Garage Stadsplein (Heerhugowaard);https://npropendata.rdw.nl//parkingdata/v2/static/184a6fa7-ac82-46fe-9741-fa0ffee560b7;;0;184a6fa7-ac82-46fe-9741-fa0ffee560b7;52.6653919;4.8257449;Heerhugowaard;nl;Noord-Holland;Noordwest-Nederland;good;garage;1;200;1;2.1;1;1;Interparking
3636;Parkeergarage St. Josephstraat;https://npropendata.rdw.nl//parkingdata/v2/static/aa548ce6-3110-4621-b3eb-ea45e5975df7;;0;aa548ce6-3110-4621-b3eb-ea45e5975df7;51.6891766;5.3081419984396;'s-Hertogenbosch;nl;Noord-Brabant;Zuid-Nederland;good;garage;1;175;0;1.9;1;1;'s-Hertogenbosch
3644;Garage Zilverpark (Lelystad);https://npropendata.rdw.nl//parkingdata/v2/static/55dfb194-af5a-4772-93c6-828ec42c46d2;;0;55dfb194-af5a-4772-93c6-828ec42c46d2;52.50655615;5.4752223474799;Lelystad;nl;Flevoland;Noordwest-Nederland;good;garage;1;296;1;2;1;1;Lelystad
3652;Garage Het Rond (Winschoten);https://npropendata.rdw.nl//parkingdata/v2/static/5cda3542-bffa-41a7-afd8-aecb41995ae3;;0;5cda3542-bffa-41a7-afd8-aecb41995ae3;53.1430775;7.0369354539207;Oldambt;nl;Groningen;Noord-Nederland;good;garage;1;185;1;1.9;1;1;Interparking
3661;Parkeergarage St. Jan;https://npropendata.rdw.nl//parkingdata/v2/static/5d567c12-796c-4f8d-80f4-120ba32ed482;;0;5d567c12-796c-4f8d-80f4-120ba32ed482;51.6850305;5.3128085060317;'s-Hertogenbosch;nl;Noord-Brabant;Zuid-Nederland;good;garage;1;1040;1;2.1;1;1;'s-Hertogenbosch
3685;Garage Gouden Leeuw (Venray);https://npropendata.rdw.nl//parkingdata/v2/static/ee0e196e-0528-4ba1-9208-65762a6e0415;;0;ee0e196e-0528-4ba1-9208-65762a6e0415;51.5223197;5.9716854;Venray;nl;Limburg;Zuid-Nederland;good;garage;1;376;0;2.1;1;1;P1
3686;Garage De Veiling (Oud-Beijerland);https://npropendata.rdw.nl//parkingdata/v2/static/7936e207-9490-4366-8f65-4737e0e9ed0d;;0;7936e207-9490-4366-8f65-4737e0e9ed0d;51.825931;4.4131543;Hoeksche Waard;nl;Zuid-Holland;Zuidwest-Nederland;good;garage;1;126;0;1.95;1;1;P1
3687;Garage Doevenkamp (Assen);https://npropendata.rdw.nl//parkingdata/v2/static/7c548643-8f94-4c6b-bc3d-452323aba6a1;;0;7c548643-8f94-4c6b-bc3d-452323aba6a1;52.9951124;6.5667669;Assen;nl;Drenthe;Noord-Nederland;good;garage;1;190;1;1.85;1;1;Interparking
3694;Garage Belgiëlaan (Zoetermeer);https://npropendata.rdw.nl//parkingdata/v2/static/1eb3aeef-4956-4a4b-a000-b1b2ca229ddd;;0;1eb3aeef-4956-4a4b-a000-b1b2ca229ddd;52.062268;4.488332;Zoetermeer;nl;Zuid-Holland;Zuidwest-Nederland;good;garage;1;297;1;2;1;1;Interparking
3704;Garage Amerena;https://npropendata.rdw.nl//parkingdata/v2/static/f2227560-e9f3-4368-a5ad-f074784ef546;;0;f2227560-e9f3-4368-a5ad-f074784ef546;52.1592452;5.4112631;Amersfoort;nl;Utrecht;Noordwest-Nederland;average;garage;1;218;0;2;0;1;Parkeren Amersfoort BV
3706;Garage Damsterdiep (Groningen);https://npropendata.rdw.nl//parkingdata/v2/static/ee01efa0-3135-4bc5-9d7f-10709c54889c;;0;ee01efa0-3135-4bc5-9d7f-10709c54889c;53.2184525;6.5777931;Groningen;nl;Groningen;Noord-Nederland;good;garage;1;508;1;2.05;1;1;Interparking
3732;Garage Oosterpoort (Nijkerk);https://npropendata.rdw.nl//parkingdata/v2/static/28a78ecb-c4a4-4dd3-9a34-9ba830c08392;;0;28a78ecb-c4a4-4dd3-9a34-9ba830c08392;52.2239378;5.4890359;Nijkerk;nl;Gelderland;Oost-Nederland;good;garage;1;327;1;2.1;1;1;ParkKing
3737;Garage P4 Stationsstraat (Utrecht);https://npropendata.rdw.nl//parkingdata/v2/static/294157b9-5428-41d8-8f3a-252193ebe97d;https://opendata.technolution.nl/opendata/parkingdata/v1/dynamic/294157b9-5428-41d8-8f3a-252193ebe97d;0;294157b9-5428-41d8-8f3a-252193ebe97d;52.09083405;5.111987947628;Utrecht;nl;Utrecht;Noordwest-Nederland;good;garage;1;391;1;2;1;1;Interparking
3743;Garage Duitslandlaan (Zoetermeer);https://npropendata.rdw.nl//parkingdata/v2/static/945284e3-6304-48c6-8abc-76e14dc6feb6;;0;945284e3-6304-48c6-8abc-76e14dc6feb6;52.0626543;4.4943703;Zoetermeer;nl;Zuid-Holland;Zuidwest-Nederland;good;garage;1;581;1;2;1;1;Interparking
3764;Garage Stappegoor (Tilburg);https://npropendata.rdw.nl//parkingdata/v2/static/d915ae23-f20a-482e-aedc-33b4f85d93a1;;0;d915ae23-f20a-482e-aedc-33b4f85d93a1;51.539508915967;5.0764982474902;Tilburg;nl;Noord-Brabant;Zuid-Nederland;good;garage;1;860;1;1.9;0;1;P1
3768;Garage Hoog Catharijne P1 (utrecht);https://npropendata.rdw.nl//parkingdata/v2/static/40212393-05d9-45a4-a287-123af9ad325a;https://opendata.technolution.nl/opendata/parkingdata/v1/dynamic/40212393-05d9-45a4-a287-123af9ad325a;0;40212393-05d9-45a4-a287-123af9ad325a;52.08937705;5.1133603091277;Utrecht;nl;Utrecht;Noordwest-Nederland;good;garage;1;359;1;2;1;1;Interparking
3769;Garage Claxonate (Purmerend);https://npropendata.rdw.nl//parkingdata/v2/static/41a54762-71e1-431b-ab8d-630ff7bd04bf;;0;41a54762-71e1-431b-ab8d-630ff7bd04bf;52.5087778;4.9431676;Purmerend;nl;Noord-Holland;Noordwest-Nederland;good;garage;1;200;0;1.85;1;1;P1
3775;Garage Martini-ziekenhuis (Groningen);https://npropendata.rdw.nl//parkingdata/v2/static/9e9f2eae-367b-4778-a78e-6753f295982e;;0;9e9f2eae-367b-4778-a78e-6753f295982e;53.19162995;6.5509995181544;Groningen;nl;Groningen;Noord-Nederland;good;garage;1;1200;1;2.25;1;1;Martini-ziekenhuis
3777;Garage Landstraat (Bussum);https://npropendata.rdw.nl//parkingdata/v2/static/f5f1dafa-6eaf-4a2b-bb54-9f7963708afd;;0;f5f1dafa-6eaf-4a2b-bb54-9f7963708afd;52.2780135;5.1643717;Gooise Meren;nl;Noord-Holland;Noordwest-Nederland;good;garage;1;70;1;1.95;1;1;ParkKing
3778;Garage MartiniPlaza Parking (Groningen);https://npropendata.rdw.nl//parkingdata/v2/static/c17cf564-c139-4d91-b409-1c927ec23b9a;;0;c17cf564-c139-4d91-b409-1c927ec23b9a;53.2032432;6.5546752;Groningen;nl;Groningen;Noord-Nederland;good;garage;1;600;1;1.9;1;1;Martini-Plaza
3779;Garage WTC (Almere);https://npropendata.rdw.nl//parkingdata/v2/static/8c0be6ed-495a-441e-a7a7-a8e4d01d44c7;;0;8c0be6ed-495a-441e-a7a7-a8e4d01d44c7;52.3760944;5.2157719;Almere;nl;Flevoland;Noordwest-Nederland;good;garage;1;1500;1;2.1;1;1;Allround Parking Services
3780;Garage Nieuwe Passage (Schiedam);https://npropendata.rdw.nl//parkingdata/v2/static/d3db3e64-e574-4b18-a0bc-71085d1c1925;;0;d3db3e64-e574-4b18-a0bc-71085d1c1925;51.9144326718;4.4017702240139;Schiedam;nl;Zuid-Holland;Zuidwest-Nederland;good;garage;1;280;1;2;1;1;Centrummanagement
3781;Garage Lijnbaan (Rotterdam);https://npropendata.rdw.nl//parkingdata/v2/static/d7dc0cd3-db27-441f-a1cb-5d199fb2f763;;0;d7dc0cd3-db27-441f-a1cb-5d199fb2f763;51.9183186;4.4764926981573;Rotterdam;nl;Zuid-Holland;Zuidwest-Nederland;good;garage;1;540;1;2;1;1;Interparking
3783;Terrein Zwarte Pad (Den Haag);https://npropendata.rdw.nl//parkingdata/v2/static/9c6f4ec3-35ee-4801-a683-4e48cd01931f;https://npropendata.rdw.nl//parkingdata/v2/dynamic/9c6f4ec3-35ee-4801-a683-4e48cd01931f;0;9c6f4ec3-35ee-4801-a683-4e48cd01931f;52.117244025319;4.2871819894206;Den Haag;nl;Zuid-Holland;Zuidwest-Nederland;good;terrain;1;450;1;2;1;1;BKS Parking
3784;Terrein Stadspark 2 (Maastricht);https://npropendata.rdw.nl//parkingdata/v2/static/61365b94-7722-43c0-9551-d1c1728c40ca;;0;61365b94-7722-43c0-9551-d1c1728c40ca;51.4073375;4.9334191587078;;be;;none;good;terrain;1;79;1;2.1;1;1;Maastricht
3789;Garage Bergoss (Oss);https://npropendata.rdw.nl//parkingdata/v2/static/a79bf739-5018-4293-b64a-e85ff4d52d01;;0;a79bf739-5018-4293-b64a-e85ff4d52d01;51.7683508;5.5287775500681;Oss;nl;Noord-Brabant;Zuid-Nederland;good;garage;1;270;1;2.05;1;1;Oss
3793;Garage Roselaar (Roosendaal);https://npropendata.rdw.nl//parkingdata/v2/static/9a2ca410-8fba-4ff7-ab8f-6f1a5398eab0;http://opendata.technolution.nl/opendata/parkingdata/v1/dynamic/9a2ca410-8fba-4ff7-ab8f-6f1a5398eab0;0;9a2ca410-8fba-4ff7-ab8f-6f1a5398eab0;51.5306238;4.4534903;Roosendaal;nl;Noord-Brabant;Zuid-Nederland;good;garage;1;415;1;2.1;1;1;Roosendaal
3794;Garage De Waag (Lelystad);https://npropendata.rdw.nl//parkingdata/v2/static/fefdcba1-bdde-409e-a716-5a61c0305c9c;;1;fefdcba1-bdde-409e-a716-5a61c0305c9c;52.5114834;5.4740103;Lelystad;nl;Flevoland;Noordwest-Nederland;good;garage;1;664;1;2.1;1;1;Lelystad
3795;Garage Mill Hill (Roosendaal);https://npropendata.rdw.nl//parkingdata/v2/static/d13f96a4-ed41-41ae-88a1-921e9c067e3e;http://opendata.technolution.nl/opendata/parkingdata/v1/dynamic/d13f96a4-ed41-41ae-88a1-921e9c067e3e;0;d13f96a4-ed41-41ae-88a1-921e9c067e3e;51.5287027;4.4543245;Roosendaal;nl;Noord-Brabant;Zuid-Nederland;good;garage;1;102;1;2.05;1;1;Roosendaal
3805;Garage Nieuwe Brink (Bussum);https://npropendata.rdw.nl//parkingdata/v2/static/c389e0c1-e3b2-4e93-88d7-4efddb5a3c47;;0;c389e0c1-e3b2-4e93-88d7-4efddb5a3c47;52.2738138;5.1642776;Gooise Meren;nl;Noord-Holland;Noordwest-Nederland;good;garage;1;223;1;2;0;1;Gooise Meren
3812;Garage Stadhuis (Vlaardingen);https://npropendata.rdw.nl//parkingdata/v2/static/97a243f4-d0d9-4224-b0c1-72a9566bb677;https://npropendata.rdw.nl//parkingdata/v2/dynamic/97a243f4-d0d9-4224-b0c1-72a9566bb677;0;97a243f4-d0d9-4224-b0c1-72a9566bb677;51.907639299211;4.3376823618828;Vlaardingen;nl;Zuid-Holland;Zuidwest-Nederland;good;garage;1;148;1;2;1;1;BKS Parking
3814;P+R station Driebergen-Zeist;https://npropendata.rdw.nl//parkingdata/v2/static/54612960-b8a6-4499-9f47-f7ae7c4fd2c8;;0;54612960-b8a6-4499-9f47-f7ae7c4fd2c8;52.0648255;5.2573993;Utrechtse Heuvelrug;nl;Utrecht;Noordwest-Nederland;good;park and ride;1;582;0;1.9;1;1;Nederlandse Spoorwegen
3818;Garage Nieuwe Parklaan (Den Haag);https://npropendata.rdw.nl//parkingdata/v2/static/2cc6b90a-8460-4b11-a52e-5f9319ffd64b;https://npropendata.rdw.nl//parkingdata/v2/dynamic/2cc6b90a-8460-4b11-a52e-5f9319ffd64b;0;2cc6b90a-8460-4b11-a52e-5f9319ffd64b;52.1117445;4.2809605;Den Haag;nl;Zuid-Holland;Zuidwest-Nederland;good;garage;1;570;1;1.9;1;1;BKS Parking
3820;Garage Mathildelaan (Eindhoven);https://npropendata.rdw.nl//parkingdata/v2/static/8e3f9207-563b-4e49-bd75-3830b0351f10;;0;8e3f9207-563b-4e49-bd75-3830b0351f10;51.44147515;5.4726401912357;Eindhoven;nl;Noord-Brabant;Zuid-Nederland;good;garage;1;1187;0;1.9;1;1;P1
3821;Garage Westblaak (Rotterdam);https://npropendata.rdw.nl//parkingdata/v2/static/6e8f92ee-1205-43b6-881e-28667a1f397f;;0;6e8f92ee-1205-43b6-881e-28667a1f397f;51.916424;4.4778568;Rotterdam;nl;Zuid-Holland;Zuidwest-Nederland;good;garage;1;780;1;1.9;1;1;APCOA Parking
3822;Garage Oosterpoort (Groningen);https://npropendata.rdw.nl//parkingdata/v2/static/e095f944-cbd6-420b-ab2b-07cb1cdd5294;;0;e095f944-cbd6-420b-ab2b-07cb1cdd5294;53.21423335;6.5748825659489;Groningen;nl;Groningen;Noord-Nederland;good;garage;1;286;1;1.9;1;1;Interparking
3823;Garage De Witte Dame (Eindhoven);https://npropendata.rdw.nl//parkingdata/v2/static/f0f40015-1fba-4895-8471-462d36c5e48a;;0;f0f40015-1fba-4895-8471-462d36c5e48a;51.4402936;5.4744783;Eindhoven;nl;Noord-Brabant;Zuid-Nederland;good;garage;1;249;0;2.1;1;1;P1
3825;Garage AMC P2 (Amsterdam);https://npropendata.rdw.nl//parkingdata/v2/static/6e422b0b-03ab-4dbf-b52a-36d9a52cb58b;;0;6e422b0b-03ab-4dbf-b52a-36d9a52cb58b;52.29364025;4.9558828960919;Amsterdam;nl;Noord-Holland;Noordwest-Nederland;good;garage;1;900;1;1.9;1;1;Academisch Medisch Centrum
3828;Garage Onderlangs (Zoetermeer);https://npropendata.rdw.nl//parkingdata/v2/static/fe5f1e6b-6b3b-422a-9c24-188f15fbf3fe;;0;fe5f1e6b-6b3b-422a-9c24-188f15fbf3fe;52.06039638087;4.4874126832784;Zoetermeer;nl;Zuid-Holland;Zuidwest-Nederland;good;garage;1;307;1;2;1;1;Interparking
3831;P+R Station Maastricht Noord;https://npropendata.rdw.nl//parkingdata/v2/static/c0aecf40-4df5-43b9-b8af-577fb8c681f8;;0;c0aecf40-4df5-43b9-b8af-577fb8c681f8;50.873044932915;5.718412539057;Maastricht;nl;Limburg;Zuid-Nederland;good;park and ride;1;540;1;2.5;1;1;Maastricht
3845;Garage Neringdek (Lelystad);https://npropendata.rdw.nl//parkingdata/v2/static/c91507f0-467f-4fd7-a316-98f977468f81;;1;c91507f0-467f-4fd7-a316-98f977468f81;52.5069173;5.4778428;Lelystad;nl;Flevoland;Noordwest-Nederland;good;garage;1;256;1;2.1;1;1;Lelystad
3849;Terrein Stadspark 3 (Maastricht);https://npropendata.rdw.nl//parkingdata/v2/static/8c4c2bd9-3781-4e75-8176-4e6d6b2896cf;;0;8c4c2bd9-3781-4e75-8176-4e6d6b2896cf;51.4073375;4.9334191587078;;be;;none;good;terrain;1;91;1;2.1;1;1;Maastricht
3864;Garage World Port Center (Rotterdam);https://npropendata.rdw.nl//parkingdata/v2/static/5dff089b-0b85-4807-9d76-7eae42a56219;;0;5dff089b-0b85-4807-9d76-7eae42a56219;51.9041706;4.4846410200397;Rotterdam;nl;Zuid-Holland;Zuidwest-Nederland;good;garage;1;505;0;1.9;1;1;P1
3870;Garage Olympisch Stadion (Amsterdam);https://npropendata.rdw.nl//parkingdata/v2/static/c2b50ef9-12a3-4ac5-b2b4-8bf0d896c98b;;0;c2b50ef9-12a3-4ac5-b2b4-8bf0d896c98b;52.344904386722;4.8549512890677;Amsterdam;nl;Noord-Holland;Noordwest-Nederland;good;garage;1;500;0;2;1;1;P1
3878;Garage Leyweg 2 (Den Haag);https://npropendata.rdw.nl//parkingdata/v2/static/73fd2365-dbd4-4731-8244-c1e05cd4a415;;0;73fd2365-dbd4-4731-8244-c1e05cd4a415;52.0507917;4.2763034;Den Haag;nl;Zuid-Holland;Zuidwest-Nederland;good;garage;1;350;0;1.95;1;1;P1
3882;Garage The Red Apple Parkeerkelder (Rotterdam);https://npropendata.rdw.nl//parkingdata/v2/static/306d589c-05ce-465b-a452-765df6fb2170;;0;306d589c-05ce-465b-a452-765df6fb2170;51.9171611;4.488309;Rotterdam;nl;Zuid-Holland;Zuidwest-Nederland;good;garage;1;337;1;2;1;1;Interparking
3924;Garage ABC (Sittard);https://npropendata.rdw.nl//parkingdata/v2/static/0ab22d18-c120-42f1-8acb-33a602119b74;http://opd.it-t.nl/Data/parkingdata/v1/sittard-geleen/dynamic/0ab22d18-c120-42f1-8acb-33a602119b74.json;0;0ab22d18-c120-42f1-8acb-33a602119b74;50.9974471;5.8662631;Sittard;nl;Limburg;Zuid-Nederland;good;garage;1;275;1;1.9;1;1;Sittard-Geleen
3931;Garage Amsterdam Centrum (Amsterdam);https://npropendata.rdw.nl//parkingdata/v2/static/ddcdd081-6046-4847-8438-dcea6ab51ccd;;0;ddcdd081-6046-4847-8438-dcea6ab51ccd;52.3786758;4.8971651;Amsterdam;nl;Noord-Holland;Noordwest-Nederland;good;garage;1;434;0;1.9;1;1;P1
3932;Boekenberggarage (Spijkenisse);https://npropendata.rdw.nl//parkingdata/v2/static/79fd4b23-d0b8-43e0-ab57-56853f88a27a;;0;79fd4b23-d0b8-43e0-ab57-56853f88a27a;51.8490087;4.3238547;Nissewaard;nl;Zuid-Holland;Zuidwest-Nederland;good;garage;1;375;1;2.1;1;1;Nissewaard
3937;Garage Gemeentehuis (Veenendaal);https://npropendata.rdw.nl//parkingdata/v2/static/5ba03aad-2871-4fba-85bf-748798d2eb87;;0;5ba03aad-2871-4fba-85bf-748798d2eb87;52.0236437;5.5570867;Veenendaal;nl;Utrecht;Noordwest-Nederland;good;garage;1;75;1;2;1;1;P1
3944;Garage Stadskantoor (Eindhoven);https://npropendata.rdw.nl//parkingdata/v2/static/fb8c5af9-aa78-4088-9e3a-151f1315634f;;0;fb8c5af9-aa78-4088-9e3a-151f1315634f;51.4344152;5.4800473;Eindhoven;nl;Noord-Brabant;Zuid-Nederland;good;garage;1;265;1;1.9;1;1;P1
3969;Garage Hub Dassenplein (Sittard);https://npropendata.rdw.nl//parkingdata/v2/static/a99c231a-fb32-4780-87c3-eb99fb85c84e;http://opd.it-t.nl/Data/parkingdata/v1/sittard-geleen/dynamic/a99c231a-fb32-4780-87c3-eb99fb85c84e.json;0;a99c231a-fb32-4780-87c3-eb99fb85c84e;50.99497062793;5.868036000904;Sittard;nl;Limburg;Zuid-Nederland;good;garage;1;285;1;1.9;1;1;Sittard-Geleen
3972;Garage Vaartsche Rijn;https://npropendata.rdw.nl//parkingdata/v2/static/a2a3a9b4-6c17-47a9-aa70-1edef947743f;https://opendata.technolution.nl/opendata/parkingdata/v1/dynamic/a2a3a9b4-6c17-47a9-aa70-1edef947743f;0;a2a3a9b4-6c17-47a9-aa70-1edef947743f;52.0781892;5.1233453729727;Utrecht;nl;Utrecht;Noordwest-Nederland;good;garage;1;209;0;2.1;1;1;P1
3976;Garage Dukenburg (Nijmegen);https://npropendata.rdw.nl//parkingdata/v2/static/7bf4c205-9afc-4543-aef6-4a17cff2d91c;;0;7bf4c205-9afc-4543-aef6-4a17cff2d91c;51.82412155;5.798541926029;Nijmegen;nl;Gelderland;Oost-Nederland;good;garage;1;740;0;1.9;1;1;P1
3983;Terrein Stadspark 1 (Maastricht);https://npropendata.rdw.nl//parkingdata/v2/static/6982062f-e567-4cbe-ac1e-18b5963f36f1;;0;6982062f-e567-4cbe-ac1e-18b5963f36f1;51.4073375;4.9334191587078;;be;;none;good;terrain;1;237;1;2.1;1;1;Maastricht
3988;Garage De Hovel (Goirle);https://npropendata.rdw.nl//parkingdata/v2/static/06b52564-7e7f-4068-b19a-e4505020aeb1;;0;06b52564-7e7f-4068-b19a-e4505020aeb1;51.5214366;5.0676794;Goirle;nl;Noord-Brabant;Zuid-Nederland;good;garage;1;200;0;2;1;1;P1
3991;Garage Zeehos (Katwijk);https://npropendata.rdw.nl//parkingdata/v2/static/c4e3bd14-5d47-4116-b2dd-a23784f1c84a;;0;c4e3bd14-5d47-4116-b2dd-a23784f1c84a;52.1974996;4.3905280964072;Katwijk;nl;Zuid-Holland;Zuidwest-Nederland;good;garage;1;198;0;2;1;1;P1
4012;Garage Koningsplein (Ridderkerk);https://npropendata.rdw.nl//parkingdata/v2/static/f185aa8a-1b7b-49e3-8254-fec9da116ddb;;0;f185aa8a-1b7b-49e3-8254-fec9da116ddb;51.8720504;4.599403;Ridderkerk;nl;Zuid-Holland;Zuidwest-Nederland;good;garage;1;228;1;2.05;1;1;Interparking
4013;Garage Vier Meren (Haarlemmermeer);https://npropendata.rdw.nl//parkingdata/v2/static/4927de92-b1c2-4df9-bd27-0d4e7eeccc27;;0;4927de92-b1c2-4df9-bd27-0d4e7eeccc27;52.3024832;4.6910258;Haarlemmermeer;nl;Noord-Holland;Noordwest-Nederland;good;garage;1;1154;1;2.1;1;1;Interparking
4015;Garage Castellum (Houten);https://npropendata.rdw.nl//parkingdata/v2/static/66839fde-afea-4b4c-8fff-7dc6d9817bcc;;0;66839fde-afea-4b4c-8fff-7dc6d9817bcc;52.0186548;5.1776949;Houten;nl;Utrecht;Noordwest-Nederland;good;garage;1;388;1;2.1;1;1;Interparking
4032;Garage Leyweg 1 (Den Haag);https://npropendata.rdw.nl//parkingdata/v2/static/85b13231-9014-439c-934a-ce5ad58f1db0;;0;85b13231-9014-439c-934a-ce5ad58f1db0;52.0466071;4.2791108;Den Haag;nl;Zuid-Holland;Zuidwest-Nederland;good;garage;1;650;0;2;1;1;P1
4043;Parkeergarage Stationsplein (Weert);https://npropendata.rdw.nl//parkingdata/v2/static/f04c87be-5d1e-41a3-9a9d-973878934809;;0;f04c87be-5d1e-41a3-9a9d-973878934809;51.2493063;5.7053358;Weert;nl;Limburg;Zuid-Nederland;good;garage;1;97;1;2.1;1;1;Weert
4071;Carpool Bareveld (Bareveld);https://npropendata.rdw.nl//parkingdata/v2/static/5acbc368-f6ee-4ad4-bc79-d54b33718c28;;0;5acbc368-f6ee-4ad4-bc79-d54b33718c28;53.0503382;6.8459489;;nl;Drenthe;Noord-Nederland;good;carpool;1;20;1;2;1;1;Aa en Hunze
4075;City Plazagarage (Spijkenisse);https://npropendata.rdw.nl//parkingdata/v2/static/a7490035-a7b0-4bb3-91f4-71bb37c45e08;;0;a7490035-a7b0-4bb3-91f4-71bb37c45e08;51.8491632;4.3309979;Nissewaard;nl;Zuid-Holland;Zuidwest-Nederland;good;garage;1;410;1;2.1;1;1;Nissewaard
4080;Garage Provinciehuis (Groningen);https://npropendata.rdw.nl//parkingdata/v2/static/8d5c23bc-c574-4485-afa9-61925ff546b0;;0;8d5c23bc-c574-4485-afa9-61925ff546b0;53.22037495;6.5705094263257;Groningen;nl;Groningen;Noord-Nederland;good;garage;1;125;1;1.9;1;1;Interparking
4117;Garage Maasburg;https://npropendata.rdw.nl//parkingdata/v2/static/ff734336-dd1f-498f-9307-f35c9f6c8ab1;;0;ff734336-dd1f-498f-9307-f35c9f6c8ab1;51.7304222;5.8801339;Cuijk;nl;Noord-Brabant;Zuid-Nederland;good;garage;1;162;1;2.05;1;1;Cuijk
4124;Parkeergarage Kromstraat (Weert);https://npropendata.rdw.nl//parkingdata/v2/static/83a473ee-4bb6-47cb-bfc5-7cb1e77d90b0;;0;83a473ee-4bb6-47cb-bfc5-7cb1e77d90b0;51.2524869;5.7069633;Weert;nl;Limburg;Zuid-Nederland;good;garage;1;128;1;1.9;1;1;Weert
4125;P+R Garage Olympisch Stadion (Amsterdam);https://npropendata.rdw.nl//parkingdata/v2/static/840dccf1-bb44-4a73-971c-f2f60e7ab289;;0;840dccf1-bb44-4a73-971c-f2f60e7ab289;52.34463915;4.8552883790768;Amsterdam;nl;Noord-Holland;Noordwest-Nederland;good;park and ride;1;350;0;2;1;1;P1
4127;Terrein ZGT Almelo (Almelo);https://npropendata.rdw.nl//parkingdata/v2/static/4b3fb904-d0ea-4904-91da-0598df8b3a14;;0;4b3fb904-d0ea-4904-91da-0598df8b3a14;52.3347959;6.6458390432761;Almelo;nl;Overijssel;Oost-Nederland;good;terrain;1;1372;1;2.2;1;1;Interparking
4128;Garage Geer (Veldhoven);https://npropendata.rdw.nl//parkingdata/v2/static/24118ff7-a909-45e9-9080-4f2889f7607d;;0;24118ff7-a909-45e9-9080-4f2889f7607d;51.421094903582;5.4036234398106;Veldhoven;nl;Noord-Brabant;Zuid-Nederland;good;garage;1;296;1;2.1;1;1;P1
4141;Terrein Stadspark 2 (Maastricht);https://npropendata.rdw.nl//parkingdata/v2/static/af0b223f-cfe3-4e84-8359-2724e26315a0;https://npropendata.rdw.nl//parkingdata/v2/dynamic/af0b223f-cfe3-4e84-8359-2724e26315a0;0;af0b223f-cfe3-4e84-8359-2724e26315a0;51.4073375;4.9334191587078;;be;;none;good;terrain;1;79;1;2.1;1;1;Q-Park Nederland BV
4163;Terrein Stadspark 1 (Maastricht);https://npropendata.rdw.nl//parkingdata/v2/static/45b1b090-778f-4a65-99ba-7baf8e0f4412;https://npropendata.rdw.nl//parkingdata/v2/dynamic/45b1b090-778f-4a65-99ba-7baf8e0f4412;0;45b1b090-778f-4a65-99ba-7baf8e0f4412;51.4073375;4.9334191587078;;be;;none;good;terrain;1;237;1;2.1;1;1;Q-Park Nederland BV
4182;Terrein Stadspark 3 (Maastricht);https://npropendata.rdw.nl//parkingdata/v2/static/53d7d51e-1be5-4ecf-af13-c1c601d37503;https://npropendata.rdw.nl//parkingdata/v2/dynamic/53d7d51e-1be5-4ecf-af13-c1c601d37503;0;53d7d51e-1be5-4ecf-af13-c1c601d37503;51.4073375;4.9334191587078;;be;;none;good;terrain;1;91;1;2.1;1;1;Q-Park Nederland BV
4196;Parkeergarage Marktplein;https://npropendata.rdw.nl//parkingdata/v2/static/c8def33d-6bbf-4162-a9bc-27bc79430d0d;;0;c8def33d-6bbf-4162-a9bc-27bc79430d0d;52.215946;5.9635722;Apeldoorn;nl;Gelderland;Oost-Nederland;good;garage;1;700;1;2;0;1;UNKNOWN
